id,pubNumber,name,summary,address1,city,county,postcode,region,subRegion,lng,lat,telephone,isHotel,isAirport
6a8f39bb-af95-4d6e-8f6f-1e96602abbd9,5243,Abraham Darby,,Merry Hill Centre,Brierley Hill,West Midlands,DY5 1SX,England,West Midlands,-2.11140704154968,52.4794273376465,01384 472850,False,False
03317338-fae9-489a-afe7-741118c4b7a7,6694,St. Matthew’s Hall,,Lichfield Street,Walsall,West Midlands,WS1 1SX,England,West Midlands,-1.97981202602386,52.5851898193359,01922 700820,False,False
a4ee0b86-81fb-4aa5-9496-3f5552ef5934,5834,The Arthur Robertson,,Walsall Road,Birmingham,West Midlands,B42 1AA,England,West Midlands,-1.90260195732117,52.5169219970703,0121 332 5910,False,False
30c1e03c-bfa5-4fbe-a198-8762770622c1,5397,The Atrium,,Birmingham NEC,Birmingham,West Midlands,B40 1NT,England,West Midlands,-1.71790599822998,52.4545974731445,0121 782 7757,False,False
d9f5edbe-6389-4ed8-9fea-9fece420ec81,6882,The Avion,,19 Anchor Road,Aldridge,West Midlands,WS9 8PT,England,West Midlands,-1.91969799995422,52.6034278869629,01922 749810,False,False
e048324e-d0d9-4e5c-8646-00013a6bc24c,1406,The Bellwether,,3–4 Walsall Street,Wednesbury,West Midlands,WS10 9BZ,England,West Midlands,-2.01899695396423,52.5532493591309,0121 502 6404,False,False
3c321b36-c7be-4c1e-bebf-2164871c8fd2,592,The Billiard Hall,,St Michael’s Street,West Bromwich,West Midlands,B70 7AB,England,West Midlands,-1.99523603916168,52.5184745788574,0121 580 2892,False,False
9cdd034a-bbcb-4992-bce9-961172c9c177,297,The Bishop Vesey,,63 Boldmere Road,Sutton Coldfield,West Midlands,B73 5XA,England,West Midlands,-1.84108805656433,52.548526763916,0121 355 5077,False,False
e8248a77-da2f-481e-85aa-03d4b01867ef,6234,The Black Horse,,Bristol Road South,Birmingham,West Midlands,B31 2QT,England,West Midlands,-1.97342300415039,52.411922454834,0121 477 1800,False,False
ca1d7221-e9dd-4726-862d-74570409a76d,6875,The Bloxwich Showman,,156A High Street,Bloxwich,West Midlands,WS3 3JT,England,West Midlands,-2.0041708946228,52.6147804260254,01922 495366,False,False
bd884721-61c7-43c5-a7dc-3379df53e0ef,1251,The Bottle of Sack,,2 Birmingham Road,Sutton Coldfield,West Midlands,B72 1QG,England,West Midlands,-1.82551097869873,52.5602531433105,0121 362 8870,False,False
caa97e55-16e6-4e45-ad01-6750c93dd5b2,791,The Briar Rose,,25 Bennetts Hill,Birmingham,West Midlands,B2 5RE,England,West Midlands,-1.90019297599792,52.4799194335938,0121 634 8100,False,False
729cab72-6da7-4c35-96ee-0252622ef279,1656,The Britannia,,124 Halesowen Street,Rowley Regis,West Midlands,B65 0ES,England,West Midlands,-2.0417959690094,52.4737319946289,0121 559 0010,False,False
a5a99cd0-cf2c-43d3-9c01-ebea2d8a9e78,1355,The Charlie Hall,,49 Barnabas Road,Birmingham,West Midlands,B23 6SH,England,West Midlands,-1.83996999263763,52.5242500305176,0121 384 2716,False,False
1dc67171-949d-4a81-b768-c1459e483baf,6422,The Chequers Inn,,96 High Street,Stourbridge,West Midlands,DY8 1EQ,England,West Midlands,-2.14375805854797,52.4549751281738,01384 398670,False,False
e09a0fc1-8934-459f-9529-c08c740b0017,1823,The City Arms,,1 Earlsdon Street,Coventry,West Midlands,CV5 6EP,England,West Midlands,-1.53071701526642,52.3996505737305,024 7671 8170,False,False
7cf745e2-47f0-4275-8549-781bc172a809,663,The Clifton,,Bull Ring,Sedgley,West Midlands,DY3 1RX,England,West Midlands,-2.12246108055115,52.5414009094238,01902 677448,False,False
1b532dfe-13e0-4dc7-a1cd-0e269d735b75,6596,The Court of Requests,,Church Street,Oldbury,West Midlands,B69 3AF,England,West Midlands,-2.01585102081299,52.504695892334,0121 543 6970,False,False
0f21692a-2d02-4520-9f2c-f525e69c2eb7,7226,The Cross Inn,,The Cross Inn,Kingswinford,West Midlands,DY6 8AA,England,West Midlands,-2.17708539962769,52.4974632263184,01384 297014,False,False
f71ecde9-01e6-432d-85bd-fe8e0fe874ad,5609,The Dragon Inn,,Hurst Street,Birmingham,West Midlands,B5 4TD,England,West Midlands,-1.89664602279663,52.4742698669434,0121 622 7850,False,False
c70a85ba-943a-4203-ab95-7d7c9f7e3c9c,2192,The Earl of Mercia,,18 High Street,Coventry,West Midlands,CV1 5RE,England,West Midlands,-1.50856697559357,52.4071311950684,024 7643 3990,False,False
b8f25d5a-572c-4ba5-92a3-c20446633bd3,1320,The Elizabeth of York,,12a St Mary’s Row,Moseley,West Midlands,B13 8JG,England,West Midlands,-1.88753199577332,52.4463157653809,0121 442 5250,False,False
a7f7f912-c5b3-433e-9408-7de3292291ff,295,The Figure of Eight,,236–239 Broad Street,Birmingham,West Midlands,B1 2HG,England,West Midlands,-1.91231203079224,52.4765663146973,0121 633 0917,False,False
74504c12-d98d-45ae-b598-df07a6ec1c9b,163,The Flying Standard,,2–10  Trinity Street,Coventry,West Midlands,CV1 1FL,England,West Midlands,-1.50948596000671,52.4090690612793,024 7655 5723,False,False
b914a4cc-5ef8-411d-b131-f4aefb89c4ba,189,The Full Moon,,58–60 High Street,Dudley,West Midlands,DY1 1PY,England,West Midlands,-2.08445501327515,52.5094261169434,01384 212294,False,False
c0c3986f-99ea-4714-818c-a86853904308,1670,The Hornet,,991 Alum Rock Road,Birmingham,West Midlands,B8 2LY,England,West Midlands,-1.81948697566986,52.4927177429199,0121 789 5920,False,False
a9a2d988-e7e6-425e-b8d4-8eb5cf8ee8f9,798,The Malthouse,,The Dale,Willenhall,West Midlands,WV13 2BG,England,West Midlands,-2.05502700805664,52.5829582214355,01902 635273,False,False
83b1e485-a61c-4036-ab2d-83c8bc4a8827,6387,The Mare Pool,,294 Lichfield Road,Mere Green,West Midlands,B74 2UG,England,West Midlands,-1.82841897010803,52.586540222168,0121 323 1070,False,False
3e6c78be-2691-4626-8081-25954eb10bd4,495,The Moon Under Water,,164–166 High Street,Cradley Heath,West Midlands,B64 5HJ,England,West Midlands,-2.0824658870697,52.4721031188965,01384 565419,False,False
c36f9996-7627-4526-85dc-7abbb28ddb65,184,The Moon Under Water,,53–55 Lichfield Street,Wolverhampton,West Midlands,WV1 1EQ,England,West Midlands,-2.12417101860046,52.5867462158203,01902 422447,False,False
c2323769-7c62-4732-b79e-46a53f1bb358,7528,The Navigation Inn ,,1 Wharf Road,Birmingham	,West Midlands,B30 3LS	,England,West Midlands,-1.92660963535309,52.4078330993652,,False,False
361d2f96-25dd-45f0-991d-363526975410,7178,The Pump House,,"Unit 1 Parkgate Development, Stratford Road",Solihull,West Midlands,B90 3AQ,England,West Midlands,-1.82775902748108,52.4128646850586,0121 701 5460,False,False
ae89c31a-ad78-4648-a23f-e0bbbdf2b093,626,The Royal Tiger,,41–43 The High Street,Wednesfield,West Midlands,WV11 1ST,England,West Midlands,-2.08189105987549,52.6002922058105,01902 307816,False,False
1bb08d1f-1b11-425a-9960-9f8766815072,1470,The Sir Henry Newbolt,,45–47 High Street,Bilston,West Midlands,WV14 0EP,England,West Midlands,-2.0803050994873,52.5640487670898,01902 404636,False,False
6f9be7bc-6f83-44c6-a2d4-996ca787a944,4124,The Soloman Cutler,,Regency Wharf,Birmingham,West Midlands,B1 2DS,England,West Midlands,-1.91008198261261,52.4781227111816,0121 631 8930,False,False
44c82383-4822-4e7e-b455-dce6300ddf13,6400,The Spon Gate,,"Unit 2M, The Skydome, Croft Road",Coventry,West Midlands,CV1 3AZ,England,West Midlands,-1.51780200004578,52.4072036743164,024 7662 7300,False,False
eb1bea3f-2a5b-41e6-a63f-1ca4b240cb1a,398,The Spread Eagle,,1146a  Warwick Road,Birmingham,West Midlands,B27 6BL,England,West Midlands,-1.81966495513916,52.4467315673828,0121 708 0194,False,False
09d7a628-c211-4d56-a09a-50c0fd6fd41c,82,The Square Peg,,115 Corporation Street,Birmingham,West Midlands,B4 6PH,England,West Midlands,-1.89495301246643,52.4818725585938,0121 236 6530,False,False
51d76fbd-2e18-47d3-81de-06692f0cec3c,1227,The Waterfront Inn,,6–7 The Waterfront,Brierley Hill,West Midlands,DY5 1XE,England,West Midlands,-2.11440706253052,52.4856872558594,01384 262096,False,False
f338008a-8e59-44a4-817c-27dc42ee9697,5178,The White Swan,,32–34 Station Road,Solihull,West Midlands,B91 3SB,England,West Midlands,-1.78106296062469,52.4144554138184,0121 711 5180,False,False
76cd6ddd-a8b8-4427-a95c-3a5e61879f76,494,The William Shenstone,,1–5 Queensway,Halesowen,West Midlands,B63 4AB,England,West Midlands,-2.05081796646118,52.4496994018555,0121 585 6246,False,False
1751d16d-6950-4b39-bf88-6e145883f954,6299,The William Tyler,,140 Church Road,Birmingham,West Midlands,B25 8UT,England,West Midlands,-1.80855095386505,52.4674377441406,0121 789 5860,False,False
58fa13b3-7871-4aa0-86df-9a783d9fbf72,6137,Airport Wetherspoons,,"After Security, Terminal 1, Birmingham International Airport",Birmingham,West Midlands,B26 3QJ,England,West Midlands,-1.73261797428131,52.4533424377441,0121 782 8823,False,True
165fcff1-0b99-4cf3-83e1-355d5be39bc6,5505,NEC Wetherspoons,,Birmingham NEC,Birmingham,West Midlands,B40 1NT,England,West Midlands,-1.71706998348236,52.4538917541504,0121 767 9140,False,False
59d628de-ed21-44ee-8e03-3550a08a9cd2,185,Baxter’s Court,,282–284 Mare Street,Hackney,London,E8 1HE,England,London,-0.0550870001316071,51.5454559326172,020 8525 9010,False,False
2a7a880a-f3e2-4b11-b539-77917dc2ef84,91,Goldengrove,,146–148 The Grove,Stratford,London,E15 1NS,England,London,0.00399800017476082,51.5437507629395,020 8519 0750,False,False
185103d6-028c-4203-87bb-e64d11af781b,2173,Goodman’s Field,,87–91 Mansell Street,Tower Hamlets,London,E1 8AN,England,London,-0.0728579983115196,51.5114936828613,020 7680 2850,False,False
6225c439-dd5b-4e3b-8b4f-6aaabfd82853,42,Hamilton Hall,,Street-level Concourse,City of London,London,EC2M 7PY,England,London,-0.0809630006551743,51.5176429748535,020 7247 3579,False,False
d35c8317-3894-4519-8564-2bfb5ca60196,27,J.J. Moon’s,,553 Kingsbury Road,Kingsbury,London,NW9 9EL,England,London,-0.279922008514404,51.5846748352051,020 8204 9675,False,False
97154c9a-c99c-446b-a1c7-100755ec0270,20,J.J. Moon’s,,12 Victoria Road,Ruislip Manor,London,HA4 0AA,England,London,-0.41329300403595,51.5733261108398,01895 622373,False,False
1a2d80da-0529-405c-a19c-ac81b5417495,39,J.J. Moon’s,,56a High Street,Tooting,London,SW17 0RN,England,London,-0.168426007032394,51.427848815918,020 8672 4726,False,False
e0dd606f-622d-45bf-ae21-5f2c1d899c9c,5,J.J. Moon’s,,397 High Road,Wembley,London,HA9 6AA,England,London,-0.292811006307602,51.5535888671875,020 8903 4923,False,False
c393af3a-5921-439f-8c35-2996f4e2c381,506,Penderel’s Oak,,283–288 High Holborn,Holborn,London,WC1V 7HP,England,London,-0.115480996668339,51.5179672241211,020 7242 5669,False,False
99d3eca8-c211-4568-b528-cf931e316df9,239,Shakespeare's Head,,"Africa House, 64–68 Kingsway",Holborn,London,WC2B 6BG,England,London,-0.119686000049114,51.5168151855469,020 7404 8846,False,False
e2166cc8-5aa9-416c-b958-33e39f175aad,390,Spouter’s Corner,,"Unit 5, Spouter’s Corner",Wood Green,London,N22 6EJ,England,London,-0.108708001673222,51.5969734191895,020 8881 3891,False,False
1e3a5de8-f09f-46c2-b7a9-30ece478951f,2466,The Alfred Herring,,316–322 Green Lanes,Palmers Green,London,N13 5TT,England,London,-0.106969997286797,51.6193428039551,020 3232 1083,False,False
c4626b8b-b8e9-48d6-81eb-d35cb69f9859,783,The Angel,,3–5 Islington High Street,Islington,London,N1 9LQ,England,London,-0.106421999633312,51.5321846008301,020 7837 2218,False,False
fabc3245-4853-468a-8a85-1d2a7cb0d7d6,635,The Asparagus,,1–13 Falcon Road,Battersea,London,SW11 2PL,England,London,-0.171416997909546,51.4698791503906,020 7801 0046,False,False
6393aa8f-c80b-41ef-8c09-faae2fb98024,87,The Banker’s Draft,,80 High Street,Eltham,London,SE9 1BW,England,London,0.0522719994187355,51.4506797790527,020 8294 2578,False,False
66a020c4-d323-48bc-aedb-40c4fba8c205,7498,The Barrel Vault,,"Unit 23, St Pancras International Station",London,,N1C 4QP,England,London,-0.126680195331573,51.5314292907715,020 7837 5151,False,False
538c60e7-01fb-400b-9afe-ed31ebae26d4,35,The Beaten Docket,,50–56 Cricklewood Broadway,Cricklewood,London,NW2 3ET,England,London,-0.211524993181229,51.5535278320313,020 8450 2972,False,False
7072f11f-200b-42dc-9257-db42c2ae9655,51,The Beehive,,407–409 Brixton Road,Brixton,London,SW9 7DG,England,London,-0.114514000713825,51.463752746582,020 7738 3643,False,False
6aa34b76-e486-435f-8ed6-1d375427cfd4,884,The Botwell Inn,,25–29 Coldharbour Lane,Hayes,London,UB3 3EB,England,London,-0.416617006063461,51.5081329345703,020 8848 3112,False,False
e43f349c-70e4-4a7a-9265-1dca1f264faf,1006,The Brockley Barge,,184 Brockley Road,Brockley,London,SE4 2RR,England,London,-0.0364169999957085,51.4641380310059,020 8694 7690,False,False
7c2bde6d-f0ab-40e2-905a-db87f4f41618,1686,The Capitol,,11–21 London Road,Forest Hill,London,SE23 3TW,England,London,-0.0547920018434525,51.4391479492188,020 8291 8920,False,False
6881a36c-7798-4009-8195-9d7f051605b1,4030,The Central Bar,,"Unit 1, West 12 Shopping Centre",Shepherds Bush,London,W12 8PH,England,London,-0.219394996762276,51.5038719177246,020 8746 4290,False,False
1e50ee80-6ac4-4b6b-bc88-b3e9a5772b94,453,The Coronation Hall,,St Mark’s Hill,Surbiton,London,KT6 4LQ,England,London,-0.303705006837845,51.3935203552246,020 8390 6164,False,False
3b2cce00-0f09-47bd-80e9-8578d06996fd,279,The Coronet,,338–346 Holloway Road,Holloway,London,N7 6NJ,England,London,-0.115776002407074,51.5555152893066,020 7609 5014,False,False
60c402f2-131d-4093-a7b4-9d0febb9ca3b,364,The Crosse Keys,,9 Gracechurch Street,City of London,London,EC3V 0DR,England,London,-0.0846569985151291,51.5127258300781,020 7623 4824,False,False
728bc4b6-7c67-470f-817e-f52e1a0850b2,1019,The Edmund Halley,,Lee Gate Centre,Lee Green,London,SE12 8RG,England,London,0.011735999956727,51.4554595947266,020 8318 7475,False,False
95ce604b-027b-458e-b22f-46a7aadd9856,134,The Fox on the Hill,,149 Denmark Hill,Camberwell,London,SE5 8EH,England,London,-0.0900200009346008,51.4648666381836,020 7738 4756,False,False
8ef88ddb-c9ce-48f7-84de-bb18d5b1020e,109,The Foxley Hatch,,8–9 Russell Hill Parade,Purley,London,CR8 2LE,England,London,-0.117581002414227,51.3393821716309,020 8763 9307,False,False
b7f654bf-70cb-4714-9f86-002dfd8b0142,2862,The Furze Wren,,"Broadway Sq, 6 Market Place",Bexleyheath,London,DA6 7DY,England,London,0.14767299592495,51.4566040039063,020 8298 2590,False,False
77ae7ecb-f1f7-4959-9334-937ecc4d008b,585,The Gate Clock,,Cutty Sark Station,Greenwich,London,SE10 9RB,England,London,-0.0111320000141859,51.4814872741699,020 8269 2000,False,False
d6766814-172d-4329-bd48-e90321cf8043,50,The George,,17–21 George Street,Croydon,London,CR0 1LA,England,London,-0.0984390005469322,51.3740501403809,020 8649 9077,False,False
9bc5c5eb-ff03-482d-93ff-ef0d9813a7b0,46,The George,,155–159 High Street,Wanstead,London,E11 2RL,England,London,0.0281729996204376,51.5759468078613,020 8989 2921,False,False
551a88d8-966d-471b-b298-fa0b9bd810ef,112,The Good Yarn,,132 High Street,Uxbridge,London,UB8 1JX,England,London,-0.480843007564545,51.5477867126465,01895 239852,False,False
d71414fc-7b22-4b06-8fc0-720ec21d4845,1139,The Great Harry,,7–9 Wellington Street,Woolwich,London,SE18 6PQ,England,London,0.0669170022010803,51.4899749755859,020 8853 9460,False,False
f70ff3ef-bd40-4318-9831-bb2c51350116,7337,The Greenwood Hotel,,674 Whitton Avenue West			,Northolt	,London,UB5 4LA,England,London,-0.351426512002945,51.5530204772949,020 8423 6169,False,False
0e91105f-ea35-4e15-bb1b-da66efae8e2f,6364,The Greyhound,,205 High Street,Bromley,London,BR1 1NY,England,London,0.0132330004125834,51.4063720703125,020 8315 0250,False,False
0efd260b-4115-493f-a38a-e5e4f7cb9845,590,The Half Moon,,213–223 Mile End Road,Mile End,London,E1 4AA,England,London,-0.0453159995377064,51.5221939086914,020 7790 6810,False,False
e1c7eb10-a387-47b5-b0f6-c2d00a19c4f0,133,The Harvest Moon,,141–143 High Street,Orpington,London,BR6 0LQ,England,London,0.101116999983788,51.3778457641602,01689 876931,False,False
06ee953f-15e3-4a28-8dc8-0c0db3784fef,469,The Holland Tringham,,107–109 Streatham High Road,Streatham,London,SW16 1HJ,England,London,-0.129822999238968,51.43017578125,020 8769 3062,False,False
40cc1af9-59c0-4600-a088-cc27b31d997c,703,The Hudson Bay,,1–5 Upton Lane,Forest Gate,London,E7 9PA,England,London,0.0260249990969896,51.5458106994629,020 8471 7702,False,False
eb0d5e49-61e7-40b9-9f6d-cb79030f3fd9,2450,The Ice Wharf,,"Units 1–2, Suffolk Wharf",Camden,London,NW1 7BY,England,London,-0.145664006471634,51.5408744812012,020 7428 3770,False,False
82ee142c-b46f-4402-a65f-da96dd0cc812,638,The Kentish Drovers,,71–79 Peckham High Street,Peckham,London,SE15 5RS,England,London,-0.0700120031833649,51.4735488891602,020 7277 4283,False,False
10cd57d2-cb84-4264-ad45-9a2bd671b448,214,The King’s Ford,,250–252 Chingford Mount Road,Chingford,London,E4 8JL,England,London,-0.0172819998115301,51.6163482666016,020 8523 9365,False,False
99316996-c6b9-40c0-9510-e5631bf4160b,266,The Kings Tun,,153–157 Clarence Street,Kingston upon Thames,London,KT1 1QT,England,London,-0.300592005252838,51.4114685058594,020 8547 3827,False,False
7a9cf68f-79e4-4c60-b659-a1180f4672ca,538,The Knights Templar,,95 Chancery Lane,Near Fleet Street,London,WC2A 1DT,England,London,-0.111948996782303,51.5152587890625,020 7831 2660,False,False
f8175e76-5a99-455f-8f86-2b5e090639d8,1637,The Ledger Building,,4 Hertsmere Road,Docklands,London,E14 4AL,England,London,-0.0245440006256104,51.5075645446777,020 7536 7770,False,False
eb6e22af-56c5-461f-b5b5-6fb5ec22834b,550,The Liberty Bounds,,15 Trinity Square,Tower of London,London,EC3N 4AA,England,London,-0.0785629972815514,51.509693145752,020 7481 0513,False,False
201b5377-0960-496e-a931-284ca5e8c406,1408,The London & Rye,,109 Rushey Green,Catford,London,SE6 4AF,England,London,-0.0183470007032156,51.4470138549805,020 8697 5028,False,False
d5e677b6-a855-49d1-b48f-49c289afffb5,7249,The London and South Western,,276–288 Lavender Hill,Battersea,London,SW11 1LJ,England,London,-0.167484998703003,51.4640274047852,0207 7380834,False,False
3367338a-7b94-497a-9964-a77214a26d57,195,The Masque Haunt,,168–172 Old Street,Old Street,London,EC1V 9BP,England,London,-0.0906419977545738,51.5251998901367,020 7251 4195,False,False
8b6bb489-f53c-4b37-b92b-469420cc8b74,1106,The Metropolitan Bar,,7 Station Approach,Marylebone,London,NW1 5LA,England,London,-0.156874999403954,51.522518157959,020 7486 3489,False,False
5a680efd-f232-4367-b9a0-96219397d583,62,The Miller’s Well,,419–421 Barking Road,East Ham,London,E6 2JX,England,London,0.0563490018248558,51.5334358215332,020 8471 8404,False,False
e39e1ae3-8b6e-4f83-93a2-885f44c1c907,188,The Montagu Pyke,,105–107 Charing Cross Road,West End,London,WC2H 0BP,England,London,-0.129739999771118,51.5140533447266,020 7287 6039,False,False
6b29955b-d109-4854-9374-239a0ed509e9,71,The Moon & Stars,,164–166 High Street,Penge,London,SE20 7QS,England,London,-0.0508849993348122,51.4127464294434,020 8776 5680,False,False
3fdd8998-9d1d-4c71-a8db-b0a92c5ae366,37,The Moon and Sixpence,,250 Uxbridge Road,Hatch End,London,HA5 4HS,England,London,-0.372714012861252,51.6083068847656,020 8420 1074,False,False
8efe0f67-4c96-4cd1-a936-a0fb0ecc7dbe,79,The Moon and Stars,,99–103 South Street,Romford,London,RM1 1NX,England,London,0.183145999908447,51.5757179260254,01708 730117,False,False
9bc99a04-b812-4b57-93f1-3f09ff8fe075,38,The Moon on the Hill,,373–375 Station Road,Harrow,London,HA1 2AW,England,London,-0.334160000085831,51.5793762207031,020 8863 3670,False,False
2ed427ca-d9b5-483f-b67f-bd6b4760e777,106,The Moon on the Hill,,5–9 Hill Road,Sutton,London,SM1 1DZ,England,London,-0.193255007266998,51.3618927001953,020 8643 1202,False,False
a83ed877-1c18-454d-8325-b33bd5da521a,227,The Moon on the Square,,"Unit 30, The Centre",Feltham,London,TW13 4AU,England,London,-0.410088986158371,51.446361541748,020 8893 1293,False,False
cda914c9-f0c3-4c46-8bb8-0938e3c950a1,30,The Moon Under Water,,10 Varley Parade,Colindale,London,NW9 6RR,England,London,-0.251046001911163,51.5873527526855,020 8200 7611,False,False
ac7afff3-a1dd-4828-9734-005dca868354,33,The Moon Under Water,,84–86 Staines Road,Hounslow,London,TW3 3LF,England,London,-0.369405001401901,51.4670829772949,020 8572 7506,False,False
c17fe5c1-4c7c-4ecd-8635-173766bda55f,81,The Moon Under Water,,1327 London Road,Norbury,London,SW16 4AU,England,London,-0.121380001306534,51.407096862793,020 8765 1235,False,False
88b9e867-4923-4243-9b44-48b4544ab345,70,The Moon Under Water,,28 Leicester Square,West End,London,WC2H 7LE,England,London,-0.129424005746841,51.5102653503418,020 7839 2837,False,False
4311965b-0b98-4025-bd0b-eb3fdf5f7b19,6524,The Mossy Well,,258 Muswell Hill Broadway,Muswell Hill,London,N10 3SH,England,London,-0.141639992594719,51.5908737182617,020 8444 2914,False,False
6222c10a-fe70-463b-b25a-6732e2906b31,728,The New Cross Turnpike,,55 Bellegrove Road,Welling,London,DA16 3PB,England,London,0.103909000754356,51.462947845459,020 8304 1600,False,False
ac99c8e9-7566-4e10-9adb-231af9295af3,101,The New Crown,,80–84 Chase Side,Southgate,London,N14 5PH,England,London,-0.130591005086899,51.6333160400391,020 8882 8758,False,False
20d1a8ae-cdff-4506-ae86-324a75b3f3e3,4,The New Moon,,25–26 Kenton Park Parade,Harrow,London,HA3 8DN,England,London,-0.304293990135193,51.5872421264648,020 8909 1103,False,False
f6ec2e45-3137-4988-886f-37cdb949c6b5,154,The Nonsuch Inn,,552–556 London Road,North Cheam,London,SM3 9AA,England,London,-0.226120993494987,51.3724670410156,020 8644 1808,False,False
56c9d687-863e-4e96-972c-13d1d94eca56,2175,The Plough & Harrow,,120–124 King Street,Hammersmith,London,W6 0QU,England,London,-0.231469005346298,51.4926643371582,020 8735 6020,False,False
6ac937c7-1463-4a0b-b77e-0ce9293149e5,487,The Pommelers Rest,,196–198 Tower Bridge Road,Tower Bridge (South),London,SE1 2UN,England,London,-0.077334001660347,51.5023651123047,020 7378 1399,False,False
d982f1a8-a110-40d0-ae46-79d9311d70e4,9,The Railway Bell,,13 East Barnet Road,Barnet,London,EN4 8RR,England,London,-0.173008993268013,51.6503791809082,020 8449 1369,False,False
3419f709-ab3e-4291-b83f-c9092e42d984,59,The Red Lion & Pineapple,,281 High Street,Acton,London,W3 9BP,England,London,-0.276565998792648,51.5082664489746,020 8896 2248,False,False
67e33df7-3408-4ad5-890e-7167342a8344,704,The Richmal Crompton,,23 Westmoreland Place,Bromley,London,BR1 1DS,England,London,0.0167440008372068,51.3996696472168,020 8464 1586,False,False
068217d0-cf19-41d7-a34a-fe85108decae,3,The Rochester Castle,,143–145 Stoke Newington High Street,Stoke Newington,London,N16 0NY,England,London,-0.0739760026335716,51.5609588623047,020 7249 6016,False,False
74c41c09-8828-4e56-b19d-1cfd1e8f8604,6283,The Rocket,,"Putney Wharf Tower, Brewhouse Lane",Putney,London,SW15 2JQ,England,London,-0.212938994169235,51.4656028747559,020 8780 8970,False,False
68de16fb-0630-4250-99c5-d7353c27bc50,1260,The Rockingham Arms,,Metro Central Heights,Elephant & Castle,London,SE1 6BN,England,London,-0.0997269973158836,51.4960823059082,020 7940 0890,False,False
1148a8ca-c21c-479f-a684-9a894985ed4e,7077,The Sir John Hawkshaw,,"Cannon Street Station, Cannon Street",London,London,EC4N 6AP,England,London,-0.0902509987354279,51.511360168457,020 3206 1004,False,False
0f0e50c9-7502-402f-ad42-8e9d10c506cd,430,The Sir John Oldcastle,,29–35 Farringdon Road,Farringdon,London,EC1M 3JF,England,London,-0.105881996452808,51.5198173522949,020 7242 1013,False,False
8f9b3b2a-fed6-4ed9-9f6f-37b4871a3f5d,1249,The Sir Julian Huxley,,152–154 Addington Road,Selsdon,London,CR2 8LB,England,London,-0.0625189989805222,51.3434448242188,020 8657 9457,False,False
59700dbc-e089-4a41-a874-94fd94370b95,6014,The Sir Michael Balcon,,46–47 The Mall,Ealing,London,W5 3TJ,England,London,-0.298768013715744,51.5136032104492,020 8799 2850,False,False
22347b96-1a08-4652-831d-426b28af2ff4,140,The Sovereign of the Seas,,109–111 Queensway,Petts Wood,London,BR5 1DG,England,London,0.0721379965543747,51.3893241882324,01689 891606,False,False
41829cc6-ea93-4fd8-8a25-272b8d627866,467,The Surrey Docks,,185 Lower Road,Rotherhithe,London,SE16 2LW,England,London,-0.0465900003910065,51.4930534362793,020 7394 2832,False,False
da27a1a4-9215-485a-8d80-1dd24f76ef9f,6151,The Tailor’s Chalk,,47–49 Sidcup High Street,Sidcup,London,DA14 6ED,England,London,0.10351300239563,51.4261627197266,020 8308 6880,False,False
02a98064-6ad7-47f3-a6d4-5937b26345cf,707,The Tichenham Inn,,11 Swakeleys Road,Ickenham,London,UB10 8DF,England,London,-0.44472399353981,51.5644493103027,01895 678916,False,False
e673d615-c964-414d-a52e-a314e5a844e2,18,The Toll Gate,,26–30 Turnpike Lane,Harringay,London,N8 0PS,England,London,-0.105232000350952,51.5899505615234,020 8889 9085,False,False
49bd6ae3-c357-4cbf-beb2-662876f7ecfb,53,The Village Inn,,402–408 Rayners Lane,Rayners Lane,London,HA5 5DY,England,London,-0.370988011360168,51.5769004821777,020 8868 8551,False,False
af844925-c78f-438e-b50c-a590757db9ab,433,The Walnut Tree,,857–861 High Road,Leytonstone,London,E11 1HH,England,London,0.0128790000453591,51.5697898864746,020 8539 2526,False,False
4c01ccbd-2c1f-4df7-bdac-5fd4c5275901,254,The Watch House,,198–204 High Street,Lewisham,London,SE13 6JP,England,London,-0.0116400001570582,51.4599456787109,020 8318 3136,False,False
03691482-5c1e-48b6-8f1e-380be0e31e10,5447,The Watchman,,184 High Street,New Malden,London,KT3 4ES,England,London,-0.255329012870789,51.398868560791,020 8329 0450,False,False
401116c9-769c-42f8-b0d4-4cbc24fda0d3,55,The Whispering Moon,,25 Ross Parade,Wallington,London,SM6 8QF,England,London,-0.149607002735138,51.3600654602051,020 8647 7020,False,False
1e1f4775-f4c2-4950-bfcb-71b845663bbb,1732,The White Swan,,255–256 Upper Street,Islington,London,N1 1RY,England,London,-0.103410996496677,51.5457382202148,020 7288 9050,False,False
b3e5a290-d1d2-436c-bbc2-17e36c5fbdcd,221,The Wibbas Down Inn,,6–12 Gladstone Road,Wimbledon,London,SW19 1QT,England,London,-0.202660992741585,51.4191665649414,020 8540 6788,False,False
e453f851-4435-4f6a-be24-ff44ed3b5a5e,166,The William Morris,,Swan Island,Hammersmith,London,W6 0QA,England,London,-0.225152000784874,51.4930152893066,020 8741 7175,False,False
4fd4b710-9efd-4764-bfe2-062ec8e6452a,2650,The William Webb Ellis,,24 London Road,Twickenham,London,TW1 3RR,England,London,-0.328530013561249,51.4475898742676,020 8744 4300,False,False
1c3d3a51-9b7d-416f-963e-e4abc74d34d5,1169,The Willow Walk,,25 Wilton Road,Victoria,London,SW1V 1LW,England,London,-0.142529994249344,51.4950256347656,020 7828 2953,False,False
f80e816e-7484-4974-b160-c2bb3b7320c5,6017,The World’s Inn,,113–117 South Street,Romford,London,RM1 1NX,England,London,0.182543992996216,51.5759010314941,01708 333120,False,False
91050330-8b8a-44ee-aa6b-5fc19dfb4952,100,The Wrong ’Un,,234–236 The Broadway,Bexleyheath,London,DA6 8AS,England,London,0.137446999549866,51.4577445983887,020 8298 0439,False,False
d29ffd36-a025-4b3b-9474-749a36e22951,64,Wetherspoons,,Unit 5 (1st Floor above WHSmith),Victoria Station Concourse,London,SW1V 1JT,England,London,-0.144408002495766,51.4952964782715,020 7931 0445,False,False
f698ca74-2996-4a05-aad7-93b2f383cad9,246,Beckett's Bank,,28–30 Park Row,Leeds,West Yorkshire,LS1 5HU,England,West Yorkshire,-1.54728496074677,53.7985801696777,0113 394 5900,False,False
2c473bec-34af-4694-8c30-3bca45bb1312,7517,Stick or Twist ,,"16, Merrion Way",Leeds,West Yorkshire,LS2 8PT,England,West Yorkshire,-1.54327940940857,53.802791595459,0113 887 6880,False,False
f162faf2-8180-41b7-bf64-a550b24bf060,446,The Barum Top Inn,,17 Rawson Street,Halifax,West Yorkshire,HX1 1NX,England,West Yorkshire,-1.86274099349976,53.7216796875,01422 300488,False,False
30939cea-5494-46ff-a57c-054b0690a9e8,7104,The Blue Bell,,8 Cross Hill,Pontefract,West Yorkshire,WF9 4LQ,England,West Yorkshire,-1.35426104068756,53.6135520935059,01977 624930,False,False
890ed6c8-c892-411b-92de-5fab68fce5df,5523,The Bowling Green,,18 Bondgate,Otley,West Yorkshire,LS21 3AB,England,West Yorkshire,-1.69289898872375,53.9042053222656,01943 858980,False,False
70cbc1db-610f-4ede-95eb-57f98ee5d9dc,7283,The Briggate,,37 Main Street,Leeds,West Yorkshire,LS25 1DS,England,West Yorkshire,-1.3883341550827,53.7935218811035,01133 854500,False,False
e99f689d-9580-4861-98e8-88a12ebc2bfa,5683,The Broken Bridge,,5 Horsefair,Pontefract,West Yorkshire,WF8 1PD,England,West Yorkshire,-1.30939900875092,53.692554473877,01977 781640,False,False
530306da-3cc6-4d57-b047-c9a6451f415f,7402,Charles Henry Roe,,39/41 Austhorpe Road,Leeds,West Yorkshire,LS15 8BA,England,West Yorkshire,-1.45103585720062,53.8074722290039,0113 264 3970,False,False
1d251504-4c1f-4657-a493-354361dd3bea,1536,The Cherry Tree,,Pearl Assurance House,Huddersfield,West Yorkshire,HD1 1BA,England,West Yorkshire,-1.78239798545837,53.647403717041,01484 448190,False,False
f49e4a79-13b2-433f-9a84-58bbf1255038,7153,The Clothier’s Arms,,56 High Street,Leeds,West Yorkshire,LS19 7PP,England,West Yorkshire,-1.68158602714539,53.8661117553711,0113 238 6970,False,False
e4e07aac-ebfa-404e-a66f-323666639e25,6976,The Commercial Inn,,"The Wharf, 31 Wharf Street",Sowerby Bridge,West Yorkshire,HX6 2LA,England,West Yorkshire,-1.90780103206635,53.7095375061035,01422 317350,False,False
b0eb68a9-6beb-4e67-9c63-0ca940f40f51,6633,The Crossed Shuttle,,11 Manor House Street,Leeds,West Yorkshire,LS28 7BJ,England,West Yorkshire,-1.6618560552597,53.7965049743652,0113 205 8190,False,False
e794a464-5400-413f-8069-12f17a890e26,5482,The Cuthbert Brodrick,,99 Portland Crescent,Leeds,West Yorkshire,LS2 3AD,England,West Yorkshire,-1.5478880405426,53.8017463684082,0113 204 8570,False,False
35bbde8f-e95e-422d-a80c-8b424ab0ff16,855,The Glass Blower,,15 Bank Street,Castleford,West Yorkshire,WF10 1JD,England,West Yorkshire,-1.35385298728943,53.7269401550293,01977 520390,False,False
c00ce0fd-f769-4d15-b3e6-59d8b7cbcc07,5713,The Golden Beam ,,Headingley Lane,Headingley,West Yorkshire,LS6 1BL,England,West Yorkshire,-1.57093119621277,53.8169288635254,0113 278 8521,False,False
8e2ab2b4-93f8-4ad1-8a5f-367c73357f29,6206,The Hedley Verity,,43a Woodhouse Lane,Leeds,West Yorkshire,LS1 3HQ,England,West Yorkshire,-1.5456850528717,53.8020057678223,0113 390 7590,False,False
2ccfa368-960c-4ae3-9ce7-9c94d3fdc676,6693,The Lister Arms,,14 The Moors Shopping Centre,Ilkley,West Yorkshire,LS29 9LB,England,West Yorkshire,-1.82568895816803,53.9257392883301,01943 811240,False,False
b9153d07-da65-4e50-9359-7e7c39db541a,4432,The Livery Rooms - opens in March ,,89–97 North Street,Keighley,West Yorkshire,BD21 3AA,England,West Yorkshire,-1.90999901294708,53.868724822998,01535 682950,False,False
a358cb7f-697c-46a2-8737-1802b70a5f14,2314,The Lord Wilson,,"Unit 27, Kingsgate Centre",Huddersfield,West Yorkshire,HD1 2PZ,England,West Yorkshire,-1.77913796901703,53.6456451416016,01484 411020,False,False
f27f67fe-84b5-4bc1-b437-eb61c06b2229,1739,The Myrtle Grove,,141 Main Street,Bingley,West Yorkshire,BD16 1AJ,England,West Yorkshire,-1.83736205101013,53.8472633361816,01274 568637,False,False
39941595-c46c-415f-b9d2-308f1d276b1b,1904,The Obediah Brooke,,19 Bradford Road,Cleckheaton,West Yorkshire,BD19 3JH,England,West Yorkshire,-1.71240103244781,53.7246208190918,01274 860700,False,False
2e4ebbd8-df65-4081-b73a-8c9e0bd1049f,7207,The Old Unicorn,,165 Town Street,Leeds,West Yorkshire,LS13 3NA,England,West Yorkshire,-1.62730395793915,53.8109245300293,0113 255 5001,False,False
062a15b2-9463-44f7-a760-08de5258c187,6399,The Percy Shaw,,Broad Street,Halifax,West Yorkshire,HX1 1YA,England,West Yorkshire,-1.85988199710846,53.7251014709473,01422 339500,False,False
50c0bd10-2107-4180-a122-f3f6288f3eb2,5771,The Picture House,,117/117a Queen Street,Leeds,West Yorkshire,LS27 8HE,England,West Yorkshire,-1.60005903244019,53.7441711425781,0113 252 8681,False,False
28f0b054-a014-43f3-91e2-49fee217082e,937,The Richard Oastler,,Bethel Street,Brighouse,West Yorkshire,HD6 1JN,England,West Yorkshire,-1.77992594242096,53.7014007568359,01484 401756,False,False
97f62da3-51c0-4c35-926d-c0966e78c55a,2554,The Sir Norman Rae,,Victoria House,Shipley,West Yorkshire,BD18 3QB,England,West Yorkshire,-1.77693200111389,53.8339385986328,01274 535290,False,False
451381f0-d871-4832-af41-5a0fd27b04de,451,The Six Chimneys,,41–43 Kirkgate,Wakefield,West Yorkshire,WF1 1HX,England,West Yorkshire,-1.4943460226059,53.682918548584,01924 239449,False,False
0b282bc2-a0da-4d60-9e2e-8d81d68bdbd0,546,The Three Hulats,,13 Harrogate Road,Leeds,West Yorkshire,LS7 3NB,England,West Yorkshire,-1.5353239774704,53.8260765075684,0113 262 0524,False,False
d99ea625-45e0-4547-9b5d-437d5885d356,4219,The Turls Green,,"Unit D, Centenary Square",Bradford,West Yorkshire,BD1 1HY,England,West Yorkshire,-1.75483798980713,53.7930335998535,01274 718330,False,False
29d0cd0d-97cc-498f-86c2-dae3ebcd7176,2080,The Union Rooms,,4 Hick Lane,Batley,West Yorkshire,WF17 5HW,England,West Yorkshire,-1.6285879611969,53.7126388549805,01924 448990,False,False
f43f7e68-f652-4943-879f-724aaf6080cb,6767,The White Hart,,Station Approach,Todmorden,West Yorkshire,OL14 7BD,England,West Yorkshire,-2.09800410270691,53.7142448425293,01706 811760,False,False
f2dcd27d-183d-4f25-b892-4dc774607ae2,2779,The Winter Seam,,Xscape,Castleford,West Yorkshire,WF10 4TA,England,West Yorkshire,-1.34189605712891,53.7101745605469,01977 664610,False,False
cf98287a-2ce8-417a-9f78-f3eabfcc8d1d,643,Wetherspoons,,North Concourse,Leeds,West Yorkshire,LS1 4DY,England,West Yorkshire,-1.54758596420288,53.7941665649414,0113 247 1676,False,False
176e19ac-b53b-4418-bcbf-2f16fadca8a5,6255,Cabot Court Hotel,,Knightstone Road,Weston-super-Mare,Somerset,BS23 2AH,England,Somerset,-2.98255300521851,51.3505172729492,01934 427930,False,False
afac6bf1-5e07-431b-9734-fb99185bf89f,7060,The Iron Duke,,The Iron Duke		,Wellington,Somerset,TA21 8LS,England,Somerset,-3.22755289077759,50.9787559509277,01823 667899,False,False
bfd6ed96-da83-4d15-a9b0-514514974219,6817,Palladium Electric,,110 High Street,Midsomer Norton,Somerset,BA3 2DA,England,Somerset,-2.48152184486389,51.2860794067383,01761 404230,False,False
cd2fea8e-7381-4d5f-b6b0-237647c31a36,2346,The Carnival Inn,,37 St Mary Street,Bridgwater,Somerset,TA6 3LY,England,Somerset,-3.00407791137695,51.1274604797363,01278 726180,False,False
76077119-96b9-4c15-aba9-817f6af1fcd2,2337,The Cerdic,,49–51 Fore Street,Chard,Somerset,TA20 1QA,England,Somerset,-2.9626100063324,50.8731117248535,01460 260070,False,False
bc128a0e-0faa-43e0-9889-4fb97a7a901c,2580,The Coal Orchard,,30–32 Bridge Street,Taunton,Somerset,TA1 1UD,England,Somerset,-3.10468006134033,51.0183372497559,01823 447330,False,False
9c09bf27-d8cd-4ab8-b42c-66e43edceaf8,5501,The Duke of Wellington,,Wellington Square,Minehead,Somerset,TA24 5NH,England,Somerset,-3.47933888435364,51.2052993774414,01643 701910,False,False
c348f27f-d26a-4747-9601-4156781e30bf,6229,The Glassmaker,,12 Crown Glass Place,Nailsea,Somerset,BS48 1RD,England,Somerset,-2.75840497016907,51.4321517944336,01275 850230,False,False
adca0035-af06-4d02-9080-895b5c393743,2609,The King of Wessex,,5–10 James Street West,Bath,Somerset,BA1 2BX,England,Somerset,-2.36458206176758,51.3809776306152,01225 303380,False,False
4ee2bb76-ae40-4982-b9aa-54ab17f234ed,1790,The Lantokay,,111–113 High Street,Street,Somerset,BA16 0EY,England,Somerset,-2.74146008491516,51.1258354187012,01458 444940,False,False
e58cd607-d231-4d3c-bec8-30dbb5f34a13,234,The Perkin Warbeck,,22–23 East Street,Taunton,Somerset,TA1 3LP,England,Somerset,-3.09949207305908,51.0147132873535,01823 335830,False,False
9b50bbda-e142-4e0c-9fcc-be0412a04291,7098,The Posset Cup,,"Unit 3, Mustad Way",Portishead,Somerset,BS20 7QZ,England,Somerset,-2.76591205596924,51.4859085083008,01275 848008,False,False
437aa17a-9fa3-4e6f-b12c-68057f3021af,6507,The Quarter Jack,,18 Priory Road,Wells,Somerset,BA5 1SY,England,Somerset,-2.64910507202148,51.2070503234863,01749 836930,False,False
13adafc0-fca4-42eb-843d-0d21ba3bd01e,4439,The Reeds Arms,,1 Pier Street,Burnham-on-Sea,Somerset,TA8 1BT,England,Somerset,-2.99876093864441,51.2342910766602,01278 764060,False,False
21f4c3db-b3ee-4c55-976a-4170552225e3,677,The William Dampier,,97 Middle Street,Yeovil,Somerset,BA20 1LN,England,Somerset,-2.62626910209656,50.9416160583496,01935 412533,False,False
73e5bf52-94f0-4113-9d59-2dd17d930359,7426,Captain Ridley’s Shooting Party,,183-185 Queensway,Milton Keynes,Buckinghamshire,MK2 2ED,England,Buckinghamshire,-0.728601396083832,51.9955596923828,01908 621020,False,False
eedc55a5-7c14-41db-bed6-c3a1aedcb982,167,The Falcon,,9 Cornmarket,High Wycombe,Buckinghamshire,HP11 2AX,England,Buckinghamshire,-0.751335978507996,51.6293258666992,01494 538610,False,False
225cb091-87a6-4b88-b975-73a236b7330d,7097,The Hope & Champion,,"Unit 1A, Beaconsfield Services, (Junction 2, M40)",Beaconsfield,Buckinghamshire,HP9 2SE,England,Buckinghamshire,-0.627520024776459,51.5876770019531,01494 685530,False,False
80afdc43-fd09-46cc-96b3-9f0c3c561056,1195,The Moon Under Water,,Xscape,Milton Keynes,Buckinghamshire,MK9 3NN,England,Buckinghamshire,-0.748930990695953,52.0419235229492,01908 528854,False,False
774c13fb-5774-4fe5-b921-d7681062db53,6402,The White Hart,,"Unit 4, Exchange Street",Aylesbury,Buckinghamshire,HP20 1UR,England,Buckinghamshire,-0.809839010238647,51.8153991699219,01296 468440,False,False
b8526c7e-402c-469f-a568-a8318474a1f4,152,Wetherspoons,,201 Midsummer Boulevard,Milton Keynes,Buckinghamshire,MK9 1EA,England,Buckinghamshire,-0.767557978630066,52.0375518798828,01908 606074,False,False
0d945672-3a30-40db-b08f-3de783263750,5647,Castle in the Air,,Chill Factore,Manchester,Manchester,M17 8DD,England,Manchester,-2.3610999584198,53.4686737060547,0161 746 3930,False,False
8839730c-b005-4ee1-8877-088769d82d09,6520,The Mardi Gras,,"Units 108–111, The Orient",Manchester,Manchester,M17 8EH,England,Manchester,-2.34900498390198,53.466178894043,0161 629 2130,False,False
c3564946-90f2-4029-953b-98d5f93c0901,312,The Eccles Cross,,13 Regent Street,Eccles,Manchester,M30 0BP,England,Manchester,-2.33466291427612,53.4832305908203,0161 788 0414,False,False
8025cd3a-7506-4a7c-b389-1720496b9b28,835,The Edwin Waugh,,10–12 Market Street,Heywood,Manchester,OL10 4LY,England,Manchester,-2.22135996818542,53.5937309265137,01706 621480,False,False
74686622-4c6c-4dab-9e0d-eb9bc7fdce01,5613,The Ford Madox Brown,,Wilmslow Park,Manchester,Manchester,M13 9NG,England,Manchester,-2.22669696807861,53.4580841064453,0161 256 6660,False,False
b98a4cf1-876b-4870-ba08-75a9d17535d1,2809,The Great Central,,Wilmslow Road,Manchester,Manchester,M14 6NL,England,Manchester,-2.21930289268494,53.4410095214844,0161 248 1740,False,False
07531cfb-185f-48f4-ba5f-03d293048ad6,315,The Harbord Harbord,,17–21 Long Street,Middleton,Manchester,M24 6TE,England,Manchester,-2.19805097579956,53.5501594543457,0161 654 6226,False,False
4f536761-b0fb-4116-b913-034d286c0a3c,511,The J. P. Joule,,2a Northenden Road,Sale,Manchester,M33 3BR,England,Manchester,-2.31755208969116,53.4240760803223,0161 962 9889,False,False
af318b97-7e58-48fc-ac87-35374612d6ec,193,The Moon Under Water,,68–74 Deansgate,Manchester,Manchester,M3 2FN,England,Manchester,-2.24691009521484,53.4827461242676,0161 834 5882,False,False
d09e7466-ab67-4d13-b2be-eb3a0691355f,1015,The Paramount,,33–35 Oxford Street,Manchester,Manchester,M1 4BH,England,Manchester,-2.2425479888916,53.4764518737793,0161 233 1820,False,False
bd6f7e91-937c-4593-aee8-1bb2f8d77e58,1090,The Sedge Lynn,,21a Manchester Road,Chorlton-cum-Hardy,Manchester,M21 9PN,England,Manchester,-2.27864003181458,53.4442367553711,0161 860 0141,False,False
860de402-f38e-4f3c-b127-f37aa385c054,2099,The Seven Stars,,6–8 Dantzic Street,Manchester,Manchester,M4 2BS,England,Manchester,-2.24004006385803,53.4850311279297,0161 817 2980,False,False
c3f4d214-4e99-4cec-9861-5c2995797570,1103,The Tim Bobbin,,41 Flixton Road,Urmston,Manchester,M41 5AN,England,Manchester,-2.35719609260559,53.4482116699219,0161 749 8239,False,False
4dc4c2f0-8a56-43ad-b1b2-28c940ee9b98,2103,The Waterhouse,,67–71 Princess Street,Manchester,Manchester,M2 4EG,England,Manchester,-2.24309897422791,53.4791717529297,0161 200 5380,False,False
7132267d-3039-4191-839e-d7ad2b9e18dc,192,Wetherspoons,,49 Piccadilly,Manchester,Manchester,M1 2AP,England,Manchester,-2.23508906364441,53.4812240600586,0161 236 9206,False,False
281b35d8-7a61-4ed8-ac29-2695241b00f3,5498,Chapel an Gansblydhen,,Fore Street,Bodmin,Cornwall,PL31 2HR,England,Cornwall,-4.72338390350342,50.4711761474609,01208 261730,False,False
195aff2d-dd33-41bb-ac34-c8f27af85b3c,7323,The Coinage Hall,,9–11 Coinagehall Street,Helston,Cornwall,TR13 8ER,England,Cornwall,-5.27521419525146,50.1008224487305,01326 565344,False,False
7e2dcee3-c1a4-4104-8527-106a64ac533c,6383,The Green Parrot,,St George’s Hill,Perranporth,Cornwall,TR6 0JP,England,Cornwall,-5.15605115890503,50.3443641662598,01872 574990,False,False
ad7bb3ce-5360-416a-b6fb-757c2e12e644,5958,The Hain Line,,Tregenna Place,St Ives,Cornwall,TR26 1SD,England,Cornwall,-5.48080396652222,50.2114334106445,01736 792920,False,False
17c818cb-26ec-426b-9327-0c33e74e3799,6006,The John Francis Basset,,Commercial Street,Camborne,Cornwall,TR14 8JZ,England,Cornwall,-5.30104112625122,50.213623046875,01209 721720,False,False
dd6910aa-a9e2-4876-8f59-112f7dac4494,6981,The King Doniert,,The King Doniert,Liskeard,Cornwall,PL14 6AB,England,Cornwall,-4.46495389938354,50.4539680480957,01579 342 599,False,False
78763220-55ec-4de8-9759-4ec6eae7f136,1033,The Packet Station,,4 The Moor,Falmouth,Cornwall,TR11 3QA,England,Cornwall,-5.07306814193726,50.15478515625,01326 310110,False,False
61c1b433-8d73-4f90-af7f-73700d952245,5441,The Rann Wartha,,Biddicks Court,St Austell,Cornwall,PL25 5EW,England,Cornwall,-4.79341220855713,50.3387489318848,01726 222940,False,False
6b02bc01-4251-4d1a-a62b-fe6147b33176,1856,The Towan Blystra,,12–16 Cliff Road,Newquay,Cornwall,TR7 1SG,England,Cornwall,-5.07743787765503,50.4143905639648,01637 852970,False,False
c1f78b47-57c8-42e8-9bea-aaec35c42bd7,1099,The Tremenheere,,4–8 Market Place,Penzance,Cornwall,TR18 2JA,England,Cornwall,-5.53672790527344,50.118595123291,01736 335350,False,False
69445083-1eb8-4e1b-8ff3-a7c3fea28f22,5376,Try Dowr,,Lemon Quay,Truro,Cornwall,TR1 2LW,England,Cornwall,-5.05030822753906,50.2621879577637,01872 265840,False,False
80f069fc-f918-480a-b201-e0502a831af5,1977,City and County,,Market Square,Goole,East Yorkshire,DN14 5DR,England,East Yorkshire,-0.871177017688751,53.7035293579102,01405 722600,False,False
09008366-716a-47c7-b924-f5d136ae3ac4,7609,Sanctuary Bar ,,"Hull University Students’ Union, Student Central",Kingston Upon Hull,East Riding of Yorkshire,HU6 7RX,England,East Yorkshire,-0.365772992372513,53.7718734741211,01482 466284,False,False
d8737702-ea01-4ca5-a258-05f96ca340f8,1699,The Admiral of the Humber,,1 Anlaby Road,Kingston Upon Hull,East Yorkshire,HU1 2NT,England,East Yorkshire,-0.3437460064888,53.7431983947754,01482 381850,False,False
934876b7-9404-4142-8ed7-194deaac4806,6203,The Benjamin Fawcett,,Middle Street North,Driffield,East Yorkshire,YO25 6SW,England,East Yorkshire,-0.440337985754013,54.0063323974609,01377 249130,False,False
f02f29ba-c51c-4ca8-8d12-41f9932aee99,6803,The Cross Keys,,6–8 Lairgate,Beverley,East Yorkshire,HU17 8EE,England,East Yorkshire,-0.433358997106552,53.8430366516113,01482 880388,False,False
3ba01474-8861-49e0-b2de-6a6ad28034f6,1002,The Prior John,,34–36 Promenade,Bridlington,East Yorkshire,YO15 2QD,England,East Yorkshire,-0.187998995184898,54.0836524963379,01262 674256,False,False
4bd136fc-4d99-4b65-9e5c-adc3a43d6d69,1417,The Three John Scotts,,"City Exchange, Alfred Gelder Street",Kingston Upon Hull,East Yorkshire,HU1 1AA,England,East Yorkshire,-0.332747012376785,53.7439804077148,01482 381910,False,False
7a119a04-bada-4bfc-8fe0-e6d278c21c84,2156,Colombia Press,,72–74 The Parade,Watford,Hertfordshire,WD17 1AW,England,Hertfordshire,-0.400774985551834,51.6584548950195,01923 811540,False,False
a364198d-a49f-4d73-9fa4-4693f9746c81,5480,Harpsfield Hall,,13a Parkhouse Court,Hatfield,Hertfordshire,AL10 9RQ,England,Hertfordshire,-0.240633994340897,51.7629547119141,01707 265840,False,False
f078cf92-35fb-4be2-bff5-35419f914188,566,The Admiral Byng,,186–192 Darkes Lane,Potters Bar,Hertfordshire,EN6 1AF,England,Hertfordshire,-0.190229997038841,51.6996040344238,01707 645484,False,False
dd271058-9657-4477-9239-a4482cf77911,6427,The Angel Vaults Inn,,5 Sun Street,Hitchin,Hertfordshire,SG5 1AE,England,Hertfordshire,-0.278658002614975,51.9465751647949,01462 438633,False,False
93dd1230-a376-4626-98c3-79f8d88f2198,473,The Crown,,145 High Street,Berkhamsted,Hertfordshire,HP4 3HH,England,Hertfordshire,-0.563153982162476,51.7597961425781,01442 863993,False,False
23339ec1-5ff3-41b4-9903-6336fbb01346,269,The Full House,,128 Marlowes,Hemel Hempstead,Hertfordshire,HP1 1EZ,England,Hertfordshire,-0.472611010074615,51.7534866333008,01442 265512,False,False
6d2cd586-bac7-4167-921e-d8d7569bfde3,120,The Hart & Spool,,148 Shenley Road,Borehamwood,Hertfordshire,WD6 1EQ,England,Hertfordshire,-0.272237986326218,51.657341003418,020 8953 1883,False,False
687ab6aa-c63b-4107-afc3-bb7a36b6c4a0,6849,The Manor House,,14 Melbourn Street,Royston,Hertfordshire,SG8 7BZ,England,Hertfordshire,-0.0230269990861416,52.0482711791992,01763 250160,False,False
58748a40-2e55-4d79-bac6-daf0c227b99e,569,The Moon and Cross,,104–106 High Street,Waltham Cross,Hertfordshire,EN8 7BX,England,Hertfordshire,-0.0327679999172688,51.684944152832,01992 700761,False,False
21475160-131c-4c99-ac12-7d441d5fe7da,95,The Moon Under Water,,44 High Street,Watford,Hertfordshire,WD17 2BS,England,Hertfordshire,-0.397830009460449,51.6564750671387,01923 223559,False,False
45a1e616-2e4f-4020-93cb-6081c95e5dc4,177,The Pennsylvanian,,115–117 High Street,Rickmansworth,Hertfordshire,WD3 1AN,England,Hertfordshire,-0.469790011644363,51.6388702392578,01923 720348,False,False
e31f8397-c7ec-479e-8428-5ecdd934cdd5,6391,The Port Jackson,,"Ground Floor Units D1/D2, Block D, Riverside Wharf, Riverside",Bishop’s Stortford,Hertfordshire,CM23 3GN,England,Hertfordshire,0.162103995680809,51.8691673278809,01279 714460,False,False
0b869940-1461-4f2c-b98e-d3ebda22e482,1641,The Six Templars,,1 The Wash,Hertford,Hertfordshire,SG14 1PS,England,Hertfordshire,-0.0791419968008995,51.796028137207,01992 517430,False,False
b8e50341-758e-4a7a-934e-1e414954358a,1031,The Standing Order,,33 High Street,Stevenage,Hertfordshire,SG1 3AU,England,Hertfordshire,-0.208075001835823,51.9120750427246,01438 316972,False,False
a61f1f45-eae6-4c4e-a9bc-cf346c8e7860,7244,The Star,,105 High Street,Hoddesdon,Hertfordshire,EN11 8TN,England,Hertfordshire,-0.0117899999022484,51.7616119384766,01992 448477,False,False
d49e3969-6dc3-4040-a503-0717454f4668,289,The Three Magnets,,18–20 Leys Avenue,Letchworth,Hertfordshire,SG6 3EW,England,Hertfordshire,-0.226942002773285,51.979248046875,01462 681093,False,False
0a3c5913-9d92-4fd4-9bec-6acd064d564e,5152,Waterend Barn,,St Peters Street,St Albans,Hertfordshire,AL1 3LE,England,Hertfordshire,-0.337334990501404,51.7526206970215,01727 814100,False,False
94c13345-dc62-4554-b8e2-3770b53d9314,280,Cornfield Garage,,21–23 Cornfield Road,Eastbourne,East Sussex,BN21 4QD,England,East Sussex,0.284554988145828,50.7676010131836,01323 419670,False,False
20c9acf5-15c8-4cd1-8d2c-d007fa679db5,896,The Bright Helm,,20–22a West Street,Brighton,East Sussex,BN1 2RE,England,East Sussex,-0.144418001174927,50.822811126709,01273 224690,False,False
0d494b2b-aad0-4b88-a692-c08521d992fd,218,The Cliftonville Inn,,98–101 George Street,Hove,East Sussex,BN3 3YE,England,East Sussex,-0.174064993858337,50.8285865783691,01273 726969,False,False
f2cf866a-974c-44c8-bd03-787765e4c0a6,7264,The Crowborough Cross,,Beacon Road,Crowborough,East Sussex,TN6 1AF,England,East Sussex,0.161606997251511,51.0605049133301,01892 662555,False,False
f99d2f44-c8a9-4c6e-a5ab-866774276be0,6284,The George Hotel,,3 George Street,Hailsham,East Sussex,BN27 1AD,England,East Sussex,0.259595990180969,50.8621215820313,01323 445120,False,False
52052daf-e4b6-4732-9bf1-2d71d5f225d5,1806,The John Logie Baird,,29–31 Havelock Road,Hastings,East Sussex,TN34 1BE,England,East Sussex,0.579626023769379,50.8558578491211,01424 448110,False,False
b755221a-9ed4-48cc-aa1d-5c521f8a2773,6189,The London & County,,46 Terminus Road,Eastbourne,East Sussex,BN21 3LX,England,East Sussex,0.281549006700516,50.7688331604004,01323 746310,False,False
755a0ab4-6734-43d0-81c8-c2a0742cdb21,7139,The Picture Playhouse,,The Picture Playhouse						,Bexhill-on-Sea,East Sussex,TN40 1DY,England,East Sussex,0.470906406641006,50.8402328491211,01424 819500,False,False
7cb14fd1-7885-4de1-819c-89112fbb3327,6221,The Post & Telegraph,,155–158 North Street,Brighton,East Sussex,BN1 1EA,England,East Sussex,-0.14044600725174,50.8229866027832,01273 827540,False,False
1f78b90c-c8e5-46d6-8b63-c6098a1b7db5,5340,The West Quay,,Brighton Marina Village,Brighton,East Sussex,BN2 5UT,England,East Sussex,-0.105217002332211,50.8121490478516,01273 645780,False,False
37cfaf74-960a-41ed-b6a2-42e75260059c,5504,George Hotel,,Load Street,Bewdley,Worcestershire,DY12 2AW,England,Worcestershire,-2.31542801856995,52.3757705688477,01299 406970,False,False
15c0988d-8623-4727-a684-6c358c650870,176,Golden Cross Hotel,,20 High Street,Bromsgrove,Worcestershire,B61 8HH,England,Worcestershire,-2.06178689002991,52.3339195251465,01527 870005,False,False
d132128d-12b8-4243-9e32-a650e88230c1,4086,The Crown,,Crown Passage,Worcester,Worcestershire,WR1 3LL,England,Worcestershire,-2.2221200466156,52.1928634643555,01905 721870,False,False
df35207b-da3f-4946-83ea-2c27df39f986,5562,The Foley Arms Hotel,,14 Worcester Road,Great Malvern,Worcestershire,WR14 4QS,England,Worcestershire,-2.33003711700439,52.1124801635742,01684 580350,False,False
54e4ee29-974f-4af3-bd6d-3bd5b2f89bab,953,The Old Swanne Inne,,66 High Street,Evesham,Worcestershire,WR11 4HG,England,Worcestershire,-1.94645595550537,52.0942726135254,01386 442650,False,False
b757ee63-33bc-4033-977b-c6ab31f82f51,293,The Postal Order,,18 Foregate Street,Worcester,Worcestershire,WR1 1DN,England,Worcestershire,-2.22187495231628,52.195499420166,01905 22373,False,False
a8ae20bb-0080-460e-b243-4a6e5b397576,407,The Rising Sun,,"Unit 4, Alcester Street",Redditch,Worcestershire,B98 8AE,England,Worcestershire,-1.93861103057861,52.3058967590332,01527 62452,False,False
0f63e401-129e-408e-a1ae-c6eb1fc1fab8,6404,The Royal Enfield,,"The Old Cinema, Unicorn Hill",Redditch,Worcestershire,B97 4QR,England,Worcestershire,-1.94318103790283,52.3070411682129,01527 590970,False,False
7cfc4bbe-5622-4fda-80c8-bd3f0e7d8fe9,1040,George’s Meeting House,,38 South Street,Exeter,Devon,EX1 1ED,England,Devon,-3.5300440788269,50.7205657958984,01392 454250,False,False
688110af-2f0f-4c80-958c-a63d41335808,5556,The Admiral Collingwood,,Wilder Road,Ilfracombe,Devon,EX34 9AP,England,Devon,-4.11922597885132,51.2101936340332,01271 862373,False,False
25dba11a-5e98-425e-baec-49b14be41f1c,1171,The Britannia Inn,,1 Wolseley Road,Plymouth,Devon,PL2 3AA,England,Devon,-4.15729999542236,50.3856315612793,01752 607596,False,False
4ac88941-2a5c-4d41-9aaf-7e6603e8d0ae,6217,The Chevalier Inn,,81–82 Fore Street,Exeter,Devon,EX4 3HR,England,Devon,-3.53290009498596,50.7222023010254,01392 457760,False,False
ee5e5f84-c3a8-4052-bed8-68d969603436,2925,The General Sir Redvers Buller,,37 High Street,Crediton,Devon,EX17 3JP,England,Devon,-3.66086292266846,50.7906875610352,01363 774381,False,False
99ed58b3-8cc7-4cfd-a2aa-b8346ce22054,2661,The Gog and Magog,,57–59 Southside Street,Plymouth,Devon,PL1 2LA,England,Devon,-4.13751602172852,50.3675193786621,01752 264160,False,False
85b1c0f7-0a3c-4826-9a82-864d27897c57,6011,The Green Ginger,,"Lower Ground Floor, Winter Garden",Torquay,Devon,TQ2 5DZ,England,Devon,-3.52552509307861,50.4621467590332,01803 217960,False,False
915a1f6f-bda1-4892-b651-e42969e89fe0,253,The Imperial,,New North Road,Exeter,Devon,EX4 4AH,England,Devon,-3.53966903686523,50.7302055358887,01392 434050,False,False
f0983736-db8d-4686-92d3-b78244667cd2,7309,The Jolie Brise,,9–15 Station Road,Teignmouth,Devon,TQ14 8PE,England,Devon,-3.49448990821838,50.5470657348633,01626 778853,False,False
ecb41e0f-86b8-4fa0-8b83-67863b5bd39f,2365,The Mannamead,,61–63 Mutley Plain,Plymouth,Devon,PL4 6JH,England,Devon,-4.13373994827271,50.382396697998,01752 825610,False,False
5d2521a3-94fa-4a35-bdb8-c38af7c53cc3,1155,The Panniers,,33–34 Boutport Street,Barnstaple,Devon,EX31 1RX,England,Devon,-4.05811977386475,51.0807609558105,01271 329720,False,False
3ec699f4-b477-46c0-a8d5-676fb092b3b6,259,The Powder Monkey,,2–2a The Parade,Exmouth,Devon,EX8 1RJ,England,Devon,-3.4137020111084,50.6203308105469,01395 280090,False,False
cbad9b4a-14f6-49f3-b4d6-e160166f65eb,7251,The Queen's Head Hotel,,79–80 West Street,Tavistock,Devon,PL19 8AQ,England,Devon,-4.14677381515503,50.5496826171875,01822 612455,False,False
d865df4a-aac1-4646-b953-720bec7f17a0,2700,The Richard Hopkins,,34–42 Queen Street,Newton Abbot,Devon,TQ12 2EW,England,Devon,-3.60780596733093,50.5307121276855,01626 323930,False,False
71466273-d266-426a-aa21-047395e35de5,6449,The Rose Salterne,,9–10 Bridgeland Street,Bideford,Devon,EX39 2PZ,England,Devon,-4.2058539390564,51.0199012756348,01237 426110,False,False
eb3cc692-485e-4cc3-a17b-c52c0d920cd2,6035,The Sawyer’s Arms,,121 Cowick Street,Exeter,Devon,EX4 1JD,England,Devon,-3.54411697387695,50.7153396606445,01392 269520,False,False
ce97e4b7-cc57-4246-a422-72770a0e06a2,6850,The Stannary Court,,95–99 Ridgeway,Plympton,Devon,PL7 2AA,England,Devon,-4.05173110961914,50.3877983093262,01752 283280,False,False
bec06bf4-5831-413d-9021-dabbe917bcb6,6790,The Star Inn,,33 New Street,Honiton,Devon,EX14 1BS,England,Devon,-3.18808603286743,50.7984313964844,01404 541940,False,False
5896dd9a-aac4-4043-807c-4677cf99bdc2,5879,The Talk of the Town,,46–52 Torbay Road,Paignton,Devon,TQ4 6AL,England,Devon,-3.5615029335022,50.4351615905762,01803 668070,False,False
76195c06-a063-497f-a8f4-acb4a040f280,662,The Union Rooms,,19 Union Street,Plymouth,Devon,PL1 2SU,England,Devon,-4.14801406860352,50.3697090148926,01752 254520,False,False
e759fe03-7639-4355-960e-587e3c6f37a5,688,The Vigilance,,5 Bolton Street,Brixham,Devon,TQ5 9DE,England,Devon,-3.51598191261292,50.3937034606934,01803 850489,False,False
48e2f89f-3e84-4dba-8235-0fee70421b3d,5978,The Water Gate,,7 The Strand,Barnstaple,Devon,EX31 1EU,England,Devon,-4.06027984619141,51.0788459777832,01271 335410,False,False
cabfc6ea-8547-4ab4-871e-04cb88fe4e02,2999,The White Ball Inn,,8 Bridge Street,Tiverton,Devon,EX16 5LY,England,Devon,-3.49081802368164,50.9029388427734,01884 251525,False,False
330e8507-7c4d-413c-b3d3-83fdccca8d14,7280,The White Hart Hotel,,The White Hart Hotel				,Okehampton,Devon,EX20 1HD,England,Devon,-4.00316762924194,50.7391471862793,01837 658533,False,False
97f43da2-305c-4aa8-b354-e43758f4f08d,2520,Globe Hotel,,Tuesday Market Place,King’s Lynn,Norfolk,PE30 1EZ,England,Norfolk,0.39369198679924,52.7557792663574,01553 668000,False,False
0363f3e6-e59a-43eb-97aa-1936a1951f47,136,The Bell Hotel,,5 Orford Hill,Norwich,Norfolk,NR1 3QB,England,Norfolk,1.29547703266144,52.6273498535156,01603 630017,False,False
864b1df6-0951-4300-bc5a-74969aa19bab,664,The Glass House,,11–13 Wensum Street,Norwich,Norfolk,NR3 1LA,England,Norfolk,1.29782199859619,52.6322975158691,01603 877650,False,False
60887655-93b5-402d-8c9d-62816eb477e3,6970,The Limes,,30 Bridge Street,Fakenham,Norfolk,NR21 9AZ,England,Norfolk,0.848524987697601,52.8286666870117,01328 850050,False,False
d410a12a-9853-4ad2-a194-9405f3ab0f91,1719,The Queen of Iceni,,"Unit 6, Riverside Development",Norwich,Norfolk,NR1 1ED,England,Norfolk,1.30360496044159,52.6250495910645,01603 877690,False,False
cf356399-6677-44ce-8394-addce11bba8a,6620,The Red Lion,,Market Place,Thetford,Norfolk,IP24 2AL,England,Norfolk,0.750488996505737,52.4134292602539,01842 757210,False,False
f733597b-0b95-4824-a613-b375a18eab1c,5937,The Romany Rye,,Church Street,Dereham,Norfolk,NR19 1DL,England,Norfolk,0.939354002475739,52.6809844970703,01362 654160,False,False
7576c265-df19-4b36-9cf4-195fb495b3f2,210,The Troll Cart,,7–9 Regent Road,Great Yarmouth,Norfolk,NR30 2AF,England,Norfolk,1.72944605350494,52.6072158813477,01493 332932,False,False
f49699b4-829a-4503-81c2-35a4366c468c,7320,The Whalebone,,58–64 Bridge Street,Downham Market,Norfolk,PE38 9DJ,England,Norfolk,0.376051098108292,52.6028709411621,01366 381600,False,False
f73f7f59-5e56-4784-87c2-80de604664a9,915,The Whiffler,,Boundary Road,Norwich,Norfolk,NR6 5JB,England,Norfolk,1.26856303215027,52.6543197631836,01603 424042,False,False
944754a4-3aec-4491-a29c-1ed5282fae06,7294,The William Adams,,176 High Street,Great Yarmouth,Norfolk,NR31 6RG,England,Norfolk,1.72830045223236,52.580394744873,01493 600295,False,False
54b5cc43-7f6c-42a4-84fd-246c50af65f3,5285,Grover & Allen,,68–69 North Street,Sudbury,Suffolk,CO10 1RF,England,Suffolk,0.730153977870941,52.0407752990723,01787 467660,False,False
9a26b210-73fa-48df-af4c-8abdcf67401b,6382,The Corn Exchange,,Abbeygate Street,Bury St Edmunds,Suffolk,IP33 1UL,England,Suffolk,0.712275981903076,52.2447242736816,01284 727300,False,False
83c9eda5-493b-4e41-a150-de45728cf781,288,The Cricketers,,51 Crown Street,Ipswich,Suffolk,IP1 3JA,England,Suffolk,1.15464103221893,52.0595207214355,01473 225910,False,False
4d738984-800f-447b-9afc-b67544b9a059,1058,The Drabbet Smock,,5–6 Peas Hill,Haverhill,Suffolk,CB9 8BB,England,Suffolk,0.437527000904083,52.0827140808105,01440 713070,False,False
02694c89-43eb-4eca-8d7c-e40460f4d013,1311,The Golden Lion,,44 High Street,Newmarket,Suffolk,CB8 8LB,England,Suffolk,0.407389998435974,52.2447776794434,01638 672040,False,False
e253db7a-9d18-4be2-8ccb-e6ed3efbd37a,6251,The Joseph Conrad,,18–32 Station Square,Lowestoft,Suffolk,NR32 1BA,England,Suffolk,1.75098502635956,52.474292755127,01502 533270,False,False
cb96a4b2-7f31-42ca-bdaf-670715ee4d86,6377,The Kings Head Hotel,,4–6 New Market,Beccles,Suffolk,NR34 9HA,England,Suffolk,1.56315195560455,52.4575576782227,01502 718730,False,False
dad24aba-3fdf-4662-8ae9-88db8e1b045f,5478,The Willow Tree,,101 Ipswich Street,Stowmarket,Suffolk,IP14 1BB,England,Suffolk,0.999027013778687,52.1854934692383,01449 618090,False,False
167ea9b0-72af-47b9-9221-f740fbe5c6dd,7136,The Hedgeford Lodge,,"Anglesey Lodge, Anglesey Street",Hednesford,Staffordshire,WS12 1DL,England,Staffordshire,-2.00037503242493,52.7091979980469,01543 878370,False,False
e49f6ef7-4786-47ae-8943-a0582b9b2e82,441,The Acorn Inn,,16–18 Tamworth Street,Lichfield,Staffordshire,WS13 6JJ,England,Staffordshire,-1.82594501972198,52.6837348937988,01543 263400,False,False
78786384-2ccc-4382-9a79-8c526c1137ee,1964,The Arnold Machin,,37 Ironmarket,Newcastle-under-Lyme,Staffordshire,ST5 1PB,England,Staffordshire,-2.22534394264221,53.0121917724609,01782 557840,False,False
4fac5e16-54d8-4a47-9587-11251aeae35e,1448,The Bole Bridge,,8 Bolebridge Street,Tamworth,Staffordshire,B79 7PA,England,Staffordshire,-1.69154405593872,52.6331405639648,01827 317510,False,False
513475ce-b655-49ac-bf99-f4cef85a777c,1898,The Bradley Green,,68 High Street,Biddulph,Staffordshire,ST8 6AS,England,Staffordshire,-2.17633104324341,53.1157150268555,01782 375500,False,False
9984d7f9-b740-4765-8df0-4a6748d55c06,6808,The Butler’s Bell,,25–27 Gaolgate Street,Stafford,Staffordshire,ST16 2NT,England,Staffordshire,-2.11829805374146,52.8087043762207,01785 785290,False,False
70ce2f67-3eb3-42db-94c6-168f8c9a8602,7029,The Green Dragon,,2 St Edward Street,Leek,Staffordshire,ST13 5DS,England,Staffordshire,-2.02695989608765,53.1065330505371,01538 392540,False,False
4b8314f2-1dad-4bf4-9574-d4fc2f205098,1328,The Linford Arms,,79 Market Place,Cannock,Staffordshire,WS11 1BN,England,Staffordshire,-2.03221893310547,52.6894721984863,01543 469360,False,False
b1b1e57d-3cb3-4eb9-a17f-808af08ffb89,412,The Lord Burton,,154 High Street,Burton upon Trent,Staffordshire,DE14 1JE,England,Staffordshire,-1.62950098514557,52.8029937744141,01283 517587,False,False
caeea943-9eab-4ea0-a709-aff18bbfc94d,5367,The Old Swan,,Market Place,Uttoxeter,Staffordshire,ST14 8HN,England,Staffordshire,-1.86326599121094,52.8979606628418,01889 598650,False,False
f1589af5-b1b2-41f1-b633-284fb9ac0860,257,The Picture House,,Bridge Street,Stafford,Staffordshire,ST16 2HL,England,Staffordshire,-2.11591506004333,52.8044395446777,01785 222941,False,False
b4faef8b-d963-41d8-b243-b9abef1dc4d8,671,The Plaza,,Horsefair,Rugeley,Staffordshire,WS15 2EH,England,Staffordshire,-1.93489003181458,52.757438659668,01889 586831,False,False
9f04e4b9-a031-40a7-9d2a-066c9a62ae24,2060,The Poste of Stone,,1 Granville Square,Stone,Staffordshire,ST15 8AB,England,Staffordshire,-2.14855408668518,52.9034881591797,01785 827920,False,False
4f85259c-e399-41c0-9003-93aa54c9e4c0,199,The Reginald Mitchell,,The Tontine,Hanley,Staffordshire,ST1 1NQ,England,Staffordshire,-2.17416310310364,53.025318145752,01782 281082,False,False
1855cf2e-d8f4-4239-8a8a-06419da10eeb,6226,The Wheatsheaf,,53 High Street,Cheadle,Staffordshire,ST10 1AR,England,Staffordshire,-1.98975300788879,52.9867820739746,01538 758310,False,False
6fc1bf62-f0cd-41b9-9f76-eba38aceb9b3,755,The Wheatsheaf,,84–92 Church Street,Stoke-on-Trent,Staffordshire,ST4 1BU,England,Staffordshire,-2.18528294563293,53.0040664672852,01782 747462,False,False
9f0fc4dc-6d91-4278-8c70-cd419d0e4fec,541,Hoylake Lights,,52–54 Market Street,Hoylake,Merseyside,CH47 3BB,England,Merseyside,-3.17706394195557,53.3924751281738,0151 632 1209,False,False
e1aaefea-e2a1-42ee-a071-b7637c4f211d,6535,The Barker’s Brewery,,Archway Road,Liverpool,Merseyside,L36 9UJ,England,Merseyside,-2.84005904197693,53.4133758544922,0151 482 4500,False,False
ff7067cc-9b41-4d4c-9ded-201c7296212d,2071,The Brass Balance,,39–47 Argyle Street,Birkenhead,Merseyside,CH41 6AB,England,Merseyside,-3.0180881023407,53.3923835754395,0151 650 8950,False,False
fcd78133-569f-49d6-b4d5-d56bf2f61ff5,6826,The Captain Alexander,,The Captain Alexander,Liverpool,Merseyside,L2 7NX,England,Merseyside,-2.99142146110535,53.4048614501953,0151 227 4197,False,False
af575eaf-cba2-4bc0-afb6-16c73e783477,6235,The Childwall Fiveways Hotel,,179 Queens Drive,Liverpool,Merseyside,L15 6XS,England,Merseyside,-2.89665603637695,53.3968200683594,0151 738 2100,False,False
63df3047-cad8-4759-8b7a-9ff97eed31d2,4259,The Clairville,,48 Wallasey Road,Wallasey,Merseyside,CH45 4NW,England,Merseyside,-3.04712510108948,53.4197273254395,0151 346 8960,False,False
0c2a9530-fb26-4394-9637-3defb43e84be,2375,The Dee Hotel,,44 Grange Road,West Kirby,Merseyside,CH48 4EF,England,Merseyside,-3.18244695663452,53.3728179931641,0151 929 6300,False,False
bdc6f9f3-4813-4ee6-aaa0-4a3361109873,2517,The Fall Well,,St John’s Way,Liverpool,Merseyside,L1 1LS,England,Merseyside,-2.98004794120789,53.4066429138184,0151 705 2050,False,False
52961246-8c58-49ea-9425-9032e996abd3,6910,The Frank Hornby,,38 Eastway,Liverpool,Merseyside,L31 6BR,England,Merseyside,-2.93674397468567,53.515308380127,0151 520 4010,False,False
940ae890-b2e5-441c-9bec-989fac681049,2026,The Glass House,,5 Market Street,St Helens,Merseyside,WA10 1NE,England,Merseyside,-2.73586106300354,53.4513359069824,01744 762310,False,False
02b62201-47e8-4c9d-a7f7-2d518ec46fe1,5531,The John Masefield,,70–72 New Chester Road,New Ferry,Merseyside,CH62 5AD,England,Merseyside,-2.99783492088318,53.3613357543945,0151 644 4250,False,False
9017c514-9b8a-4e28-a4f5-ae619fb491ca,7216,The Lifeboat,,41 Three Tuns Lane,Formby,Merseyside,L37 4AQ,England,Merseyside,-3.05973696708679,53.5562629699707,01704 830839,False,False
2f937d71-ba98-4710-9408-359b9a61cf87,2011,The Lime Kiln,,Fleet Street/Concert Square,Liverpool,Merseyside,L1 4NR,England,Merseyside,-2.9802770614624,53.4029693603516,0151 702 6810,False,False
92ede694-01b9-4549-876b-de53133a017c,6641,The Master Mariner,,3–5 Union Terrace,New Brighton,Merseyside,CH45 2JT,England,Merseyside,-3.04410004615784,53.4399223327637,0151 346 8950,False,False
b8132d42-4a85-4693-a6ec-10ed84badf27,1200,The Mockbeggar Hall,,239–241 Hoylake Road,Moreton,Merseyside,CH46 0SL,England,Merseyside,-3.11331605911255,53.4007720947266,0151 678 5659,False,False
b5898d18-0c88-4804-b82f-1e573b05f296,2936,The Navigator,,694 Queen’s Drive,Stoneycroft,Merseyside,L13 5UH,England,Merseyside,-2.90567803382874,53.4151306152344,0151 220 2713,False,False
50312331-0d95-4f00-b37b-1ee42b1880ee,7293,The Nine Arches,,3 Legh Street,Newton-le-Willows,Merseyside,WA12 9NE,England,Merseyside,-2.64398908615112,53.4522552490234,01925 224409,False,False
f55156df-b8fc-4f85-b7c7-54a221bf0e55,6486,The North Western,,7 Lime Street,Liverpool,Merseyside,L1 1RJ,England,Merseyside,-2.97700309753418,53.4072608947754,01517 096825,False,False
3c146811-3bb2-4a28-a4d9-160ce1ab9d16,6068,The Queen’s Picture House,,47–49 South Road,Liverpool,Merseyside,L22 5PE,England,Merseyside,-3.02730894088745,53.4741821289063,0151 949 2070,False,False
380ecf49-adbb-4b89-90b3-1789044513d2,403,The Raven,,72–74 Walton Vale,Liverpool,Merseyside,L9 2BU,England,Merseyside,-2.9586660861969,53.463794708252,0151 524 1255,False,False
5723c761-7bef-4391-b656-7440fda664e0,198,The Richard John Blackler,,"Units 1 & 2, Charlotte Row",Liverpool,Merseyside,L1 1HU,England,Merseyside,-2.97993206977844,53.406078338623,0151 709 4802,False,False
397b4a48-daa3-46d8-89b9-ace33cd5d77f,203,The Sir Henry Segrave,,93–97 Lord Street,Southport,Merseyside,PR8 1RH,England,Merseyside,-3.01048803329468,53.6458625793457,01704 530217,False,False
9e904e21-0306-4cc4-8ff1-688959a3bf51,2372,The Thomas Frost,,177–187 Walton Road,Liverpool,Merseyside,L4 4AJ,England,Merseyside,-2.97267007827759,53.435863494873,0151 207 8210,False,False
e264232e-9dff-46a8-bff1-5f64708aaf06,6103,The Watch Maker,,60–62 Eccleston Street,Prescot,Merseyside,L34 5QL,England,Merseyside,-2.80225610733032,53.4296264648438,0151 432 7030,False,False
67407e24-2931-4182-a98f-fa332f7ed4e5,2572,The Welkin,,7 Whitechapel,Liverpool,Merseyside,L1 6DS,England,Merseyside,-2.98582005500793,53.4057769775391,0151 243 1080,False,False
3e817112-0ad4-4c48-a175-97764b80db84,414,The Wild Rose,,2a & 1b The Triad Centre,Bootle,Merseyside,L20 3ET,England,Merseyside,-2.99095511436462,53.4528656005859,0151 922 0828,False,False
0dd66b02-8082-40a4-84ed-162ad9fc2abf,4113,The Willow Grove,,387–389 Lord Street,Southport,Merseyside,PR9 0AG,England,Merseyside,-3.00451111793518,53.6491012573242,01704 517830,False,False
c21486f1-210a-48f6-99ab-6d397671e318,2092,Jewel of the Severn,,80–81 High Street,Bridgnorth,Shropshire,WV16 4DS,England,Shropshire,-2.42022299766541,52.5367202758789,01746 711980,False,False
94d108e9-aa6a-4832-bf01-e557eb30a930,6041,Montgomery’s Tower,,Lower Claremont Bank,Shrewsbury,Shropshire,SY1 1RT,England,Shropshire,-2.75864601135254,52.7092552185059,01743 239080,False,False
90ffddae-67c0-4278-8da4-118e33ea5713,5534,The Hippodrome,,Queen Street,Market Drayton,Shropshire,TF9 1PS,England,Shropshire,-2.48583292961121,52.9061241149902,01630 650820,False,False
30a2004d-e161-490f-a4cb-7dfb04181bfc,777,The Shrewsbury Hotel,,Bridge Place,Shrewsbury,Shropshire,SY1 1PU,England,Shropshire,-2.75711894035339,52.7094802856445,01743 236203,False,False
72a4b9b1-c070-489e-a421-7eaa8c85d568,5325,The Thomas Botfield,,Central Square,Telford,Shropshire,TF3 4BW,England,Shropshire,-2.44565892219543,52.6756172180176,01952 292672,False,False
47728b99-a15c-4f48-9907-56e0b04e4b56,2773,The Wilfred Owen,,17 Willow Street,Oswestry,Shropshire,SY11 1AJ,England,Shropshire,-3.05644488334656,52.859546661377,01691 684910,False,False
79886fa2-dbe9-4f36-87a3-33c541a8772d,6444,The William Withering,,43–45 New Street,Wellington,Shropshire,TF1 1LU,England,Shropshire,-2.51703810691833,52.7005958557129,01952 642800,False,False
f8616c2f-10ff-4a54-b8c1-4e9dec985012,89,J.J. Moon’s,,"Unit 3, 46–62 High Street",Hornchurch,Essex,RM12 4UN,England,Essex,0.216178998351097,51.5628814697266,01708 478410,False,False
e2c21ab3-338c-4433-a1d2-a5e64907dfca,438,Moon and Starfish,,1 Marine Parade East,Clacton-on-Sea,Essex,CO15 1PU,England,Essex,1.154217004776,51.7876091003418,01255 222998,False,False
a7af0295-70d3-4c5f-8d19-8a61259977ba,7152,Parsons’ Barn,,Frobisher Way,Shoeburyness,Essex,SS3 8UT,England,Essex,0.782312989234924,51.540771484375,01702 382000,False,False
7f74cc5f-cf2e-41ca-ba62-8f685f35493a,7286,Rose & Crown,,109 High Street,Maldon,Essex,CM9 5EP,England,Essex,0.677700996398926,51.7315444946289,01621 852255,False,False
bcf6c0bf-7cf0-49e2-babd-aa1859dd147e,117,The Barking Dog,"Lorem ipsum dolor sit amet, consectetur adipiscing elit. Praesent blandit placerat porta. Nulla placerat est a diam volutpat, in luctus erat posuere. Fusce hendrerit aliquet mi sed placerat. In maximus vehicula ex ut varius. Aliquam erat volutpat. Proin imperdiet",61 Station Parade,Barking,Essex,IG11 8TU,England,Essex,0.081325002014637,51.539722442627,020 8507 9109,False,False
957096a9-8df0-4bd6-8b52-c5bf278a0d7e,2495,The Battesford Court,,100–102 Newland Street,Witham,Essex,CM8 1AH,England,Essex,0.637871026992798,51.7982330322266,01376 504080,False,False
b9bae964-b77c-4fe2-b8c8-d47b90bd5a59,1379,The Blue Boar,,39 High Street,Billericay,Essex,CM12 9BA,England,Essex,0.418518990278244,51.6269149780273,01277 655552,False,False
458e1acb-ee28-46a1-a12d-7dd4131c177b,7386,The Bottle Kiln,,60 Kingsway	,Harwich,Essex,CO12 3JR,England,Essex,1.2809544801712,51.9366912841797,01255 245400,False,False
2813353c-65b7-46f5-bb22-e4df204efb09,614,The Colley Rowe Inn,,54–56 Collier Row Road,Collier Row,Essex,RM5 3PA,England,Essex,0.160898000001907,51.5988807678223,01708 760633,False,False
1f0ff5df-1980-463e-a91b-cb66fb970875,7111,The Dairyman,,16–18 High Street,Brentwood,Essex,CM14 4AB,England,Essex,0.304491996765137,51.6208114624023,01277 227788,False,False
ac851ab4-5159-4ec1-83c1-61f361496dbb,143,The Elms,,1060 London Road,Leigh-on-Sea,Essex,SS9 3ND,England,Essex,0.656459987163544,51.5476989746094,01702 474687,False,False
cc301bf6-e02e-48b9-8547-04416805b58c,562,The Eva Hart,,1128 High Road,Chadwell Heath,Essex,RM6 4AH,England,Essex,0.130270004272461,51.5704193115234,020 8597 1069,False,False
011561ef-1714-4178-8cd6-ce50b685c2ca,90,The Great Spoon of Ilford,,114–116 Cranbrook Road,Ilford,Essex,IG1 4LZ,England,Essex,0.0688299983739853,51.561882019043,020 8518 0535,False,False
be70b6a7-de19-431b-9845-d89ef018be88,4055,The Ivory Peg,,3–7 New London Road,Chelmsford,Essex,CM2 0SW,England,Essex,0.473302006721497,51.7325325012207,01245 253130,False,False
3adee1a2-3254-467e-8777-a7e803d148ad,60,The Last Post,,227 High Road,Loughton,Essex,IG10 1BB,England,Essex,0.0553210005164146,51.6473236083984,020 8532 0751,False,False
52f2cd0a-1b03-4e9e-9c04-3f7be87b0ed9,148,The Last Post,,Weston Road,Southend-on-Sea,Essex,SS1 1AS,England,Essex,0.713005006313324,51.5364837646484,01702 431682,False,False
f2533cec-1080-47b3-9abe-a8e5ba1435dc,158,The Moon on the Square,,1–15 Market Square,Basildon,Essex,SS14 1DF,England,Essex,0.45625901222229,51.5693473815918,01268 520360,False,False
2c4adc30-d77a-4ec8-a52a-26f21fecb3bc,43,The New Fairlop Oak,,Fencepiece Road,Fairlop,Essex,IG6 2JP,England,Essex,0.0851380005478859,51.5941200256348,020 8500 2217,False,False
00bb187d-042f-4045-ad23-72b7cb21db20,698,The Picture Palace,,Fairfield Road,Braintree,Essex,CM7 3HA,England,Essex,0.553561985492706,51.8771705627441,01376 550255,False,False
91b0056c-4ee4-4521-8980-16e826296d9e,137,The Playhouse,,4 St Johns Street,Colchester,Essex,CO2 7AA,England,Essex,0.896915972232819,51.8876190185547,01206 571003,False,False
4de1c708-9f79-40a4-8c67-0a78e10eceb5,1902,The Roebuck,,138 High Street,Rayleigh,Essex,SS6 7BU,England,Essex,0.603515028953552,51.5848922729492,01268 748430,False,False
be6f7885-fdb9-4be0-8bb3-cfbc494af75c,736,The Temeraire,,55 High Street,Saffron Walden,Essex,CB10 1AA,England,Essex,0.239105999469757,52.0221824645996,01799 516975,False,False
d75249e1-aab5-4323-ae8c-d211e30e39e1,2861,The William Aylmer,,Aylmer House,Harlow,Essex,CM20 1DG,England,Essex,0.0920270010828972,51.7711715698242,01279 620630,False,False
5e30be09-8702-4593-8cd2-d965dbbf48c1,7262,The Windmill,,"After Security, Stansted Airport",Stansted,Essex,CM24 1QN,England,Essex,0.260747998952866,51.8905296325684,01279 680450,False,True
700854c4-f549-42ef-9940-86eb55783bbf,5309,Wetherspoon Express,,"After Security, Stansted Airport",Stansted,Essex,CM24 1QN,England,Essex,0.247664004564285,51.8849143981934,01279 669040,False,True
4da245da-958c-42ef-b715-44b13b2ab7db,7087,John The Clerk of Cramlington,,Low Main Place,Cramlington,Northumberland,NE23 1DN,England,Northumberland,-1.5852313041687,55.0865364074707,01670 707060,False,False
e1ff2db2-5914-4800-9c5b-6fe5f680c2f4,6500,The Electrical Wizard,,11 New Market,Morpeth,Northumberland,NE61 1PS,England,Northumberland,-1.69082999229431,55.1667671203613,01670 500640,False,False
d66c3e4c-9c32-4c49-b5c9-c4b91c5147e4,834,The Forum,,Market Place,Hexham,Northumberland,NE46 3PB,England,Northumberland,-2.10104203224182,54.971866607666,01434 609190,False,False
f135dcef-099f-4f4e-99c4-ed611efd4573,6389,The Red Lion,,Front Street West,Bedlington,Northumberland,NE22 5TZ,England,Northumberland,-1.60047698020935,55.1313438415527,01670 536160,False,False
fce96246-9110-489c-a8fb-49d1681136ea,548,The Rohan Kanhai,,1–4 Woodhorn Road,Ashington,Northumberland,NE63 9UX,England,Northumberland,-1.56759405136108,55.1834144592285,01670 857692,False,False
86fd77d8-be01-4a10-89c2-218309ddab3a,5516,The Wallaw,,14 Union Street,Blyth,Northumberland,NE24 2DX,England,Northumberland,-1.50804102420807,55.1265716552734,01670 356830,False,False
6bd4ee5d-688a-421b-9a92-8682b4c8cdfb,2194,Lloyds No.1 Bar,,1 Carlton Street,Nottingham,Nottingham,NG1 1NL,England,Nottinghamshire,-1.14519000053406,52.9535980224609,0115 988 1660,False,False
35b06bdf-acc1-4932-8e98-7e42020b930f,5467,The Admiral Sir John Borlase Warren,,97 Derby Road,Nottingham,Nottingham,NG9 7AA,England,Nottinghamshire,-1.27825200557709,52.9276237487793,0115 949 6780,False,False
e2176e41-c5d7-4bdc-a36c-b90adafe587d,6487,The Butter Cross,,Market Place,Bingham,Nottinghamshire,NG13 8AP,England,Nottinghamshire,-0.951654970645905,52.9526519775391,01949 863100,False,False
eaadd305-7103-40e5-bde5-11854bb07fd1,2211,The Company Inn,,Castle Wharf,Nottingham,Nottingham,NG1 7EH,England,Nottinghamshire,-1.15057504177094,52.9480628967285,0115 934 9020,False,False
cbccc3c9-03de-44e3-8ece-3054c5987ed6,5436,The Dominie Cross,,38 Grove Street,Retford,Nottinghamshire,DN22 6JR,England,Nottinghamshire,-0.939931988716125,53.3223915100098,01777 861150,False,False
283daf48-02de-4c1b-94e3-a5f8026b1944,1168,The Ernehale,,149–151 Nottingham Road,Arnold,Nottinghamshire,NG5 6JN,England,Nottinghamshire,-1.13041698932648,53.0017471313477,0115 967 4945,False,False
1554a558-68f6-4a7b-9c99-97ed8d1b55f4,5837,The Free Man,,334–336 Carlton Hill,Nottingham,Nottingham,NG4 1JD,England,Nottinghamshire,-1.10923194885254,52.9660682678223,0115 853 1030,False,False
240633a7-c251-49f5-be86-8d76c967ec96,6728,The Gooseberry Bush,,Peel Street,Nottingham,Nottingham,NG1 4GL,England,Nottinghamshire,-1.1557799577713,52.9596862792969,0115 852 3000,False,False
e93f3465-f082-41e5-90e7-1e0c9fc4945e,1554,The Joseph Else,,11–12 South Parade,Nottingham,Nottingham,NG1 2JS,England,Nottinghamshire,-1.14972102642059,52.9530410766602,0115 947 5034,False,False
1c7fe91e-644e-4b18-b33a-2f498a8de2b1,7091,The Lady Chatterley,,59 Nottingham Road,Nottingham,Nottingham,NG16 3AL,England,Nottinghamshire,-1.30496501922607,53.0179557800293,01773 531102,False,False
3aa46fc2-51ea-40b1-a16d-e3b3345088e7,758,The Last Post,,Chilwell Road,Beeston,Nottinghamshire,NG9 1AA,England,Nottinghamshire,-1.21682000160217,52.9263534545898,0115 968 3100,False,False
02fba1f9-57f5-446f-b08d-9398466337db,2155,The Liquorice Gardens,,1a Newcastle Street,Worksop,Nottinghamshire,S80 2AS,England,Nottinghamshire,-1.12360894680023,53.3042755126953,01909 512220,False,False
1eb014e2-8659-4f0c-b9de-c78195aae4f1,1367,The Picture House,,Fox Street,Sutton in Ashfield,Nottinghamshire,NG17 1DA,England,Nottinghamshire,-1.26132500171661,53.1261749267578,01623 554627,False,False
7b8df914-c963-4a3a-95cd-7165893b205c,810,The Pilgrim Oak,,44–46 High Street,Hucknall,Nottinghamshire,NG15 7AX,England,Nottinghamshire,-1.20249104499817,53.0380516052246,0115 963 2539,False,False
f80fc0fb-8213-489c-ab93-3562831a4f7d,6527,The Regent,,"Kingsway, Diamond Avenue",Kirkby-in-Ashfield,Nottinghamshire,NG17 7BQ,England,Nottinghamshire,-1.24388897418976,53.099422454834,01623 687630,False,False
94667d17-4e61-45d0-815d-b67603d96062,1154,The Roebuck Inn,,9–11 St James’s Street,Nottingham,Nottingham,NG1 6FH,England,Nottinghamshire,-1.15228700637817,52.9529991149902,0115 979 3400,False,False
ed1432d8-c357-402c-a320-362cd2cf2741,6326,The Samuel Hall,,"The Old Bus Depot, Mansfield Road",Nottingham,Nottingham,NG5 2JN,England,Nottinghamshire,-1.14639902114868,52.9813690185547,0115 924 6230,False,False
006c1a86-15a0-4774-997b-efb1cae8bb5e,369,The Sir John Arderne,,1–3 Church Street,Newark-on-Trent,Nottinghamshire,NG24 1DT,England,Nottinghamshire,-0.809152007102966,53.0766296386719,01636 671334,False,False
b1946a3c-60f0-406c-8fac-9d1d2dd62b1f,6423,The Stag & Pheasant,,"Unit 4, Clumber Street",Mansfield,Nottinghamshire,NG18 1NU,England,Nottinghamshire,-1.19550096988678,53.1457710266113,01623 412890,False,False
053176ec-2768-4479-acde-7f32c76e05d2,6503,The Trent Bridge Inn,,2 Radcliffe Road,Nottingham,Nottingham,NG2 6AA,England,Nottinghamshire,-1.13416695594788,52.937183380127,0115 977 8940,False,False
71d680ad-5569-4ad1-b03c-9dfe99ade7ef,1600,The Widow Frost,,Leeming Street,Mansfield,Nottinghamshire,NG18 1NB,England,Nottinghamshire,-1.19490396976471,53.1458435058594,01623 666790,False,False
b6c5f0ba-26a7-467e-94aa-d63b63c9a625,5479,The William Peverel,,259 Main Street,Nottingham,Nottingham,NG6 8EZ,England,Nottinghamshire,-1.19637203216553,53.0025672912598,0115 977 7380,False,False
34818daa-b1a6-4216-a581-18b61c7d70fb,5571,The Woodthorpe Top,,151A Woodthorpe Drive,Nottingham,Nottingham,NG3 5JL,England,Nottinghamshire,-1.12327897548676,52.9836502075195,0115 962 9700,False,False
e95c4c27-e4ff-4f4f-a4e8-b60df415885d,229,Opera House,,88 Mount Pleasant Road,Royal Tunbridge Wells,Kent,TN1 1RT,England,Kent,0.263785004615784,51.133716583252,01892 511770,False,False
62758641-8519-4086-9abf-7e08bc5ceafc,7185,The Belle and Lion,,22–24 High Street,Sheerness,Kent,ME12 1NL,England,Kent,0.760291993618011,51.4407958984375,01795 665486,False,False
80366aa3-389e-4fb1-92ad-a3b7c411be5a,530,The County Hotel,,10 High Street,Ashford,Kent,TN24 8TD,England,Kent,0.875147998332977,51.1490325927734,01233 646891,False,False
9bf5db33-b8fd-4cdf-ab05-bc3b0bbc1ba2,397,The Eight Bells,,19 Cannon Street,Dover,Kent,CT16 1BZ,England,Kent,1.31259202957153,51.125804901123,01304 205030,False,False
ef0d5b00-5eb7-49a6-bfd3-efaae146f217,6149,The Flying Boat,,36–42 Spital Street,Dartford,Kent,DA1 2DT,England,Kent,0.214792996644974,51.4447441101074,01322 421970,False,False
137cc26e-a655-4d20-9309-df4347d71832,7343,The Golden Hope,,1 Park Road,Sittingbourne,Kent,ME10 1DR,England,Kent,0.732164025306702,51.3404235839844,01795 476791,False,False
3edee15e-ab72-4e5f-902c-7d353ec4978a,738,The Golden Lion,,147–151 High Street,Rochester,Kent,ME1 1EL,England,Kent,0.506789982318878,51.3865699768066,01634 880521,False,False
c4a1f60f-0817-4245-8e5d-90fda8150122,428,The Humphrey Bean,,94 High Street,Tonbridge,Kent,TN9 1AP,England,Kent,0.274507999420166,51.1951293945313,01732 773850,False,False
eb401399-86cb-470d-97bd-28e839f0084f,498,The Leading Light,,20–22 Preston Street,Faversham,Kent,ME13 8NZ,England,Kent,0.891083002090454,51.3137550354004,01795 535075,False,False
4ca12e10-855e-482c-8484-b70765f354d2,1685,The Mechanical Elephant,,28–30 Marine Terrace,Margate,Kent,CT9 1XJ,England,Kent,1.37782502174377,51.3867073059082,01843 234100,False,False
0a08540d-1b3c-431d-82e6-82a9123b0d87,172,The Muggleton Inn,,8–9 High Street,Maidstone,Kent,ME14 1HJ,England,Kent,0.522265017032623,51.2736930847168,01622 691527,False,False
6694d1fb-7e29-4ce0-9185-9868117b96f0,6102,The Peter Cushing,,16–18 Oxford Street,Whitstable,Kent,CT5 1DD,England,Kent,1.02423095703125,51.3565406799316,01227 284100,False,False
23034c55-7c49-48f0-96ad-632c29434be4,7404,The Railway,,113 Station Road,Rainham,Kent,ME8 7SF,England,Kent,0.611751198768616,51.3657112121582,01634 365396,False,False
466bdbf4-8d30-49bd-975d-d578eb436845,316,The Robert Pocock,,181–183 Windmill Street,Gravesend,Kent,DA12 1AH,England,Kent,0.36922699213028,51.4423294067383,01474 352765,False,False
3bd84ce5-5382-4cea-90d9-529ef947dfc5,5994,Royal Victoria Pavilion,,Royal Victoria Pavilion,Ramsgate,Kent	,CT11 8LS,England,Kent,1.42348194122314,51.3320350646973,01843 854420,False,False
b00d7b77-b386-4fa7-a947-0b13dd74353e,213,The Samuel Peto,,23 Rendezvous Street,Folkestone,Kent,CT20 1EY,England,Kent,1.18141996860504,51.0805969238281,01303 251154,False,False
2dbc3118-de77-4d0e-adf3-354ff3caba20,2957,The Saxon Shore,,78–80 Central Parade,Herne Bay,Kent,CT6 5JQ,England,Kent,1.12598896026611,51.372730255127,01227 370316,False,False
5973b767-4a22-41cb-a669-f91a8b7f465b,360,The Sennockian,,139–141 High Street,Sevenoaks,Kent,TN13 1UX,England,Kent,0.192559003829956,51.2725372314453,01732 469010,False,False
ad94162d-b64c-4c70-9043-5d99a8863710,6436,The Sir Norman Wisdom,,18–20 Queens Street,Deal,Kent,CT14 6ET,England,Kent,1.40174698829651,51.2230911254883,01304 382930,False,False
9f04256c-b195-4e33-8e62-13fa850e87ce,2505,The Society Rooms,,Brenchley House,Maidstone,Kent,ME14 1RF,England,Kent,0.521807014942169,51.2775993347168,01622 350910,False,False
4334fdab-e219-4177-920b-ff9fe61656f9,291,The Thomas Ingoldsby,,5–9 Burgate,Canterbury,Kent,CT1 2HG,England,Kent,1.08350396156311,51.2784271240234,01227 463339,False,False
c6adba8f-f878-43de-b229-81ff8702d0eb,6549,The Thomas Waghorn,,14 Railway Street				,Chatham,Kent,ME4 4JL,England,Kent,0.522704005241394,51.3821601867676,01634 405422,False,False
a195250b-4c5e-4e25-a44e-c17bec0cfd2b,673,The West Gate Inn,,1–3 North Lane,Canterbury,Kent,CT2 7EB,England,Kent,1.07566499710083,51.2819671630859,01227 464329,False,False
7de143e2-654e-4e73-b56a-48cc59683ef3,651,Ritz,,143–147 High Street,Lincoln,Lincolnshire,LN5 7PJ,England,Lincolnshire,-0.543242990970612,53.2243690490723,01522 512103,False,False
320dc24b-403c-4011-8465-6e5495205ede,928,The Blue Bell Inn,,1–7 Oswald Road,Scunthorpe,Lincolnshire,DN15 7PU,England,Lincolnshire,-0.654237985610962,53.5904350280762,01724 863921,False,False
46708031-f4c4-49c4-822b-44fd71e68c1e,7190,The Coliseum Picture Theatre,,26–28 High Street,Cleethorpes,Lincolnshire,DN35 8JN,England,Lincolnshire,-0.0310849994421005,53.5607681274414,01472 694724,False,False
7c44ab23-c4d6-4260-8f45-642e8ea1664c,2493,The Ivy Wall,,18–19 New Road,Spalding,Lincolnshire,PE11 1DQ,England,Lincolnshire,-0.151381000876427,52.7885475158691,01775 719770,False,False
6f985650-1b3d-41a6-8241-56fb9e44a3e1,6662,The Joseph Morton,,Pawnshop Passage,Louth,Lincolnshire,LN11 9EZ,England,Lincolnshire,-0.0051150000654161,53.3652038574219,01507 353700,False,False
19b72f80-957e-4f98-8e98-20ccd373c4ce,606,The Moon Under Water,,6 High Street,Boston,Lincolnshire,PE21 8SH,England,Lincolnshire,-0.0244040004909039,52.976692199707,01205 311911,False,False
e43c4fc4-fbe5-487b-b24b-d837469dc688,2880,The Packhorse Inn,,7 Northgate,Sleaford,Lincolnshire,NG34 7BH,England,Lincolnshire,-0.410512000322342,52.9998397827148,01529 308730,False,False
63042a57-95c8-4925-b6f8-cfdac75615ba,405,The Red Lion,,2–4 Roman Bank,Skegness,Lincolnshire,PE25 2RU,England,Lincolnshire,0.336306989192963,53.1439590454102,01754 612567,False,False
b16ae06e-e12c-44c5-861a-21920f26e483,2795,The Square Sail,,Brayford Wharf North,Lincoln,Lincolnshire,LN1 1YW,England,Lincolnshire,-0.546572029590607,53.2298202514648,01522 559920,False,False
f1a652c4-eaca-4b9c-a207-1c0f1dd9ec78,6911,The Stamford Post,,7 Sheep Market,Stamford,Lincolnshire,PE9 2QZ,England,Lincolnshire,-0.480789005756378,52.6511497497559,01780 753832,False,False
a49d8341-cab2-44c0-b4a6-2a6cf9f5a7db,605,The Sweyn Forkbeard,,22–24 Silver Street,Gainsborough,Lincolnshire,DN21 2DP,England,Lincolnshire,-0.777032971382141,53.3984527587891,01427 675000,False,False
c73bdd89-a920-4801-a9fa-f6fb44abb4b2,219,The Tollemache Inn,,17 St Peter’s Hill,Grantham,Lincolnshire,NG31 6PY,England,Lincolnshire,-0.639823973178864,52.909839630127,01476 594696,False,False
9a0b8c28-0dca-4b82-a44a-d7101bf86662,6788,The White Horse,,Wrawby Street,Brigg,Lincolnshire,DN20 8JR,England,Lincolnshire,-0.488763004541397,53.5523986816406,01652 659344,False,False
62ba13d5-fa55-4a63-b89b-1523b60f5609,423,The Yarborough Hotel,,29 Bethlehem Street,Grimsby,Lincolnshire,DN31 1JN,England,Lincolnshire,-0.0873949974775314,53.5639343261719,01472 268283,False,False
5c8dacf9-eecb-4df6-914c-88a4cc0ceedc,1508,Rupert Brooke,,8–10 Castle Street,Rugby,Warwickshire,CV21 2TP,England,Warwickshire,-1.25934898853302,52.3730316162109,01788 576759,False,False
5aaa2057-bd46-4c0d-ab5c-e86315e87d85,2145,The Bear and Ragged Staff,,50 King Street,Bedworth,Warwickshire,CV12 8JA,England,Warwickshire,-1.47106897830963,52.479606628418,024 7649 4340,False,False
5056f35c-3aed-4238-a45a-d665eea9167c,263,The Benjamin Satchwell,,112–114 The Parade,Royal Leamington Spa,Warwickshire,CV32 4AQ,England,Warwickshire,-1.53558099269867,52.2897148132324,01926 883733,False,False
6059a0d2-ce3e-4bc0-9f3e-252f8d93276b,576,The Felix Holt,,3 Stratford Street,Nuneaton,Warwickshire,CV11 5BS,England,Warwickshire,-1.46952497959137,52.523006439209,024 7634 7785,False,False
719010b7-8374-480b-b274-2fc8f6f8c9c5,1610,The Golden Bee,,41–42 Sheep Street,Stratford-upon-Avon,Warwickshire,CV37 6EE,England,Warwickshire,-1.70568001270294,52.1915969848633,01789 203860,False,False
276ca38b-015d-49e5-a2c0-275c69e7e1aa,2201,The Thomas Lloyd,,3–7 Market Place,Warwick,Warwickshire,CV34 4SA,England,Warwickshire,-1.59025204181671,52.2822799682617,01926 475690,False,False
0e4d4bb1-9c42-424f-a06d-56d454d40672,904,S. Fowler & Co.,,41–43 Union Street,Ryde,Isle of Wight,PO33 2LF,England,Isle of Wight,-1.16266894340515,50.7303657531738,01983 812112,False,False
0330d738-79fa-4a87-85fe-b08c85de4e48,5954,The Man in the Moon,,16–17 St James Street,Newport,Isle of Wight,PO30 5HB,England,Isle of Wight,-1.29587602615356,50.7001457214355,01983 530126,False,False
b4b5b963-5856-4033-ab08-0a9428e164ea,5452,Sandford House,,George Street		,Huntingdon	,Cambridgeshire,PE29 3AD,England,Cambridgeshire,-0.187099203467369,52.3303108215332,01480 432402,False,False
e92bf375-eaef-41b1-b2a0-119dc1ead92c,236,The College Arms,,40 The Broadway,Peterborough,Cambridgeshire,PE1 1RS,England,Cambridgeshire,-0.24167400598526,52.5753784179688,01733 319745,False,False
7fc9bc6d-14cb-4445-af01-edec4a7f8e37,5362,The Draper’s Arms,,29–31 Cowgate,Peterborough,Cambridgeshire,PE1 1LZ,England,Cambridgeshire,-0.246505007147789,52.5729713439941,01733 847570,False,False
a8936559-1958-47a9-ad60-1f8ba021bafc,5762,The George Hotel,,10 Market Place,Whittlesey,Cambridgeshire,PE7 1AB,England,Cambridgeshire,-0.127433001995087,52.5561637878418,01733 359970,False,False
c4c7f49f-a17a-4f98-af75-d38e16093979,5983,The Hippodrome,,Dartford Road,March,Cambridgeshire,PE15 8AQ,England,Cambridgeshire,0.0873320028185844,52.5514984130859,01354 602980,False,False
0e19b79d-ba06-4281-a734-14c9736020f4,748,The Regal,,38–39 St Andrews Street,Cambridge,Cambridgeshire,CB2 3AR,England,Cambridgeshire,0.123871996998787,52.2029342651367,01223 366459,False,False
f8c203a9-c175-41f3-943c-cd1f2c8ef714,7140,The Swan & Angel,,The Swan & Angel,St Ives,Cambridgeshire,PE27 5AL,England,Cambridgeshire,-0.0728005021810532,52.3231887817383,01480 499060,False,False
4d2bd5b9-2e4a-46b4-a6cf-17117fb52463,5588,The Weeping Ash,,15 New Street,St Neots,Cambridgeshire,PE19 1AE,England,Cambridgeshire,-0.269142001867294,52.2287292480469,01480 408330,False,False
60d58839-2f03-48fa-a732-9dec58a3482a,1725,The Wheatsheaf Inn,,18–22 Church Terrace,Wisbech,Cambridgeshire,PE13 1BL,England,Cambridgeshire,0.162964999675751,52.6632347106934,01945 469890,False,False
07d77127-8bbe-4745-b894-1ca52acc8c92,2196,Sheffield Water Works Company,,Cambridge House,Sheffield,South Yorkshire,S1 4GF,England,South Yorkshire,-1.47297298908234,53.3802680969238,0114 276 5076,False,False
204024bd-f3ab-46c3-bfa5-fe26bb700ed2,281,The Bankers Draft,,1–3 Market Place,Sheffield,South Yorkshire,S1 2GH,England,South Yorkshire,-1.46647298336029,53.3831825256348,0114 275 6609,False,False
1e963162-485b-45ad-bafc-38baf0ece2a5,721,The Benjamin Huntsman,,12–18 Cambridge Street,Sheffield,South Yorkshire,S1 4HP,England,South Yorkshire,-1.47238004207611,53.3799705505371,0114 263 9500,False,False
c248eef6-9aac-47ac-8e13-57a8f1b1bed9,1776,The Bluecoat,,The Crofts,Rotherham,South Yorkshire,S60 2DJ,England,South Yorkshire,-1.35491096973419,53.4288558959961,01709 539500,False,False
0cc999d5-36c6-4754-88f8-170d9514b513,1757,The Church House,,Montgomery Square,Wath-upon-Dearne,South Yorkshire,S63 7RZ,England,South Yorkshire,-1.34541201591492,53.5021858215332,01709 879518,False,False
c55b7cb0-94fb-4433-abd9-e3368919eba3,6236,The Francis Newton,,Clarkehouse Road,Sheffield,South Yorkshire,S10 2LA,England,South Yorkshire,-1.4921590089798,53.3768272399902,0114 267 3660,False,False
226eeb04-207a-4004-ae0d-45aba86e63f0,2259,The Gate House,,Priory Walk,Doncaster,South Yorkshire,DN1 1TS,England,South Yorkshire,-1.13400197029114,53.5224647521973,01302 554540,False,False
6d628dd6-79c3-4fa7-95dd-1136f0b6d129,2844,The Horseshoe,,30 High Street,Wombwell,South Yorkshire,S73 0AA,England,South Yorkshire,-1.39863395690918,53.5225715637207,01226 273820,False,False
468e606b-0a9b-4cda-9b73-cb5a00205f20,5279,The Joseph Bramah,,15 Market Hill,Barnsley,South Yorkshire,S70 2PX,England,South Yorkshire,-1.48173499107361,53.5529022216797,01226 320890,False,False
279ad2cf-5cac-41c7-8c0e-3f1a56fe6f06,5600,The Old Market Hall,,Market Street,Mexborough,South Yorkshire,S64 9QA,England,South Yorkshire,-1.28753304481506,53.4927673339844,01709 599820,False,False
6a6230f8-c301-4b51-aedd-b8d9aa209297,6600,The Queens Hotel,,Tickhill Road,Rotherham,South Yorkshire,S66 7NQ,England,South Yorkshire,-1.19668698310852,53.4233016967773,01709 797120,False,False
0a373275-3cb9-428b-a11f-542de757ca02,5261,The Rawson Spring,,Langsett Road,Sheffield,South Yorkshire,S6 2LN,England,South Yorkshire,-1.50016605854034,53.4020156860352,0114 285 6200,False,False
389af74e-9552-4b63-aea0-956523a67e8b,4128,The Red Lion,,37–38 Market Place,Doncaster,South Yorkshire,DN1 1NH,England,South Yorkshire,-1.13255405426025,53.5239562988281,01302 732120,False,False
d94bb778-f6dc-4052-8cab-78b96f9d8695,6430,The Running Horse,,"After Security, Robin Hood Airport",Doncaster,South Yorkshire,DN9 3GA,England,South Yorkshire,-1.01079905033112,53.4804267883301,01302 625557,False,True
b5ad9985-64e0-46ce-9b42-a1450aa58372,7519,The Scarsdale Hundred ,,2 Sevenairs Road,Sheffield	,South Yorkshire,S20 1NZ	,England,South Yorkshire,-1.34952902793884,53.3439903259277,0114 2480520	,False,False
15b8a290-37b0-4514-9416-d6c713acd71e,5483,The Sheaf Island,,"Wards Brewery, Ecclesall Road",Sheffield,South Yorkshire,S11 8HW,England,South Yorkshire,-1.48198401927948,53.3728332519531,0114 267 7700,False,False
9ea49a2f-9ce7-4a33-a627-6f4a894c20fe,5593,The Silkstone Inn,,64 Market Street,Barnsley,South Yorkshire,S70 1SN,England,South Yorkshire,-1.48052394390106,53.5511665344238,01226 320860,False,False
b65fb025-e8fc-4fa4-9b29-89bbc13f1e5c,7188,The Steel Foundry,,"Unit 12, The Oasis, Meadowhall Centre",Sheffield,South Yorkshire,S9 1EP,England,South Yorkshire,-1.41246104240417,53.4130401611328,0114 235 4480,False,False
038010c6-035e-4d30-938a-d2d59b4a60f0,7095,The Wagon & Horses,,2 Market Place,Sheffield,South Yorkshire,S35 2UU,England,South Yorkshire,-1.46556305885315,53.4616851806641,0114 232 9980,False,False
b02bd9ec-0622-4435-a39a-75add8f20ffa,1713,The Woodseats Palace,,692 Chesterfield Road,Sheffield,South Yorkshire,S8 0SD,England,South Yorkshire,-1.47835803031921,53.3441505432129,01142556360,False,False
7d628812-b5b3-4481-82ff-d2a0540f70c2,2930,Spa Lane Vaults,,34 St Mary’s Gate,Chesterfield,Derbyshire,S41 7TH,England,Derbyshire,-1.42415297031403,53.2352256774902,01246 246300,False,False
06351dd8-07ee-4109-9e45-464563a39b79,507,The Babington Arms,,11–13 Babington Lane,Derby,Derbyshire,DE1 1TA,England,Derbyshire,-1.47633194923401,52.9191551208496,01332 383647,False,False
ff946abb-d6f6-4659-9b76-9f6e2b1ced8e,631,The Crown,,Crown Square,Matlock,Derbyshire,DE4 3AT,England,Derbyshire,-1.55606603622437,53.1388549804688,01629 56458,False,False
72c19313-9018-4c0b-9e52-458b5d04a7dc,1017,The Observatory,,14a Market Place,Ilkeston,Derbyshire,DE7 5QA,England,Derbyshire,-1.30816698074341,52.9715194702148,0115 932 8040,False,False
696bcae7-9390-4a03-bdbf-7574a927333d,6747,The Pillar of Rock,,15 Castle Street,Chesterfield,Derbyshire,S44 6PP,England,Derbyshire,-1.29381895065308,53.2298851013184,01246 820940,False,False
d0f00929-3c0f-46cb-97e7-ccaa84a8910f,2020,The Portland Hotel,,West Bars,Chesterfield,Derbyshire,S40 1AY,England,Derbyshire,-1.43116497993469,53.2351951599121,01246 245410,False,False
943f2215-ad34-42c5-a601-0f01f0b1a9df,1556,The Red Lion,,Market Place,Ripley,Derbyshire,DE5 3BS,England,Derbyshire,-1.40735697746277,53.0507850646973,01773 512875,False,False
4b8bf14c-736b-4827-96cc-c5fa840fcfbf,1805,The Sir Nigel Gresley,,Market Street,Swadlincote,Derbyshire,DE11 0AD,England,Derbyshire,-1.55780494213104,52.7743072509766,01283 227560,False,False
6211988e-731f-4bf3-8b39-6910990bb62d,6416,The Smithy Fold,,"Unit 11, Howard Town Shopping Park",Glossop,Derbyshire,SK13 8HS,England,Derbyshire,-1.94894599914551,53.4426536560059,01457 890070,False,False
bb5eaf5a-3503-4f7d-b6cb-a56c5ab4970b,170,The Standing Order,,28–32 Iron Gate,Derby,Derbyshire,DE1 3GL,England,Derbyshire,-1.47816503047943,52.9241638183594,01332 207591,False,False
63fbbbb1-355d-4bb4-8474-562f85eddb76,6058,The Thomas Leaper,,27 Iron Gate,Derby,Derbyshire,DE1 3GL,England,Derbyshire,-1.47816503047943,52.9241638183594,01332 867850,False,False
c22b2951-5cdf-49a8-87d2-b6e48da479bb,1681,The Wye Bridge House,,Fairfield Road,Buxton,Derbyshire,SK17 7DJ,England,Derbyshire,-1.90530204772949,53.2594108581543,01298 70932,False,False
cfc9480d-2c13-499f-be1e-5fd187c3af68,5103,Waggon and Horses,,9 King Street,Alfreton,Derbyshire,DE55 7AF,England,Derbyshire,-1.39028203487396,53.0971145629883,01773 545890,False,False
2abd5a21-a5e3-4199-8588-6f7466f3e8c1,6042,The Admiral Sir Lucius Curtis,,Canute’s Pavilion,Southampton,Hampshire,SO14 3JS,England,Hampshire,-1.39394617080688,50.8969764709473,023 8038 8940,False,False
f2f177fc-8821-497f-8ae0-cb68d16ffa73,4084,The Angel,,"Unit R6, Lower Ground",Basingstoke,Hampshire,RG21 7BB,England,Hampshire,-1.08546900749207,51.265567779541,01256 854800,False,False
611bbbf9-f1fe-4dce-8e43-bd63ef7f3d6b,656,The Bright Water Inn,,370–372 Shirley Road,Shirley,Hampshire,SO15 3HY,England,Hampshire,-1.43043601512909,50.9197998046875,023 8077 6717,False,False
ab8b899f-b1ba-422d-b5e8-c5ac55697689,6148,The Crown Inn,,40 West Street,Fareham,Hampshire,PO16 0JW,England,Hampshire,-1.17694902420044,50.8523330688477,01329 241750,False,False
6b64c4c2-44d2-4ab8-bbbf-12656b58c9f1,6256,The Denmead Queen,,8–9 Queens Parade,Waterlooville,Hampshire,PO7 7EB,England,Hampshire,-1.03062605857849,50.8807716369629,023 9224 7430,False,False
0138d724-22cb-475a-865d-28f56a8ae9d4,684,The First Post,,42 High Street,Cosham,Hampshire,PO6 3AG,England,Hampshire,-1.06715905666351,50.8448791503906,023 9221 0331,False,False
0301ec7f-6b3d-4b2c-a22c-df8f1b804f59,701,The Giddy Bridge,,10–16 London Road,Southampton,Hampshire,SO15 2AF,England,Hampshire,-1.40448594093323,50.9110260009766,023 8033 6346,False,False
1423d0f6-34b2-4ce7-a2bd-958cb2518990,322,The Isambard Kingdom Brunel,,2 Guildhall Walk,Portsmouth,Hampshire,PO1 2DD,England,Hampshire,-1.09259903430939,50.7970352172852,023 9229 5112,False,False
7a685731-4775-48d5-83e6-1e5fedf5846f,5731,The Ivy House,,Draymans Way,Alton,Hampshire,GU34 1SS,England,Hampshire,-0.978074014186859,51.1465606689453,01420 549011,False,False
f4883c72-6c8e-4fd1-b3aa-3d3a63d94f55,1526,The John Jacques,,78–82 Fratton Road,Portsmouth,Hampshire,PO1 5BZ,England,Hampshire,-1.07678997516632,50.7983207702637,023 9277 9742,False,False
c2ea8891-aa5d-4ae6-a7d4-395c1b65af49,1345,The John Russell Fox,,10 High Street,Andover,Hampshire,SP10 1NY,England,Hampshire,-1.47896301746368,51.2068748474121,01264 320920,False,False
9027f24b-7153-4b6c-8e42-d7180c7bf445,876,The Lord Arthur Lee,,100–108 West Street,Fareham,Hampshire,PO16 0EP,England,Hampshire,-1.18130600452423,50.852481842041,01329 280447,False,False
60946ba2-099f-45a0-8ade-0982baf0fc3e,6405,The Lord Palmerston,,84–90 Palmerston Road,Southsea,Hampshire,PO5 3PT,England,Hampshire,-1.08896100521088,50.7841987609863,023 9272 8000,False,False
dc3b58fb-0f2c-43c1-a4b3-a2cc6d4419db,2803,The Maidenhead Inn,,17 Winchester Street,Basingstoke,Hampshire,RG21 7ED,England,Hampshire,-1.08756601810455,51.2623558044434,01256 316030,False,False
d4a3359f-81fa-4a1b-bb95-678285473462,468,The Old Gaolhouse,,11a Jewry Street,Winchester,Hampshire,SO23 8RZ,England,Hampshire,-1.31628799438477,51.0638198852539,01962 850095,False,False
ec780509-d81c-46f3-a0a8-da5c2ab581b9,480,The Parchment Makers,,1 Park Road North,Havant,Hampshire,PO9 1HE,England,Hampshire,-0.984589993953705,50.851921081543,023 9247 4023,False,False
8c54eab0-0978-48c2-8c25-2b1691bdf817,532,The Prince Arthur,,238 Fleet Road,Fleet,Hampshire,GU51 4BX,England,Hampshire,-0.845027029514313,51.2788581848145,01252 622660,False,False
3839abc2-2102-4f98-add3-d54beab56ef5,7211,The Queen Hotel,,1 High Street,Aldershot,Hampshire,GU11 1BH,England,Hampshire,-0.767638027667999,51.2498359680176,01252 361770,False,False
787edfb6-0ead-48e0-a803-0860766f6f5c,6232,The Red Lion,,3 College Street,Petersfield,Hampshire,GU31 4AE,England,Hampshire,-0.934238016605377,51.003833770752,01730 235160,False,False
84edf31b-721f-4946-ac7e-a3dd86e784c3,7331,The Red Lion,,The Red Lion,Southampton,Hampshire	,SO18 5EF	,England,Hampshire,-1.35801541805267,50.9144248962402,023 8043 9910,False,False
0f680c17-da57-48b5-85ca-4e97b0cd7a48,2834,The Sir Alec Rose,,32–33 The Boardwalk,Portsmouth,Hampshire,PO6 4TP,England,Hampshire,-1.09768199920654,50.840934753418,023 9231 4800,False,False
f751ba7f-c490-4542-b554-f6c68a87d13c,1855,The Sir John Baker,,80 London Road,Portsmouth,Hampshire,PO2 0LN,England,Hampshire,-1.07954394817352,50.8154487609863,023 9262 7960,False,False
02b4508f-bfce-46db-bbfb-6fa288917ac6,6301,The Six Bells,,47–48 St Thomas Street,Lymington,Hampshire,SO41 9ND,England,Hampshire,-1.54554295539856,50.7574920654297,01590 689990,False,False
99785d1a-b345-465e-bc15-7baa5f84fc8b,202,The Standing Order,,30 The High Street,Southampton,Hampshire,SO14 2DF,England,Hampshire,-1.40377104282379,50.9005126953125,023 8022 2121,False,False
6be8d476-88e0-4a63-82e1-ac5268b7f778,1373,The Star,,28–29 High Street,Gosport,Hampshire,PO12 1DF,England,Hampshire,-1.12112605571747,50.7953681945801,023 9251 2130,False,False
ad1972c3-ccd8-454c-84d0-6cc11af4b497,6240,The Tilly Shilling,,"Units 2–5, The Meads, Victoria Road",Farnborough,Hampshire,GU14 7PG,England,Hampshire,-0.756707012653351,51.2934379577637,01252 893560,False,False
987f1489-3ff6-4034-933c-d9a33ecda205,6147,The Wagon Works,,28 Southampton Road,Eastleigh,Hampshire,SO50 9FJ,England,Hampshire,-1.35060203075409,50.9694442749023,023 8062 2670,False,False
7bbefc3b-9e52-4cc9-ba44-a247a13965df,6265,The Albany Palace,,1 Park Road,Trowbridge,Wiltshire,BA14 8AQ,England,Wiltshire,-2.2064049243927,51.3200035095215,01225 781980,False,False
17d238d8-1113-4c3e-8439-b9f23a36126b,7089,The Bath Arms,,41 Market Place,Warminster,Wiltshire,BA12 9AZ,England,Wiltshire,-2.18007111549377,51.2047576904297,01985 853920,False,False
c57481d5-1bde-4fee-9ab4-8e4ae13bd29d,6689,The Bear,,3 Bath Road,Melksham,Wiltshire,SN12 6LL,England,Wiltshire,-2.13861989974976,51.3749313354492,01225 792690,False,False
5845eeb3-a87a-4672-aead-72d307ce4855,6638,The Bell,,13–15 Salisbury Street,Amesbury,Wiltshire,SP4 7AW,England,Wiltshire,-1.78096497058868,51.1721153259277,01980 677700,False,False
e83c10b7-2316-41e0-aeb5-f3deb5a5e1d5,5955,The Bridge House,,Borough Parade,Chippenham,Wiltshire,SN15 3WL,England,Wiltshire,-2.1178879737854,51.4583892822266,01249 450980,False,False
3694d90c-70e3-459e-811f-791c52c93dc7,5330,The Dockle Farmhouse,,2 Bridge End Road,Swindon,Wiltshire,SN3 4PD,England,Wiltshire,-1.75427901744843,51.5748596191406,01793 838910,False,False
e564b5d5-aa0c-424d-9782-95629a8ea3c6,4334,The King’s Head Inn,,1 Bridge Street,Salisbury,Wiltshire,SP1 2ND,England,Wiltshire,-1.7981790304184,51.0686225891113,01722 342050,False,False
240edf28-87d0-4722-91e1-0ef520a1b908,247,The Savoy,,38–40 Regent Street,Swindon,Wiltshire,SN1 1JL,England,Wiltshire,-1.78267097473145,51.5600090026855,01793 533970,False,False
85ef6e95-6c56-486f-b855-a278b375aebf,4351,The Silk Mercer,,St Johns Street,Devizes,Wiltshire,SN10 1BL,England,Wiltshire,-1.99535501003265,51.3517570495605,01380 736760,False,False
95a635c4-de32-47c4-a294-9fbfac02bdc0,5578,The Sir Daniel Arms,,Fleet Street,Swindon,Wiltshire,SN1 1RQ,England,Wiltshire,-1.78763699531555,51.5623245239258,01793 509270,False,False
c96d63b2-8257-4f69-8713-46bbe0b99ead,5649,The Albert and The Lion,,Bank Hey Street,Blackpool,Lancashire,FY1 4RU,England,Lancashire,-3.05505800247192,53.8169174194336,01253 743690,False,False
bbc3eafa-5e72-4f53-b271-ab35b779a631,311,The Ash Tree,,9–11 Wellington Road,Ashton-under-Lyne,Lancashire,OL6 6DA,England,Lancashire,-2.09235596656799,53.4898872375488,0161 339 9670,False,False
0d6e76a3-6e31-4a91-8b4e-cf721af768d1,6165,The Boot Inn,,18 St James’ Street,Burnley,Lancashire,BB11 1NG,England,Lancashire,-2.24075794219971,53.7889862060547,01282 463720,False,False
aa1c53be-cfe2-4ff2-a739-942d152cd091,6652,The Commercial Hotel,,1 Church Street,Accrington,Lancashire,BB5 2EN,England,Lancashire,-2.36389207839966,53.7527084350586,01254 300140,False,False
8f529e7e-13d4-479e-9e3f-757ddba79c08,6439,The Court Leet,,4 Wheatsheaf Walk,Ormskirk,Lancashire,L39 2XA,England,Lancashire,-2.88523292541504,53.5684051513672,01695 579803,False,False
5b03f7ba-1398-43a1-9c68-0a5bc82c1480,4237,The Eric Bartholomew,,10–18 Euston Road,Morecambe,Lancashire,LA4 5DD,England,Lancashire,-2.86620688438416,54.0724945068359,01524 405860,False,False
cb729fdb-bc04-4d11-a006-1b4507121002,255,The Grey Friar,,144 Friargate,Preston,Lancashire,PR1 2EJ,England,Lancashire,-2.70299196243286,53.7602996826172,01772 558542,False,False
1e9fd76d-4d26-4266-aa82-d4db920410d3,5959,The Jolly Tars,,154–158 Victoria Road West,Cleveleys,Lancashire,FY5 3NE,England,Lancashire,-3.03727102279663,53.8763580322266,01253 856042,False,False
f1f57619-9f78-47ec-bbef-191fe803a076,5333,The Layton Rakes,,17–25 Market Street,Blackpool,Lancashire,FY1 1ET,England,Lancashire,-3.05512189865112,53.8182563781738,01253 743710,False,False
43c5c180-3ec2-44e9-bf3c-17f29e538ed6,6279,The Leyland Lion,,60 Hough Lane,Leyland,Lancashire,PR25 2SA,England,Lancashire,-2.69264793395996,53.6954917907715,01772 643990,False,False
66dca074-b73a-4f30-802e-8155b446f2a8,6666,The Old Chapel,,Railway Road,Darwen,Lancashire,BB3 2RJ,England,Lancashire,-2.4654369354248,53.6960067749023,01254 778700,False,False
66b6476a-c281-4985-853f-43811801d2fd,272,The Postal Order,,15–19 Darwen Street,Blackburn,Lancashire,BB2 2BY,England,Lancashire,-2.48247289657593,53.746711730957,01254 676400,False,False
d3880968-36e6-4aae-a222-3cc04f4c43f0,7086,The Poulton Elk,,22 Hardhorn Road,Poulton-le-Fylde,Lancashire,FY6 7SR,England,Lancashire,-2.99239206314087,53.8453636169434,01253 895265,False,False
914cea0c-08f7-492b-aaee-68077552ba8a,6723,The Railway Hotel,,Station Road,Lytham St Annes,Lancashire,FY8 5DH,England,Lancashire,-2.95679211616516,53.7380485534668,01253 797250,False,False
76f55f7e-7e9b-4e6c-8f2f-6b819b248a43,182,The Regal Moon,,The Butts,Rochdale,Lancashire,OL16 1HB,England,Lancashire,-2.15681099891663,53.6173057556152,01706 657434,False,False
68edf1e5-c035-44d7-8d25-9393bf3ae45e,2038,The Sir Henry Tate,,New Market Street,Chorley,Lancashire,PR7 1DB,England,Lancashire,-2.63057398796082,53.6539497375488,01257 248470,False,False
b13a1b0b-3ea5-4d42-b79b-90527b5475b6,1990,The Sir Richard Owen,,4 Spring Garden Street,Lancaster,Lancashire,LA1 1RQ,England,Lancashire,-2.80031991004944,54.0468902587891,01524 541500,False,False
305204b8-5029-4cb6-84a2-6ad2c71f78c0,543,The Sir Thomas Gerard,,2 Gerard Street,Ashton-in-Makerfield,Lancashire,WN4 9AN,England,Lancashire,-2.63707304000854,53.48681640625,01942 713519,False,False
767479a1-c7ff-4911-972a-bbf27fba345b,5308,The Thomas Burke,,20a Leigh Road,Leigh,Lancashire,WN7 1QR,England,Lancashire,-2.51896691322327,53.4993362426758,01942 685640,False,False
4df57483-851b-475b-8285-052704f38aa0,2218,The Thomas Drummond,,London Street,Fleetwood,Lancashire,FY7 6JE,England,Lancashire,-3.0116069316864,53.9219055175781,01253 775020,False,False
99f17bfa-8817-451a-902e-a367f2ea20fb,1883,The Trawl Boat Inn,,36–38 Wood Street,Lytham St Annes,Lancashire,FY8 1QR,England,Lancashire,-3.02997589111328,53.7509384155273,01253 783080,False,False
2febf452-d1a2-4606-b9f1-06641c9c49df,7078,The Twelve Tellers,,14–15 Church Street,Preston,Lancashire,PR1 3BQ,England,Lancashire,-2.69686794281006,53.7587203979492,01772 550910,False,False
0d4cde3e-547e-4325-b6f1-5a465b2538cc,7275,The Velvet Coaster,,501–507 Promenade,Blackpool,Lancashire,FY4 1BA,England,Lancashire,-3.05606698989868,53.7948532104492,01253 362180,False,False
dba1dd98-d39f-436e-9a43-8508c421853e,5603,The Wallace Hartley,,35–37 Church Street,Colne,Lancashire,BB8 0EB,England,Lancashire,-2.17044305801392,53.8567085266113,01282 857990,False,False
f4d6d879-8318-418f-88df-53344bef941f,4111,The Amber Rooms,,15 The Rushes,Loughborough,Leicestershire,LE11 5BE,England,Leicestershire,-1.20935499668121,52.7737312316895,01509 638570,False,False
52df16a3-0a77-41cb-88e6-a0a512b9efad,2193,The Corn Exchange,,1 Corn Exchange,Leicester,Leicestershire,LE1 5GG,England,Leicestershire,-1.13330698013306,52.6345901489258,0116 253 8533,False,False
7d7c34be-34db-43e0-8f95-802c3dd6ac5f,583,The High Cross,,103–105 High Street,Leicester,Leicestershire,LE1 4JB,England,Leicestershire,-1.13858294487,52.6353378295898,0116 251 9218,False,False
495de59d-93a1-498d-b8f1-25dda7a91199,5469,The Kettleby Cross,,Wilton Road,Melton Mowbray,Leicestershire,LE13 0UJ,England,Leicestershire,-0.889285027980804,52.7657089233398,01664 485310,False,False
29753ab7-9d0b-4e89-a3f0-b7b6c72d2c3e,790,The Lord Keeper of the Great Seal,,96–100 The Parade,Oadby,Leicestershire,LE2 5BF,England,Leicestershire,-1.08407998085022,52.6008491516113,0116 272 0957,False,False
b7c9a99a-7e36-4884-9bc8-904c8572eb6b,1727,The Monkey Walk,,1 Marlborough Square,Coalville,Leicestershire,LE67 3WD,England,Leicestershire,-1.3743269443512,52.723503112793,01530 278950,False,False
378103b4-5bd7-45a4-a098-ece0b343b64f,786,The Moon & Bell,,6 Wards End,Loughborough,Leicestershire,LE11 3HA,England,Leicestershire,-1.2076610326767,52.7692604064941,01509 241504,False,False
9764eef6-9ef7-487d-b314-969c19a60d93,6901,The Shoulder of Mutton,,2 Market Street,Ashby-de-la-Zouch,Leicestershire,LE65 1AF,England,Leicestershire,-1.47357499599457,52.746711730957,01530 567480,False,False
26becfe7-53e3-4b67-b1f1-cc588227f7fb,789,The Sugar Loaf,,18 High Street,Market Harborough,Leicestershire,LE16 7NJ,England,Leicestershire,-0.922402024269104,52.4789924621582,01858 469231,False,False
bce936e0-73c6-46a6-b7c5-16e6fd250397,6545,The White House,,375 Scraptoft Lane,Leicester,Leicestershire,LE7 9SE,England,Leicestershire,-1.04683494567871,52.6429786682129,0116 241 1000,False,False
5c1b3e0f-b2da-4851-8bc9-61fbde723116,424,The William Wygston,,84 Leicester Road,Wigston,Leicestershire,LE18 1DR,England,Leicestershire,-1.10555601119995,52.5877342224121,0116 288 8397,False,False
409b3a6c-a15e-47b1-8964-5370612bd077,6246,The Angel Hotel,,1 New Quay Road,Whitby,North Yorkshire,YO21 1DH,England,North Yorkshire,-0.613777995109558,54.4860153198242,01947 824730,False,False
9ca5822c-8f2f-4126-b8bb-3501350b9dca,7479,The Buck Inn ,,237–238 High Street,,North Yorkshire,DL7 8LU,England,North Yorkshire,-1.43701004981995,54.3415489196777,01609 761461,False,False
78829b5b-2555-4d9b-9189-8155216a0f47,7206,The Crown Inn,,71–75 High Street,Knaresborough,North Yorkshire,HG5 0HB,England,North Yorkshire,-1.46851301193237,54.0091247558594,01423 867376,False,False
ca284e07-12b1-416e-8123-c2c27c05a900,1667,The Devonshire,,22 Newmarket Street,Skipton,North Yorkshire,BD23 2HR,England,North Yorkshire,-2.01559591293335,53.9603576660156,01756 692590,False,False
05aa926a-5fdb-4d08-b8e7-d1f8480304ad,6934,The Giant Bellflower,,47a Gowthorpe,Selby,North Yorkshire,YO8 4HF,England,North Yorkshire,-1.07216703891754,53.7835655212402,01757 293020,False,False
0378e624-b4a4-4355-99cd-87dd304907fe,7182,The Ironstone Miner,,The Ironstone Miner,Guisborough,North Yorkshire,TS14 6AP,England,North Yorkshire,-1.05654215812683,54.5344696044922,01287 611350,False,False
669b23d4-68cc-4548-81e8-a1f9ce720095,383,The Lord Rosebery,,85–87 Westborough,Scarborough,North Yorkshire,YO11 1JW,England,North Yorkshire,-0.404235005378723,54.2809257507324,01723 361191,False,False
a5d6426a-92af-464e-9404-ba91b3be6ed0,1587,The Plimsoll Line,,138–142 High Street East,Redcar,North Yorkshire,TS10 3DH,England,North Yorkshire,-1.06047904491425,54.6172561645508,01642 495250,False,False
84d0e2ba-3ed4-4175-9a49-1f991e8eba60,1845,The Postern Gate,,90 Piccadilly,York,North Yorkshire,YO1 9NX,England,North Yorkshire,-1.07718598842621,53.9544868469238,01904 526220,False,False
c6381ca8-8550-4802-ab0a-efa7c867750a,2870,The Punch Bowl,,5–9 Blossom Street,York,North Yorkshire,YO24 1AU,England,North Yorkshire,-1.0910040140152,53.9556198120117,01904 666740,False,False
a0fd87db-754a-4eea-ab44-02d07dda0e71,2121,The Ralph Fitz Randal,,6 Queens Road,Richmond,North Yorkshire,DL10 4AE,England,North Yorkshire,-1.7367160320282,54.4046745300293,01748 828080,False,False
6b89db3a-56a7-4bf2-a71c-f95c16b10db7,4265,The Resolution,,19 Newport Crescent,Middlesbrough,North Yorkshire,TS1 5UA,England,North Yorkshire,-1.23804199695587,54.5759620666504,01642 260650,False,False
8d33a372-d337-4071-8cf8-f9fb1c8d2b25,6692,The Swatters Carr,,228 Linthorpe Road,Middlesbrough,North Yorkshire,TS1 3QW,England,North Yorkshire,-1.23865294456482,54.5698623657227,01642 239060,False,False
1bb4ec7b-61a6-4ed0-9857-c62d03e430a9,5560,The Three Tuns,,54 Market Place,Thirsk,North Yorkshire,YO7 1LH,England,North Yorkshire,-1.341392993927,54.2325820922852,01845 521370,False,False
ca32729a-e2f5-4aea-aef2-8109953961fc,6286,The Unicorn Hotel,,Market Place East,Ripon,North Yorkshire,HG4 1BP,England,North Yorkshire,-1.52320599555969,54.1360168457031,01765 643410,False,False
5076b36d-3986-4a1c-bb55-6ff58a350c7c,893,The Winter Gardens,,"Unit 4, Royal Baths",Harrogate,North Yorkshire,HG1 2RR,England,North Yorkshire,-1.54377496242523,53.9942665100098,01423 877010,False,False
53bb4257-aa8f-469f-928f-087c7b059377,6264,The Art Picture House,,36 Haymarket Street,Bury,Greater Manchester,BL9 0AY,England,Greater Manchester,-2.29826188087463,53.5914497375488,0161 705 4040,False,False
a24cf1e6-9b5c-459b-916d-6408c065239e,1473,The Bishop Blaize,,708 Chester Road,Stretford,Greater Manchester,M32 0SF,England,Greater Manchester,-2.28911590576172,53.4611854553223,0161 873 8845,False,False
0dfec9e8-1189-4150-ab86-a5169014fd3f,2963,The Brocket Arms,,38 Mesnes Road,Wigan,Greater Manchester,WN1 2DD,England,Greater Manchester,-2.6344211101532,53.5569305419922,01942 403500,False,False
b485ec12-dbe7-4a44-a481-248255b25afe,6795,The Bull’s Head Hotel,,12 High Street,Manchester,Greater Manchester,M28 3NJ,England,Greater Manchester,-2.39960598945618,53.5240249633789,0161 702 5350,False,False
5b5ba44d-9925-4437-95b8-ae78a370a82c,6738,The Gateway,,882 Wilmslow Road,East Didsbury,Greater Manchester,M20 5PG,England,Greater Manchester,-2.22042107582092,53.4080200195313,0161 438 1700,False,False
4f46451b-7547-40de-9082-9cadfcca58a4,187,The Moon Under Water,,5–7a Market Place,Wigan,Greater Manchester,WN1 1PE,England,Greater Manchester,-2.63171410560608,53.5459060668945,01942 323437,False,False
bccf817a-1713-47ad-8d54-6b3db06e7ba4,2710,The Robert Shaw,,34–40 Market Street,Westhoughton,Greater Manchester,BL5 3AN,England,Greater Manchester,-2.52238488197327,53.5488662719727,01942 844110,False,False
90801235-2c32-4cc2-9ff1-ddd6a1b6720c,6499,The Shay Wake,,2–10 Milnrow Road,Oldham,Greater Manchester,OL2 8EQ,England,Greater Manchester,-2.09305906295776,53.5778350830078,01706 889120,False,False
b8ed98a6-6500-4c75-9cf6-395bf6ae609c,200,The Spinning Mule,,"Unit 2, Nelson Square",Bolton,Greater Manchester,BL1 1JT,England,Greater Manchester,-2.42683005332947,53.5774726867676,01204 533339,False,False
7f9898db-cf0d-4a8f-a619-654777f73e4b,395,The Up Steps Inn,,17–23 High Street,Oldham,Greater Manchester,OL1 3AJ,England,Greater Manchester,-2.11283302307129,53.5422325134277,0161 627 5001,False,False
0ebb6fdf-04e6-4654-8008-d591b69b35d5,174,The Assembly Rooms,,147–153 High Street,Epsom,Surrey,KT19 8EH,England,Surrey,-0.270009011030197,51.332763671875,01372 737290,False,False
5456d707-f9a7-4584-a01a-73283b08bf1a,2009,The Claude du Vall,,77–81 High Street,Camberley,Surrey,GU15 3RB,England,Surrey,-0.743686974048615,51.3371925354004,01276 672910,False,False
217aa454-4e2c-40fc-a4f0-35fec0abc7a6,520,The Edmund Tylney,,30–34 High Street,Leatherhead,Surrey,KT22 8AW,England,Surrey,-0.327455997467041,51.295352935791,01372 362715,False,False
12251829-aa57-4c9d-90fa-3269bcfa12df,131,The George,,2–8 High Street,Staines,Surrey,TW18 4EE,England,Surrey,-0.513365983963013,51.4336547851563,01784 462181,False,False
a3e16a4d-cecb-48fe-9064-4a6e37ee2e1f,194,The Herbert Wells,,51–57 Chertsey Road,Woking,Surrey,GU21 5AJ,England,Surrey,-0.555469989776611,51.3205680847168,01483 722818,False,False
fbf87964-cb79-419d-8d23-ff95291e5e00,5363,The Jack Fairman,,30 Victoria Road,Horley,Surrey,RH6 7PZ,England,Surrey,-0.161763995885849,51.1703491210938,01293 827910,False,False
3ab3b729-5e0c-4278-8228-72217816701c,557,The Jack Phillips,,48–56 High Street,Godalming,Surrey,GU7 1DY,England,Surrey,-0.612217009067535,51.1857109069824,01483 521750,False,False
c9818640-509e-40ea-91e2-f22f4d10dd8f,479,The Oxted Inn,,"Units 1–4, Hoskins Walk",Oxted,Surrey,RH8 9HR,England,Surrey,-0.00475300010293722,51.2574729919434,01883 723440,False,False
b4867cdb-096f-4027-b5c2-991fb57626d0,416,The Rodboro Buildings,,1–10 Bridge Street,Guildford,Surrey,GU1 4RY,England,Surrey,-0.577610015869141,51.2367324829102,01483 306366,False,False
43f95dc2-7a2a-4610-891c-8cfa7f9e0cc2,238,The Sun,,17–21 London Road,Redhill,Surrey,RH1 1LY,England,Surrey,-0.167925000190735,51.2412185668945,01737 766886,False,False
e4f06ff9-59b8-4ed2-95ee-fb34d21db2cd,323,The Back of Beyond,,104–108 Kings Road,Reading,Berkshire,RG1 3BY,England,Berkshire,-0.963423013687134,51.4548301696777,0118 959 5906,False,False
b4b5e241-0b9b-489c-b14a-8327338a14a3,6220,The Bear,,8–10 High Street,Maidenhead,Berkshire,SL6 1QJ,England,Berkshire,-0.717842996120453,51.5230407714844,01628 763030,False,False
c9867ced-3da2-4525-9b67-78663cd47a84,6233,The Hatchet Inn,,12 Market Place,Newbury,Berkshire,RG14 5BD,England,Berkshire,-1.32214105129242,51.4009170532227,01635 277560,False,False
4b13c418-0607-4794-84b8-dba141f75667,527,The Hope Tap,,99–105 Friar Street,Reading,Berkshire,RG1 1EP,England,Berkshire,-0.975386023521423,51.4565391540527,0118 958 2266,False,False
4c8820b7-4158-48de-b578-d33dd02d2638,4424,The King and Castle,,15–16 Thames Street,Windsor,Berkshire,SL4 1PL,England,Berkshire,-0.608678996562958,51.4836578369141,01753 625120,False,False
f7cbc253-3d7e-4142-b54c-06cf995b364b,142,The Moon and Spoon,,86–88 High Street,Slough,Berkshire,SL1 1EL,England,Berkshire,-0.595761001110077,51.5095672607422,01753 531650,False,False
e8d4b88e-c6a5-40e4-94f7-a9dd29aabd5a,65,The Old Manor,,Grenville Place,Bracknell,Berkshire,RG12 1BP,England,Berkshire,-0.745365977287292,51.4165687561035,01344 304490,False,False
67641f48-2e47-4369-a93d-6bf7f0b1c06c,4309,The Windlesora,,17 William Street,Windsor,Berkshire,SL4 1BB,England,Berkshire,-0.610499024391174,51.4804077148438,01753 754050,False,False
7f5fe37d-437f-4e89-b666-c10f48364519,6209,The Bank House,,15–21 Clarence Street,Cheltenham,Gloucestershire,GL50 3JL,England,Gloucestershire,-2.0758581161499,51.9008941650391,01242 240940,False,False
6ab14d84-eb14-40f6-9805-4563c6a4951b,7102,The Lord High Constable of England,,"Llanthony Warehouse, Llanthony Road, Gloucester Docks",Gloucester,Gloucestershire,GL1 2EH,England,Gloucestershire,-2.25314688682556,51.8617095947266,01452 302890,False,False
843049ae-ab7a-4ac8-ac1c-8f0f35780a19,683,The Lord John,,15–17 Russell Street,Stroud,Gloucestershire,GL5 3AA,England,Gloucestershire,-2.21812510490417,51.7447929382324,01453 767610,False,False
49a7988c-629e-41e6-bd22-01e4d23346ba,778,The Moon Under Water,,16–28 Bath Road,Cheltenham,Gloucestershire,GL53 7HA,England,Gloucestershire,-2.07248306274414,51.8975219726563,01242 583945,False,False
6ca85b13-d5b0-4cac-b59f-aaf894f97877,224,The Regal,,33 St Aldate Street,Gloucester,Gloucestershire,GL1 1RP,England,Gloucestershire,-2.24272203445435,51.8658103942871,01452 332344,False,False
b1d2c1b0-649f-4c46-8aae-3f572f769b00,5484,The Royal Hop Pole,,94 Church Street,Tewkesbury,Gloucestershire,GL20 5RS,England,Gloucestershire,-2.15858602523804,51.9919548034668,01684 278670,False,False
146c2d76-4560-44fc-80d8-0a387aba3d57,6491,Thorn’s Farm,,11–17 South Parade,Yate,Gloucestershire,BS37 4BB,England,Gloucestershire,-2.41325998306274,51.5392570495605,01454 272500,False,False
7679ebf0-0814-4079-b2e3-f7d796d5b15b,6583,The Beehive,,"Before Security, South Terminal, Gatwick Airport",Crawley,West Sussex,RH6 0NQ,England,West Sussex,-0.1630489975214,51.1559906005859,01293 505802,False,True
e427743a-29af-42a4-9068-ed93b4d61ca5,237,The Dolphin & Anchor,,West Street,Chichester,West Sussex,PO19 1QD,England,West Sussex,-0.779968023300171,50.8366775512695,01243 790280,False,False
76650299-4151-4030-85f5-2dad008d5a82,5785,The Flying Horse,,"After Security, South Terminal, Gatwick Airport",Crawley,West Sussex,RH6 0NN,England,West Sussex,-0.1630489975214,51.1559906005859,01293 503151,False,True
c97f0336-7dc6-402b-b90a-1e97211ec081,534,The George Inn,,14–18 Surrey Street,Littlehampton,West Sussex,BN17 5BG,England,West Sussex,-0.543730020523071,50.8091316223145,01903 739863,False,False
253e8db2-9631-40c2-b604-e8be06561151,217,The Hatter’s Inn,,2–10 Queensway,Bognor Regis,West Sussex,PO21 1QT,England,West Sussex,-0.675539970397949,50.7831764221191,01243 840206,False,False
09df2aaa-9ae2-4dc8-be2e-9e4339ca341b,206,The Jubilee Oak,,6 Grand Parade,Crawley,West Sussex,RH10 1BU,England,West Sussex,-0.190368995070457,51.1153831481934,01293 565335,False,False
6438727d-1cf7-4448-a105-19bc1cf3b838,586,The Lynd Cross,,St John’s House,Horsham,West Sussex,RH12 2PG,England,West Sussex,-0.332293003797531,51.0636253356934,01403 272393,False,False
9a567851-d9ab-45c5-a17d-085e5ec4d797,2873,The Ounce & Ivy Bush,,The Atrium,East Grinstead,West Sussex,RH19 3DJ,England,West Sussex,-0.00877299997955561,51.1264762878418,01342 335130,False,False
5fbe8f22-6245-45a4-924d-a10467e19fb0,19,The Red Lion,,"After Security, North Terminal, Gatwick Airport",Crawley,West Sussex,RH6 0PJ,England,West Sussex,-0.179121002554893,51.1613006591797,01293 569874,False,True
b32f09fd-a4b6-44c3-af14-24bdd61c7dbd,6946,The Six Gold Martlets,,49–51 Church Walk,Burgess Hill,West Sussex,RH15 9BQ,England,West Sussex,-0.131754994392395,50.9562034606934,01444 231250,False,False
8ef30fda-ac77-4098-a717-64841e748f40,6307,The Three Fishes,,56 Chapel Road,Worthing,West Sussex,BN11 1BE,England,West Sussex,-0.370705991983414,50.813289642334,01903 288640,False,False
38061a65-d4df-4be9-be7d-199b224f956a,222,The Berkeley,,15–19 Queens Road,Bristol,Bristol,BS8 1QE,England,Bristol,-2.60520792007446,51.455867767334,0117 927 9550,False,False
aa79e08b-937f-4bb9-83b6-3cf91d88947a,183,The Commercial Rooms,,43–45 Corn Street,Bristol,Bristol,BS1 1HT,England,Bristol,-2.59442806243896,51.4544525146484,0117 927 9681,False,False
74e3dff6-5a1d-47ef-b022-3a16260d6dd3,6644,The Jolly Sailor,,High Street,Bristol,Bristol,BS15 3DQ,England,Bristol,-2.5171639919281,51.4491958618164,0117 947 4010,False,False
86b6d49c-fe86-4b50-99e8-de246923ab82,609,The Kingswood Colliers,,94–96 Regent Street,Bristol,Bristol,BS15 8HP,England,Bristol,-2.50689291954041,51.4623870849609,0117 967 2247,False,False
019f2169-981e-4dd1-98fe-6b64f6a0cfa6,2703,The Knights Templar,,1 The Square,Bristol,Bristol,BS1 6DG,England,Bristol,-2.58206391334534,51.4508285522461,0117 930 8710,False,False
9f20ccc3-fc99-41b5-8c44-8f91b125d452,456,The Robert Fitzharding,,24 Cannon Street,Bristol,Bristol,BS3 1BN,England,Bristol,-2.60094308853149,51.4411277770996,0117 966 2757,False,False
928f2416-2987-4d87-b6d0-d2ec5ff7fd70,640,The Staple Hill Oak,,84–86 High Street,Bristol,Bristol,BS16 5HN,England,Bristol,-2.51011800765991,51.4811935424805,0117 956 8543,False,False
91aee720-7cdd-4516-b774-7e14ae280b8e,559,The Van Dyck Forum,,748–756 Fishponds Road,Bristol,Bristol,BS16 3UA,England,Bristol,-2.53028893470764,51.4796600341797,0117 965 1337,False,False
cf4e3b73-de34-4286-ba18-caad3719e762,6907,The W. G. Grace,,71–73 Whiteladies Road,Bristol,Bristol,BS8 2NT,England,Bristol,-2.60874891281128,51.4628601074219,0117 946 9780,False,False
de5305df-de50-42d2-9c29-f449bd4d0067,2473,V-Shed,,The Waterfront,Bristol,Bristol,BS1 5UH,England,Bristol,-2.59874892234802,51.449836730957,0117 952 9950,False,False
2be3d513-8fe2-4fd6-aa5d-e3f4c592dab5,5326,The Bishops’ Mill,,Walkergate Leisure,Durham,County Durham,DH1 1WA,England,County Durham,-1.57528603076935,54.7779541015625,0191 370 8510,False,False
990b204c-9155-44b5-8330-cf6adf36ff59,540,The Company Row,,The Victoria Centre,Consett,County Durham,DH8 5BQ,England,County Durham,-1.83078694343567,54.8520393371582,01207 585600,False,False
b1208d98-ef2c-4830-add6-59243023970b,4197,The Five Quarter,,"Units 3b–3c, Hailsham Place",Peterlee,County Durham,SR8 1AB,England,County Durham,-1.33272504806519,54.7582359313965,0191 518 5880,False,False
c1f70eac-01b9-4c9e-a262-5aa09e1c44bc,6040,The Grand Electric Hall,,2 Cheapside,Spennymoor,County Durham,DL16 6DJ,England,County Durham,-1.60023903846741,54.6996192932129,01388 825470,False,False
8049b37b-d809-4330-a9c6-4a8fa4cb9fc4,7043,The Half Moon Inn,,"Unit 1, 11–21 West Precinct",Billingham,County Durham,TS23 2NW,England,County Durham,-1.29410195350647,54.6073799133301,01642 555629,False,False
b96e47ad-a0e2-492b-b74f-2b0ea349fbd3,6530,The Hat and Feathers,,57–59 Church Street,Seaham,County Durham,SR7 7HF,England,County Durham,-1.3336089849472,54.8370590209961,0191 513 3040,False,False
e63194f6-d64b-4675-8512-fcc7bea379c9,6906,The Highland Laddie,,59 High Street,Norton,County Durham,TS20 1AQ,England,County Durham,-1.31072103977203,54.5877799987793,01642 539570,False,False
d708cd93-018f-4dda-8a0b-a56335cb7a32,6687,The Horse Shoe Inn,,4 Church Street,Crook,County Durham,DL15 9BG,England,County Durham,-1.74310004711151,54.715015411377,01388 744980,False,False
e96bc1e6-1859-49b0-8f7d-028c81d7dd07,5268,The Stanley Jefferson,,5 Market Place,Bishop Auckland,County Durham,DL14 7NJ,England,County Durham,-1.67308795452118,54.6653022766113,01388 452830,False,False
8c6e3d72-2135-4bab-a056-f2da4148dbe8,302,The Tanners Hall,,63–64 Skinnergate,Darlington,County Durham,DL3 7LL,England,County Durham,-1.5572350025177,54.5255813598633,01325 369939,False,False
3319b302-8c7d-442a-97cc-de079ec1a31b,303,The Thomas Sheraton,,4 Bridge Road,Stockton-on-Tees,County Durham,TS18 1BH,England,County Durham,-1.31290602684021,54.5613899230957,01642 606134,False,False
ac3071bd-3ede-462d-918b-b6ac5ca2905d,5115,The Ward Jackson,,3–9 Church Square,Hartlepool,County Durham,TS24 7EU,England,County Durham,-1.20862102508545,54.6856651306152,01429 850140,False,False
b2f99cd4-70dd-4cc3-a8cd-2e11dd4a2b1f,1423,The Water House,,65 North Road,Durham,County Durham,DH1 4SQ,England,County Durham,-1.58109998703003,54.7772331237793,0191 370 6540,False,False
63ea3f58-5cd8-49d2-8ab2-5e8c7226819a,6261,The Wicket Gate,,193 Front Street,Chester-le-Street,County Durham,DH3 3AX,England,County Durham,-1.57339096069336,54.8521385192871,0191 387 2960,False,False
5ce21f9f-44af-480a-910e-6841cf1e346c,4114,The William Stead,,8 Crown Street,Darlington,County Durham,DL1 1LU,England,County Durham,-1.55260705947876,54.5255737304688,01325 341440,False,False
bebb618b-8bf0-4a79-82f8-7cc63cfa828a,6476,The Blackwater Stream,,180 Lower Blandford Road,Poole,Dorset,BH18 8DP,England,Dorset,-1.99342799186707,50.7593612670898,01202 642580,False,False
6680540b-e128-4eca-9ccb-1aba94e4d7b6,911,The Greyhound,,2 East Street,Bridport,Dorset,DT6 3LF,England,Dorset,-2.75789904594421,50.7334976196289,01308 421905,False,False
258cba1d-a4c6-401a-b740-3a7ad0ada1e5,1412,The Lord Wimborne,,59 Lagland Street,Poole,Dorset,BH15 1QD,England,Dorset,-1.98263502120972,50.7165298461914,01202 493290,False,False
bedf1878-720a-45d1-bc56-c8b71e9e459e,6269,The Man in the Wall,,10 West Borough,Wimborne,Dorset,BH21 1NF,England,Dorset,-1.98834705352783,50.8008270263672,01202 639800,False,False
98520d28-0345-473a-9a37-f58575af1025,6009,The Mary Shelley,,The Quadrant Centre,Bournemouth,Dorset,BH1 2AD,England,Dorset,-1.87609994411469,50.7206382751465,01202 786510,False,False
d418ca4b-0cd8-46e7-8eb0-0858076d4153,164,The Moon in the Square,,4–8 Exeter Road,Bournemouth,Dorset,BH2 5AQ,England,Dorset,-1.88049399852753,50.7180633544922,01202 652090,False,False
50f96ce8-482f-4dc9-b471-137fb3467e1b,825,The Nightjar,,94 Victoria Road,Ferndown,Dorset,BH22 9JA,England,Dorset,-1.89066505432129,50.8033714294434,01202 855572,False,False
80c1701d-991d-4a54-873a-3b903526b436,5570,The Parkstone and Heatherlands,,433–437 Wimborne Road,Bournemouth,Dorset,BH9 2AN,England,Dorset,-1.87856805324554,50.7433547973633,01202 853020,False,False
a6e1a5bb-2cad-40d6-906c-2ea4436dd1f7,5314,The Quay,,21 The Quay,Poole,Dorset,BH15 1HJ,England,Dorset,-1.98652994632721,50.7122077941895,01202 664380,False,False
388a5368-3bde-41d8-bde1-384b785a9b92,1548,The Royal Oak,,21–22 High West Street,Dorchester,Dorset,DT1 1UW,England,Dorset,-2.43914294242859,50.7151870727539,01305 755910,False,False
184bd35c-8976-4254-ac2e-422df71fc924,475,The Swan,,41–43 St Thomas Street,Weymouth,Dorset,DT4 8EH,England,Dorset,-2.45510601997375,50.6081352233887,01305 750231,False,False
b2237c25-9a2e-445b-aeba-fa5bad90b46d,6016,The William Henry,,1 Frederick Place,Weymouth,Dorset,DT4 8HQ,England,Dorset,-2.4542601108551,50.611572265625,01305 763730,False,False
d8dc2b42-0b00-42f9-ab2b-fb446e4d76b9,4243,The Bransty Arch,,Bransty Row,Whitehaven,Cumbria,CA28 7XE,England,Cumbria,-3.58717489242554,54.5509376525879,01946 517640,False,False
6a716b89-b132-446a-98e8-09b6ee6da562,6890,The Chief Justice of the Common Pleas,,2 Bank Street,Keswick,Cumbria,CA12 5JY,England,Cumbria,-3.13789796829224,54.6019096374512,01768 773561,False,False
1fe539ee-dbe2-4138-aa82-961df080604e,6748,The Dog Beck,,21–22 Southend Road,Penrith,Cumbria,CA11 8JH,England,Cumbria,-2.75030398368835,54.6618423461914,01768 840491,False,False
8da9fde1-7b5d-413e-9fd6-994df09a22d5,516,The Furness Railway,,76–80 Abbey Road,Barrow-in-Furness,Cumbria,LA14 5UB,England,Cumbria,-3.22795391082764,54.1157760620117,01229 820818,False,False
59307c25-5318-4d34-964d-702c875836db,1795,The Henry Bessemer,,New Oxford Street,Workington,Cumbria,CA14 2NA,England,Cumbria,-3.54804491996765,54.6430778503418,01900 734650,False,False
5e7114bc-706b-42b9-b649-c96fe5c23841,2718,The Miles Thompson,,"Council Offices, Allhallows Lane",Kendal,Cumbria,LA9 4JH,England,Cumbria,-2.74854898452759,54.3267517089844,01539 815710,False,False
8a4ab3ce-f92b-4766-832c-47243bad034a,4365,The William Rufus,,10–16 Botchergate,Carlisle,Cumbria,CA1 1QS,England,Cumbria,-2.93191695213318,54.8913192749023,01228 633160,False,False
e53f4f64-30f8-4241-b6df-8d4bfb7d6593,470,Woodrow Wilson,,48 Botchergate,Carlisle,Cumbria,CA1 1QS,England,Cumbria,-2.93070507049561,54.890754699707,01228 819942,False,False
203ef53b-ea82-47cf-a207-d430f3c7b156,7295,The Bull and Stirrup Hotel,,The Bull and Stirrup Hotel,Chester,Cheshire,CH1 4EE,England,Cheshire,-2.8931679725647,53.1943130493164,01244 394840,False,False
3fb13568-9cc4-419a-aedc-23190c307d81,1617,The Calverts Court,,13 St Petersgate,Stockport,Cheshire,SK1 1EB,England,Cheshire,-2.15764498710632,53.4103317260742,0161 474 6750,False,False
a28cc9fa-8c32-4895-bc27-46ca360d29fa,632,The Counting House,,18 Swan Bank,Congleton,Cheshire,CW12 1AH,England,Cheshire,-2.21467089653015,53.1637840270996,01260 272654,False,False
2afc2aaa-8bea-46fa-aa50-8fdffb530282,4254,The Ferry Boat,,10 Church Street,Runcorn,Cheshire,WA7 1LR,England,Cheshire,-2.73158597946167,53.3421516418457,01928 583380,False,False
0629a4db-88a2-465c-88f4-45f5b3e9f805,434,The Friar Penketh,,4 Barbauld Street,Warrington,Cheshire,WA1 1EX,England,Cheshire,-2.59343600273132,53.3871612548828,01925 237320,False,False
b47bd196-4eaa-4cbd-829b-0a66deae4c9d,7090,The George Inn,,39 High Street,Sandbach,Cheshire East,CW11 1AL,England,Cheshire,-2.3621780872345,53.1433448791504,01270 758180,False,False
d1dcd867-f0cf-4692-b223-40282af75697,6862,The Kingfisher,,London Road South,Poynton,Cheshire,SK12 1NJ,England,Cheshire,-2.12403106689453,53.3464851379395,01625 870990,False,False
53629444-5b4b-4dba-9a91-a30a761103bf,418,The Penny Black,,110 Witton Street,Northwich,Cheshire,CW9 5AB,England,Cheshire,-2.50853610038757,53.2622032165527,01606 42029,False,False
ddd7555b-3ae2-4780-a101-96f38b8d9403,1970,The Premier,,93–99 Albert Road,Widnes,Cheshire,WA8 6JS,England,Cheshire,-2.72438311576843,53.3703994750977,0151 422 4920,False,False
24096ec3-04a4-4a05-84d7-b8d218d6d232,4260,The Queens Arms,,Dene Drive,Winsford,Cheshire,CW7 1AT,England,Cheshire,-2.53020405769348,53.1913108825684,01606 595350,False,False
bb8c8201-d35e-41f1-89e3-c57d58433402,1635,The Society Rooms,,Park Green,Macclesfield,Cheshire,SK11 7NA,England,Cheshire,-2.12435603141785,53.2564582824707,01625 507320,False,False
cdc53ed3-118e-434a-8369-2677cd1a1707,4079,The Society Rooms,,49–51 Grosvenor Street,Stalybridge,Cheshire,SK15 2JN,England,Cheshire,-2.05767393112183,53.4812812805176,0161 338 9740,False,False
986e1809-cd8d-43cb-8f49-6911422b98fe,209,The Square Bottle,,78–92 Foregate Street,Chester,Cheshire,CH1 1HB,England,Cheshire,-2.8842658996582,53.1914672851563,01244 312281,False,False
92b2f157-579f-4545-9777-5b545f989d57,1632,The Unicorn,,1–7 Ashley Road,Altrincham,Cheshire,WA14 2DP,England,Cheshire,-2.35202693939209,53.3841590881348,0161 926 4610,False,False
65be897f-4019-463c-9125-99e416cc9ace,2923,The Wheatsheaf,,43 Overpool Road,Ellesmere Port,Cheshire,CH66 3LN,England,Cheshire,-2.92320799827576,53.2828521728516,0151 356 7454,False,False
4cd16299-d87f-46a2-8b95-0eaebf9e909f,6345,The Wilfred Wood,,204 London Road,Stockport,Cheshire,SK7 4DF,England,Cheshire,-2.12047100067139,53.3794441223145,0161 419 2440,False,False
194aa051-1155-41ed-8396-40627dc4f204,7122,The Captain Noel Newton,,55 High Street,Oakham,Rutland,LE15 6AJ,England,Rutland,-0.731175005435944,52.670093536377,01572 725490,False,False
18736915-7517-4d13-a3b4-647cb5aff30c,2367,The Catherine Wheel,,7–15 Hart Street,Henley-on-Thames,Oxfordshire,RG9 2AR,England,Oxfordshire,-0.904075980186462,51.537712097168,01491 848488,False,False
073a68dd-bdb1-4a8f-a124-874956c97dc1,6612,The Company of Weavers,,31 Market Square,Witney,Oxfordshire,OX28 6AD,England,Oxfordshire,-1.48490798473358,51.7836036682129,01993 777930,False,False
9ce471dd-6c5a-4a49-bdde-9934da4e9955,258,The Exchange,,49–50 High Street,Banbury,Oxfordshire,OX16 5LA,England,Oxfordshire,-1.33877003192902,52.0605545043945,01295 259035,False,False
f12107a2-d708-43fd-a5f6-25a361a64f2e,6019,The Four Candles,,51–53 George Street,Oxford,Oxfordshire,OX1 2BE,England,Oxfordshire,-1.26211404800415,51.7534446716309,01865 263110,False,False
7105c47a-30d9-4aeb-9698-2b6ed47d61f7,5779,The Narrows,,25 High Street,Abingdon-on-Thames,Oxfordshire,OX14 5AA,England,Oxfordshire,-1.28344297409058,51.6701774597168,01235 467680,False,False
8c3a8135-427d-4b6f-88ec-fbb844b0ab91,556,The Penny Black,,58 Sheep Street,Bicester,Oxfordshire,OX26 6JW,England,Oxfordshire,-1.15171301364899,51.8988151550293,01869 321535,False,False
4ba2a4c9-3cde-4b30-89d3-c1049d4fdee8,6191,The Swan & Castle,,Castle Street,Oxford,Oxfordshire,OX1 1AY,England,Oxfordshire,-1.26156997680664,51.7510986328125,01865 260690,False,False
3808f3f5-38fc-4262-8819-e1bb4e41e83d,4469,The William Morris,,59a Between Towns Road,Oxford,Oxfordshire,OX4 3LR,England,Oxfordshire,-1.21760201454163,51.7323455810547,01865 335950,False,False
86b2c033-ee70-4f9c-81f1-a4babc37eb15,6617,The Cooper Rose,,2–4 Albion Place,Sunderland,Tyne and Wear,SR1 3NG,England,Tyne and Wear,-1.38790094852448,54.9034080505371,0191 514 8530,False,False
508b14db-6ffb-405e-92f3-e4a1234d1e94,1752,The Fire Station,,18 York Road,Whitley Bay,Tyne and Wear,NE26 1AB,England,Tyne and Wear,-1.44507598876953,55.0425148010254,0191 293 9030,False,False
07165170-a5db-471e-8226-43280ce9897b,6367,The Five Swans,,14 St Marys Place,Newcastle upon Tyne,Tyne and Wear,NE1 7PG,England,Tyne and Wear,-1.61177003383636,54.9777984619141,0191 211 1140,False,False
6050864c-6edd-4f81-9307-37496bbb046d,6866,The Harry Clasper,,Front Street,Whickham,Tyne and Wear,NE16 4HF,England,Tyne and Wear,-1.6733570098877,54.9458656311035,0191 488 3418,False,False
a580be34-a88e-41b0-952a-5e2b14bbc471,6777,The High Main,,63 Shields Road,Newcastle upon Tyne,Tyne and Wear,NE6 1DL,England,Tyne and Wear,-1.58425605297089,54.9767417907715,0191 228 4900,False,False
8293c1ee-cc01-4c5c-8b57-3ae9f80d0831,2341,The Job Bulman,,St Nicholas Avenue,Newcastle upon Tyne,Tyne and Wear,NE3 1AA,England,Tyne and Wear,-1.6193699836731,55.004768371582,0191 223 6320,False,False
d7bf1270-0488-497f-9336-7395c1fa5f4a,5126,The Keel Row,,"Unit G3, Ground Floor, The Gate Cinema Complex",Newcastle upon Tyne,Tyne and Wear,NE1 5RF,England,Tyne and Wear,-1.61760699748993,54.9725189208984,0191 229 9430,False,False
9447206b-39c5-4987-a769-46cbd0df7759,6180,The Mile Castle,,19–25 Westgate Road & Grainger Street,Newcastle upon Tyne,Tyne and Wear,NE1 5XU,England,Tyne and Wear,-1.61651802062988,54.9700698852539,0191 211 1160,False,False
3e90962d-b721-4e11-95a8-d1a1ffa29cf1,1810,The Quayside,,35–37 The Close,Newcastle upon Tyne,Tyne and Wear,NE1 3RN,England,Tyne and Wear,-1.61052894592285,54.967658996582,0191 211 1050,False,False
ebaf4974-1f1e-4203-ba82-bb3daa34b7ea,7134,The Ritz,,87–93 High Street West,Wallsend,Tyne and Wear,NE28 8JD,England,Tyne and Wear,-1.53699600696564,54.9905014038086,0191 296 9600,False,False
6cd576b4-94ff-42d2-8f2f-ce855b72fd30,1893,The Sir William de Wessyngton,,2–3 Victoria Road,Washington,Tyne and Wear,NE37 2SY,England,Tyne and Wear,-1.52299201488495,54.9126586914063,0191 418 0100,False,False
7e7f00a9-69f5-4eac-b545-b51c271d9765,6132,The Tilley Stone,,Unit 9–10 Jackson Street,Gateshead,Tyne and Wear,NE8 1EE,England,Tyne and Wear,-1.60218894481659,54.9617385864258,0191 478 0060,False,False
1c740bef-380d-47ad-956b-82704b1423a8,6513,The Wild Boar,,Frederick Place,Houghton-le-Spring,Tyne and Wear,DH4 4BN,England,Tyne and Wear,-1.46919894218445,54.8434104919434,0191 512 8050,False,False
17c15f80-808c-4209-bef3-4a723a8ca8c0,370,The William Jameson,,30–32 Fawcett Street,Sunderland,Tyne and Wear,SR1 1RH,England,Tyne and Wear,-1.38105201721191,54.9046249389648,0191 514 5016,False,False
9c840305-5ed4-4f94-9a8d-50eb6fa01061,319,The Wouldhave,,16 Mile End Road,South Shields,Tyne and Wear,NE33 1TA,England,Tyne and Wear,-1.43338203430176,54.9999351501465,0191 427 6014,False,False
1ae3bf15-4b50-4cba-96c7-bb8c7c642624,646,Wetherspoons,,85 Russell Way,Gateshead,Tyne and Wear,NE11 9YP,England,Tyne and Wear,-1.66855502128601,54.9576416015625,0191 460 5073,False,False
1c250923-f944-4a7f-9f70-912ab95866c1,6158,The Cordwainer,,The Ridings,Northampton,Northamptonshire,NN1 2AQ,England,Northamptonshire,-0.892702996730804,52.2379455566406,01604 609000,False,False
7c40775b-478e-40ec-8066-3a9b7238124c,449,The Earl of Dalkeith,,13–15 Dalkeith Place,Kettering,Northamptonshire,NN16 0BS,England,Northamptonshire,-0.725817978382111,52.3993873596191,01536 312589,False,False
2cc09b6d-9fbc-4831-9da8-46c44ea3f365,6484,The Railway Inn,,143 High Street,Rushden,Northamptonshire,NN10 0PA,England,Northamptonshire,-0.599041998386383,52.2930717468262,01933 414990,False,False
d6c28e12-0507-4741-87fb-767d59c61290,334,The Red Well,,16 Silver Street,Wellingborough,Northamptonshire,NN8 1BD,England,Northamptonshire,-0.695286989212036,52.3016738891602,01933 440845,False,False
d1963bd4-f064-4b0c-b422-ed10de04b878,5385,The Samuel Lloyd,,Rockingham Park,Corby,Northamptonshire,,England,Northamptonshire,-0.706019997596741,52.5075454711914,01536 447910,False,False
5bbd3601-ec0f-4c5d-910e-1eef33de4cd3,2890,The Saracens Head Inn,,1 Brook Street,Daventry,Northamptonshire,NN11 4GG,England,Northamptonshire,-1.16451501846313,52.2576675415039,01327 314800,False,False
e8168a49-13db-4e0c-8928-1eacb3070c87,5811,The Saxon Crown,,100 Elizabeth Street,Corby,Northamptonshire,NN17 1FN,England,Northamptonshire,-0.69931697845459,52.4870567321777,01536 203672,False,False
cd5561b1-174c-4e48-8cd1-f77acf6de714,7243,The Crown Hotel,,23 High Street	,Biggleswade,Bedfordshire,SG18 0JE,England,Bedfordshire,-0.264905005693436,52.0869064331055,01767 310510,False,False
e16d582c-eb9f-4f01-90e6-adbd9980336a,5639,The Gary Cooper,,"Unit 2, Grove Park",Dunstable,Bedfordshire,LU5 4GP,England,Bedfordshire,-0.521185994148254,51.8897018432617,01582 471452,False,False
b3fe5927-b39c-4ac0-b7c4-a4d164fc0f87,474,The Pilgrim’s Progress,,42 Midland Road,Bedford,Bedfordshire,MK40 1QB,England,Bedfordshire,-0.471718013286591,52.1360206604004,01234 363751,False,False
83901c3d-55fe-43bd-80de-0d4e1839fb03,5805,The Swan Hotel,,50 High Street,Leighton Buzzard,Bedfordshire,LU7 1EA,England,Bedfordshire,-0.663266003131866,51.915843963623,01525 380170,False,False
8a8ad7e4-fe0c-41b2-aef4-e468aae0612c,168,The White House,,1 Bridge Street,Luton,Bedfordshire,LU1 1SA,England,Bedfordshire,-0.418471992015839,51.8817024230957,01582 454608,False,False
6e9ad1f1-2fe7-4f0e-8db7-0efee681577e,5509,The Crown Rivers,,"After Security, Terminal 5, Heathrow Airport",Hounslow,Middlesex,TW6 2GA,England,Middlesex,-0.487401008605957,51.473819732666,020 8283 6208,False,True
34fca276-240d-42a1-b933-e5ddb94b0b3f,24,The Moon Under Water,,115–117 Chase Side,Enfield,Middlesex,EN2 6NN,England,Middlesex,-0.0877590030431747,51.6587829589844,020 8366 9855,False,False
caa512ab-6698-43a5-a5ea-28db2b4c6d6e,5499,The Duke’s Head,,Corn Square,Leominster,Herefordshire,HR6 8LR,England,Herefordshire,-2.73797297477722,52.2271728515625,01568 618170,False,False
71b7a923-f1d1-4bc8-8b74-1651b7355e4c,1869,The Kings Fee,,49–53 Commercial Road,Hereford,Herefordshire,HR1 2BJ,England,Herefordshire,-2.71056199073792,52.0583038330078,01432 373240,False,False
10de4def-1a39-4b17-a8ca-61cf882e66e9,1469,The Mail Rooms,,Gloucester Road,Ross-on-Wye,Herefordshire,HR9 5BS,England,Herefordshire,-2.5820689201355,51.913818359375,01989 760920,False,False
b6542716-ee57-46af-a9d3-2674855a63f8,1331,The Bridge House,,35–43 Bedford Street,Belfast,County Antrim,BT2 7EJ,N Ireland,County Antrim,-5.93180799484253,54.5930137634277,028 9072 7890,False,False
942147d0-79c6-44b6-8bff-cdd9bcbe43ac,2245,The Central Bar,,13–15 High Street,Carrickfergus,County Antrim,BT38 7AN,N Ireland,County Antrim,-5.80639886856079,54.7145919799805,028 9335 7840,False,False
6f37d8a5-e7db-4358-bf67-b542db50cb44,2248,The Tuesday Bell,,4 Lisburn Square,Lisburn,County Antrim,BT28 1TS,N Ireland,County Antrim,-6.04663610458374,54.5102233886719,028 9262 7390,False,False
cb69ec05-ba7b-47b7-a7bc-33e434d35692,2396,The Spirit Merchant,,54–56 Regent Street,Newtownards,County Down,BT23 4LP,N Ireland,County Down,-5.70126914978027,54.5943374633789,028 9182 4270,False,False
561ea5ca-f126-4ccc-961e-63cc0f6cc2c0,7387,An Geata Arundel ,,9 Arundel Square,Waterford,County Waterford,X91 RD35,Republic of Ireland,County Waterford,-7.11121463775635,52.260368347168,,False,False
c3673de0-59f4-4766-84fc-ef844320bd49,7381,Keavan's Port ,,1–5 Camden Street Upper and 49–51 Camden Street Lower,Dublin,County Dublin,,Republic of Ireland,County Dublin,-6.26533222198486,53.3334655761719,,False,False
923ceac8-f821-45c7-9ac7-105cf78e5fb7,7330,The Forty Foot,,"The Pavilion Centre, Marine Road",Dún Laoghaire,County Dublin,,Republic of Ireland,County Dublin,-6.13364505767822,53.2941436767578,01 231 1926,False,False
0d62f988-fb59-45c6-9b34-b0013cffa925,7299,The Great Wood  ,,Westend Shopping Park,Dublin,County Dublin,,Republic of Ireland,County Dublin,-6.38894176483154,53.3891677856445,01 826 2496,False,False
1c8e69ab-2b16-4688-b8a4-fa57e0e5769c,7278,The Old Borough,,72 Main Street,Swords,County Dublin,,Republic of Ireland,County Dublin,-6.2220721244812,53.4563903808594,+353 1 808 4103,False,False
af041d89-152a-4b6d-8fcf-3ba744fd3e09,7380,The Silver Penny,,12A/12C Abbey Street Lower,Dublin,County Dublin,,Republic of Ireland,County Dublin,-6.25617122650146,53.3490676879883,+353 1 874 6884 ,False,False
2cd212b9-4ac3-455c-ab1e-538c55031bf5,7377,The South Strand ,,1 Hanover Quay	,Dublin,County Dublin	,DO2 E295	,Republic of Ireland,County Dublin,-6.23801326751709,53.3442649841309,01 677 8066  ,False,False
29ab4afe-92e3-4d13-80f6-b30bb925b879,7328,The Linen Weaver,,"Paul Street, Plaza",Cork,County Cork,,Republic of Ireland,County Cork,-8.47450923919678,51.899284362793,+353 21 422 2970,False,False
56e30690-9b83-45c2-b4ea-1e1b0dcc665c,7390,The Tullow Gate,,7 Tullow Street,Carlow,County Carlow,,Republic of Ireland,County Carlow,-6.93136215209961,52.8363342285156,+353 59 914 2432,False,False
3e4ab517-8efb-4079-b947-de4558d3f720,6335,An Ruadh-Ghleann,,40–44 Main Street,Rutherglen,South Lanarkshire,G73 2HY,Scotland,South Lanarkshire,-4.21748399734497,55.8282203674316,0141 613 2370,False,False
aef67ec9-8a5c-4659-9aca-6406734fcb4c,6966,The Hay Stook,,26-36 Princes Avenue,East Kilbride,South Lanarkshire,G74 1JU,Scotland,South Lanarkshire,-4.1775951385498,55.7608184814453,01355 244323,False,False
3e128e01-359c-41f5-92c7-4ab375abb099,5801,The John Fairweather,,52–58 Main Street,Cambuslang,South Lanarkshire,G72 7EP,Scotland,South Lanarkshire,-4.16577386856079,55.8187255859375,0141 646 2411,False,False
5e5b8489-e9f0-4163-834b-a466bd7b2b6a,7164,The Booking Office,,17 Waverley Bridge,Edinburgh,Edinburgh,EH1 1BQ,Scotland,Edinburgh,-3.19050192832947,55.9519157409668,0131 558 1003,False,False
db5c132d-760b-4775-8a3d-94d27cb20663,6183,The Alexander Graham Bell,,128 George Street,Edinburgh,Edinburgh,EH2 4JZ,Scotland,Edinburgh,-3.20533299446106,55.9519958496094,0131 240 8220,False,False
7069905f-b5c2-4d89-ba69-498cdf22c8e7,7248,The Caley Picture House,,31 Lothian Road,Edinburgh,,EH1 2DJ,Scotland,Edinburgh,-3.20625615119934,55.9482345581055,0131 656 0752,False,False
210862f0-c47c-4cc3-8b5a-80edbaa1a2a8,1135,The Foot of the Walk,,183 Constitution Street,Leith,Edinburgh,EH6 7AA,Scotland,Edinburgh,-3.17101192474365,55.9707870483398,0131 553 0120,False,False
a26f4b7f-012e-47ae-9edf-b98d8e7bd626,4312,The Playfair,,Omni Centre,Edinburgh,Edinburgh,EH1 3AJ,Scotland,Edinburgh,-3.18586993217468,55.9564628601074,0131 524 7760,False,False
79515e2b-f23b-4b44-a8c6-92d20467f6f1,6245,The Sir Walter Scott,,Unit C170 After Security,Edinburgh,Edinburgh,EH12 9DN,Scotland,Edinburgh,-3.36294507980347,55.948860168457,0131 348 4243,False,True
09923a2a-cd8b-4bd1-a7e7-f68b7fbbd232,371,The Standing Order,,62–66 George Street,Edinburgh,Edinburgh,EH2 2LR,Scotland,Edinburgh,-3.19970202445984,55.9529762268066,0131 225 4460,False,False
d107fdca-9990-486a-8316-a6841c5a4226,6341,The White Lady,,98 St John’s Road,Edinburgh,Edinburgh,EH12 8AT,Scotland,Edinburgh,-3.28252100944519,55.9429016113281,0131 314 0680,False,False
7d900539-8e16-4732-9374-5190fc044335,5428,Cross Keys,,Back Street,Peterhead,Aberdeen,AB42 1TH,Scotland,Aberdeen,-1.77906095981598,57.5057830810547,01779 483500,False,False
5025c1ff-ec88-4fa8-8d46-8fde9a056028,331,The Archibald Simpson,,5 Castle Street,Aberdeen,Aberdeen,AB11 5BQ,Scotland,Aberdeen,-2.09364199638367,57.1481170654297,01224 621365,False,False
a34d8134-de21-44e4-99fb-c5583260598f,6424,The Gordon Highlander,,West High Street,Inverurie,Aberdeen,AB51 3QQ,Scotland,Aberdeen,-2.37966990470886,57.2848205566406,01467 626780,False,False
5879218e-bb82-4509-84d2-899e127e14f5,2460,The Justice Mill,,423–425 Union Street,Aberdeen,Aberdeen,AB11 6DA,Scotland,Aberdeen,-2.10966992378235,57.143367767334,01224 252410,False,False
6205e3f6-20c5-41c4-b548-5152aca0dd3a,1233,Hunters Hall,,56–58 High Street,Galashiels,Scottish Borders,TD1 1SE,Scotland,Scottish Borders,-2.8110659122467,55.6178894042969,01896 759795,False,False
ffddf746-20d8-460f-8670-001207be8b76,6327,The Bourtree,,22 Bourtree Place,Hawick,Scottish Borders,TD9 9HL,Scotland,Scottish Borders,-2.7836229801178,55.4252662658691,01450 360450,False,False
0a4cb768-9e38-47fd-b665-060d615ce04b,6754,The Cross Keys,,24 Northgate,Peebles,Scottish Borders,EH45 8RS,Scotland,Scottish Borders,-3.18860507011414,55.652702331543,01721 723467,False,False
8b77bd6f-e26c-4b39-ae5a-86ffe7eb9896,6919,Jolly’s Hotel,,43a Gray Street,Broughty Ferry,Dundee City,DD5 2BJ,Scotland,Dundee City,-2.87362289428711,56.466194152832,01382 734910,False,False
e647deeb-07b1-402e-97ac-ba14be2734d6,358,The Counting House,,67–71 Reform Street,Dundee,Dundee City,DD1 1SP,Scotland,Dundee City,-2.97183895111084,56.4620666503906,01382 225251,False,False
e931995f-2615-4711-a6db-6771b25983b1,478,Sir John Stirling Maxwell,,140 Kilmarnock Road,Glasgow,Glasgow,G41 3NN,Scotland,Glasgow,-4.28450918197632,55.8276977539063,0141 636 9024,False,False
04174d51-8140-4619-8934-17d0ff5342da,282,The Counting House,,2 St Vincent Place,Glasgow,Glasgow,G1 2DH,Scotland,Glasgow,-4.25180006027222,55.8610229492188,0141 225 0160,False,False
80b0f2f9-b3d0-43bb-b511-c96fd4cf2ce2,833,The Crystal Palace,,36 Jamaica Street,Glasgow,Glasgow,G1 4QD,Scotland,Glasgow,-4.2573127746582,55.8575172424316,0141 221 2624,False,False
d0aad563-0095-4884-811e-0ced17619559,1660,The Esquire House,,Esquire House,Glasgow,Glasgow,G12 0AU,Scotland,Glasgow,-4.32172393798828,55.8884735107422,0141 341 1130,False,False
0de3a837-5e1c-4875-9796-04c72a98ac98,1903,The Hengler’s Circus,,351–363 Sauchiehall Street,Glasgow,Glasgow,G2 3HU,Scotland,Glasgow,-4.26669979095459,55.8656883239746,0141 331 9810,False,False
a5862c8f-9336-44ce-a790-df49b525f683,2663,The Kirky Puffer,,1–11 Townhead,Glasgow,Glasgow,G66 1NG,Scotland,Glasgow,-4.15458917617798,55.938175201416,0141 775 4140,False,False
fe6a56b5-4ff1-4ea3-b72f-c77a55535d72,5520,The Lord of the Isles,,"Unit 21, Xscape, King’s Inch Road",Glasgow,Glasgow,PA4 8XQ,Scotland,Glasgow,-4.36480093002319,55.8759422302246,0141 886 8930,False,False
33326975-fb67-40bf-918e-cfa2cd9726f9,2151,The Sir John Moore,,260–292 Argyle Street,Glasgow,Glasgow,G2 8QW,Scotland,Glasgow,-4.25987911224365,55.8587493896484,0141 222 1780,False,False
343d3f83-ec16-4364-aaa5-1851e2e0f0a6,2615,The Society Room,,151 West George Street,Glasgow,Glasgow,G2 2JJ,Scotland,Glasgow,-4.25708913803101,55.8622932434082,0141 229 7560,False,False
c92dd2a5-363b-4c60-88f0-fd6175ca1c6f,4117,The Alexander Bain,,Market Place,Wick,Highland,KW1 4LP,Scotland,Highland,-3.09061598777771,58.4423446655273,01955 609920,False,False
c7c42b6c-ab1f-493f-ae30-4458a912df42,6411,The Great Glen,,104 High Street,Fort William,Highland,PH33 6AD,Scotland,Highland,-5.11381006240845,56.8164443969727,01397 709910,False,False
f1ccf4e3-3881-4210-864e-34cfa2583d52,1789,The King’s Highway,,72–74 Church Street,Inverness,Highland,IV1 1EN,Scotland,Highland,-4.22747611999512,57.4795799255371,01463 251830,False,False
d0fd5d0a-2d5d-4034-a4a5-c66c665f6df4,6736,The Auld Brig,,Units 13–15 Rivergate Shopping Centre,Irvine,North Ayrshire,KA12 8EH,Scotland,North Ayrshire,-4.6729907989502,55.6124420166016,01294 277818,False,False
d6f1d5cb-f74e-48b7-b500-04df1d04d7d6,6902,The Paddle Steamer,,The Promenade,Largs,North Ayrshire,KA30 8LX,Scotland,North Ayrshire,-4.86960411071777,55.795093536377,01475 686441,False,False
7b7ce9b4-10c8-4c22-80ab-103f6aedd2ee,943,The Salt Cot,,7 Hamilton Street,Saltcoats,North Ayrshire,KA21 5DS,Scotland,North Ayrshire,-4.78951120376587,55.6337661743164,01294 465924,False,False
ae8227d1-b66c-4b8d-b9e6-606318659c10,6390,The Bobbing John,,46 Drysdale Street,Alloa,Clackmannanshire,FK10 1JL,Scotland,Clackmannanshire,-3.79125094413757,56.1158714294434,01259 222590,False,False
9261deb6-3166-4430-9eef-fb25565e7711,2468,The Brandon Works,,45–61 Merry Street,Motherwell,North Lanarkshire,ML1 1JJ,Scotland,North Lanarkshire,-3.9902560710907,55.7916221618652,01698 210280,False,False
f4711c9d-45ad-468c-81c5-dbbf0605d696,6502,The Carrick Stone,,52 Teviot Walk,Glasgow,North Lanarkshire,G67 1NG,Scotland,North Lanarkshire,-3.98754096031189,55.9486961364746,01236 850260,False,False
f6563b92-087f-4f73-83d6-e9e4735981b1,1014,The Wishaw Malt,,62–66 Kirk Road,Wishaw,North Lanarkshire,ML2 7BL,Scotland,North Lanarkshire,-3.9180600643158,55.774169921875,01698 358806,False,False
fd044d71-c60c-4ba7-8ec8-a48f590f3d12,2959,The Capital Asset,,26 Tay Street,Perth,Perth and Kinross,PH1 5LQ,Scotland,Perth and Kinross,-3.42589497566223,56.3963165283203,01738 580457,False,False
2054a9e0-1860-45ec-a85c-dbd2c0b7a147,6732,The Fair O’Blair,,25–29 Allan Street,Blairgowrie,Perth and Kinross,PH10 6AB,Scotland,Perth and Kinross,-3.33840203285217,56.5926132202148,01250 871890,False,False
6039dc93-9d9b-4bf1-ba62-1360657c6412,7057,The Captain James Lang,,97–99 High Street,Dumbarton,West Dunbartonshire,G82 1LF,Scotland,West Dunbartonshire,-4.57142877578735,55.943229675293,01389 742112,False,False
b675bfaf-a331-4308-8078-7cb45febcc00,2496,The Carron Works,,Bank Street,Falkirk,Stirling and Falkirk,FK1 1NB,Scotland,Stirling and Falkirk,-3.78306698799133,56.0001258850098,01324 673020,False,False
22aa8c3f-4214-436e-b666-dc1668355a29,1044,The Corn Exchange,,Market Place,Arbroath,Angus,DD11 1HR,Scotland,Angus,-2.58233094215393,56.5588417053223,01241 432430,False,False
3eb3bb0f-e5cf-4ce2-83c7-0c6ec90abbc7,5717,The Corryvreckan,,"Unit 1, The Waterfront Centre, Railway Pier
",Oban,Argyll and Bute,PA34 4LW,Scotland,Argyll and Bute,-5.47462797164917,56.4127960205078,01631 568910,False,False
3e508dc3-7b53-45f5-9fd2-237d7573e4f5,6453,The Henry Bell,,19–29 James Street,Helensburgh,Argyll and Bute,G84 8AS,Scotland,Argyll and Bute,-4.73755311965942,56.0040588378906,01436 863060,False,False
c78d6217-bee7-4c9b-81f3-e5a9dde9012b,5648,The Crossed Peels,,8 Spittal Street,Stirling,Stirling,FK8 1AT,Scotland,Stirling,-3.93915104866028,56.1185302734375,01786 460317,False,False
8a3c7e64-ca71-4f5d-9666-9a7001777498,5703,The David Macbeth Moir,,Bridge Street,Musselburgh,East Lothian,EH21 6AG,Scotland,East Lothian,-3.05799198150635,55.9436111450195,0131 653 1060,False,False
103d3d9a-6dde-489a-9bf2-d6657c39e46b,801,The Golden Acorn,,1 North Street,Glenrothes,Fife,KY7 5NA,Scotland,Fife,-3.16762495040894,56.1958618164063,01592 755252,False,False
832bf4e8-a16a-4992-8eaf-4b73918eb196,6198,The Guildhall & Linen Exchange,,79–83 High Street,Dunfermline,Fife,KY12 7DR,Scotland,Fife,-3.46136593818665,56.0713386535645,01383 625960,False,False
53df7401-6ca4-4e9b-a3df-800a5472b9ce,1065,The Robert Nairn,,6 Kirk Wynd,Kirkcaldy,Fife,KY1 1EH,Scotland,Fife,-3.15804696083069,56.1119804382324,01592 205049,False,False
14b30539-dfbb-4ca1-8210-f46a8964995f,625,The James Watt,,80–92 Cathcart Street,Greenock,Inverclyde,PA15 1DD,Scotland,Inverclyde,-4.75362682342529,55.9468078613281,01475 722640,False,False
98e60d3b-67ae-457c-8608-6412a08b43c9,497,The Last Post,,County Square,Paisley,Renfrewshire,PA1 1BN,Scotland,Renfrewshire,-4.42453479766846,55.8466033935547,0141 849 6911,False,False
856a54f8-d7df-43d1-b6fd-4ebd3dfb7b07,797,The Muckle Cross,,34 High Street,Elgin,Moray,IV30 1BU,Scotland,Moray,-3.31246709823608,57.6489067077637,01343 559030,False,False
ebe81895-89a0-407b-b9f5-d76aa56be62f,6266,The Newyearfield,,"Unit 1, Livingston Designer Outlet",Livingston,West Lothian,EH54 6QX,Scotland,West Lothian,-3.51775789260864,55.8825378417969,01506 420770,False,False
f5e15a8b-6899-4092-a9db-0fa463007764,6319,The Prestwick Pioneer,,87 Main Street,Prestwick,South Ayrshire,KA9 1JS,Scotland,South Ayrshire,-4.61078596115112,55.4995384216309,01292 473210,False,False
dab7e4ae-cdd7-406c-a498-6ba3369c6a3d,804,The West Kirk,,58a Sandgate,Ayr,South Ayrshire,KA7 1BX,Scotland,South Ayrshire,-4.63393688201904,55.4629173278809,01292 880416,False,False
821e79fe-fbb2-48db-a94f-1024d1ea3e40,1204,The Robert the Bruce,,81–83 Buccleuch Street,Dumfries,Dumfries and Galloway,DG1 1DJ,Scotland,Dumfries and Galloway,-3.61340808868408,55.0703048706055,01387 270320,False,False
ce154fd0-6008-499b-877e-1a4e93adb4f4,6677,The Saltoun Inn,,Saltoun Square,Fraserburgh,Aberdeenshire,AB43 9DA,Scotland,Aberdeenshire,-2.00546288490295,57.6938591003418,01346 519548,False,False
1ff71370-23fe-43f7-9804-22f2ca031af8,725,The Wheatsheaf Inn,,70 Portland Street,Kilmarnock,East Ayrshire,KA1 1JG,Scotland,East Ayrshire,-4.49701404571533,55.611141204834,01563 572483,False,False
118b53af-5213-436f-906c-d421ee84ee61,6682,Pen Cob,,Station Square,Pwllheli,Gwynedd,LL53 5HG,Wales,Gwynedd,-4.41753387451172,52.8878555297852,01758 704970,False,False
b8c15daf-4435-46db-9b70-633d5619044e,1715,Tafarn Y Porth,,5–9 Eastgate Street,Caernarfon,Gwynedd,LL55 1AG,Wales,Gwynedd,-4.2748007774353,53.1407051086426,01286 662920,False,False
886472c3-b402-49bc-bf72-a58852b201f9,1664,The Black Bull Inn,,107 High Street,Bangor,Gwynedd,LL57 1NS,Wales,Gwynedd,-4.12905979156494,53.2243690490723,01248 387900,False,False
3c9e878f-98d9-434b-bfb4-6aacec895e5d,6259,The Aneurin Bevan,,Caerphilly Road,Cardiff,Cardiff,CF14 4AD,Wales,Cardiff,-3.19985389709473,51.5076141357422,029 2054 4280,False,False
781c3819-a5f5-483e-ac35-66c0be180d97,2042,The Central Bar,,39 Windsor Place,Cardiff,Cardiff,CF10 3BW,Wales,Cardiff,-3.17294788360596,51.483341217041,029 2078 0260,False,False
6e062167-1fab-4b8a-b727-4a25e3c0ce81,754,The Ernest Willows,,2–12 City Road,Cardiff,Cardiff,CF24 3DL,Wales,Cardiff,-3.16561698913574,51.4856834411621,029 2048 6235,False,False
cd7bfcca-9fd6-4ca7-9614-d81f6a55b2a4,1749,The Gatekeeper,,9–10 Westgate Street,Cardiff,Cardiff,CF10 1DD,Wales,Cardiff,-3.18192505836487,51.4801483154297,029 2064 6020,False,False
8e43b23f-9699-41c3-8ee1-7587bfda3d09,5361,The Great Western,,64 St Mary Street,Cardiff,Cardiff,CF10 1FA,Wales,Cardiff,-3.17688989639282,51.4765968322754,029 2035 3990,False,False
aebb3932-1b2d-4e2f-b849-f8e4b3f9c511,750,The Ivor Davies,,243–249 Cowbridge Road East,Cardiff,Cardiff,CF11 9AN,Wales,Cardiff,-3.20031595230103,51.481330871582,029 2066 7615,False,False
d031340e-b5cf-4e92-8bad-515e18138287,6428,The Mount Stuart,,"Landsea House, Stuart Place",Cardiff,Cardiff,CF10 5BU,Wales,Cardiff,-3.16665101051331,51.4627227783203,029 2044 8000,False,False
1f44f247-298d-4303-b4ea-f373ae2ecacf,207,The Prince of Wales,,81–83 St Mary Street,Cardiff,Cardiff,CF10 1FA,Wales,Cardiff,-3.17789793014526,51.4776573181152,029 2064 4449,False,False
580b0375-0167-4510-9031-65d437f1b6fd,749,The Bank Statement,,57–58 Wind Street,Swansea,Swansea,SA1 1EP,Wales,Swansea,-3.94048690795898,51.6193733215332,01792 455477,False,False
fdd775c1-319f-4ebb-afef-b7d19b67d966,6897,The Mardy Inn,,117 High Street,Swansea,Swansea,SA4 4BR,Wales,Swansea,-4.03764486312866,51.6689987182617,01792 890600,False,False
02d9e33b-248f-47ee-8ebd-bf25670f161b,175,The Potters Wheel,,85–86 The Kingsway,Swansea,Swansea,SA1 5JE,Wales,Swansea,-3.94949197769165,51.6192436218262,01792 465113,False,False
87a13201-0963-40b1-a83a-17c6e392187d,6700,The Red Lion Inn,,49 Sway Road,Swansea,Swansea,SA6 6JA,Wales,Swansea,-3.92265391349792,51.6686363220215,01792 761870,False,False
d480755d-6cdc-41c3-9bb9-6e3cf8c2d600,709,The Bears Head,,37–39 Windsor Road,Penarth,Vale of Glamorgan,CF64 1JD,Wales,Vale of Glamorgan,-3.17571306228638,51.4394416809082,029 2070 6424,False,False
e6192e4f-bf37-441e-8445-a5d273ebcf83,5574,The Sir Samuel Romilly,,Romilly Buildings,Barry,Vale of Glamorgan,CF62 7AU,Wales,Vale of Glamorgan,-3.2843930721283,51.398494720459,01446 724900,False,False
74cf0d8a-651d-4b77-a672-2e17aca3db17,5345,The Bell Hanger,,9–10 St Mary Street,Chepstow,Monmouthshire,NP16 5EW,Wales,Monmouthshire,-2.67366003990173,51.6425857543945,01291 637360,False,False
c24ea22c-900d-45ab-848a-05b2b8d274a5,1742,The Coliseum,,Lion Street,Abergavenny,Monmouthshire,NP7 5PE,Wales,Monmouthshire,-3.01921391487122,51.8232269287109,01873 736960,False,False
ce23d3f5-0f60-4e4b-bb3f-37b5018ae9ee,623,The Kings Head,,8 Agincourt Square,Monmouth,Monmouthshire,NP25 3DY,Wales,Monmouthshire,-2.71568393707275,51.8118057250977,01600 710530,False,False
bf9396ce-b438-4760-b989-6e42e50ef8c4,6671,The Black Boy,,31/32 Broad Street,Newtown,Powys,SY16 2BQ,Wales,Powys,-3.31600689888,52.5164031982422,01686 624369,False,False
16f62c94-8c1f-4fea-9509-c8152af3beb4,7401,The George Hotel,,1 George Street,Brecon,Powys,LD3 7LD,Wales,Powys,-3.39117288589478,51.9487228393555,01874 620250,False,False
865c0838-51cc-4002-8e8e-d4584e325da7,5536,The Castle Hotel,,St Peters Square,Ruthin,Denbighshire,LL15 1AA,Wales,Denbighshire,-3.31039810180664,53.1145935058594,01824 708950,False,False
71b88d24-e512-4587-869f-ea005290ecbe,2000,The Sussex,,20–26 Sussex Street,Rhyl,Denbighshire,LL18 1SG,Wales,Denbighshire,-3.49162292480469,53.3210525512695,01745 362910,False,False
23963d0b-e205-49a1-bba4-908af9dcaa35,5815,The Central Hotel,,2–4 Chester Road West,Shotton,Flintshire,CH5 1BX,Wales,Flintshire,-3.03909397125244,53.2122268676758,01244 845510,False,False
4a0ab92a-edae-45c2-9466-12cd27ea7811,2422,The Gold Cape,,8–8a Wrexham Street,Mold,Flintshire,CH7 1ES,Wales,Flintshire,-3.14121508598328,53.166431427002,01352 705920,False,False
9c1acf68-df00-405a-beeb-581840b9ba3e,6445,The Market Cross,,9–11 High Street,Holywell,Flintshire,CH8 7LA,Wales,Flintshire,-3.22279596328735,53.2742004394531,01352 717800,False,False
7a9c627b-fb11-4995-abbe-abbe779bdc44,785,The David Protheroe,,7 Windsor Road,Neath,Neath Port Talbot,SA11 1LS,Wales,Neath Port Talbot,-3.80633807182312,51.6619071960449,01639 622130,False,False
949552b4-3780-4e6d-8dc6-b44e5c63e8fd,729,The Lord Caradoc,,69–73 Station Road,Port Talbot,Neath Port Talbot,SA13 1NW,Wales,Neath Port Talbot,-3.78207111358643,51.5943794250488,01639 896007,False,False
eb281675-de38-430e-9541-b52f6311c998,386,The Elihu Yale,,44–46 Regent Street,Wrexham,Wrexham,LL11 1RR,Wales,Wrexham,-2.99705100059509,53.0470733642578,01978 366646,False,False
e3054f6a-4baa-41a3-8712-6e9420597f05,2394,The North and South Wales Bank,,14 High Street,Wrexham,Wrexham,LL13 8HP,Wales,Wrexham,-2.99184799194336,53.0452079772949,01978 367940,False,False
577e8a8a-3d4a-4d1f-93c5-26f507cf3f38,458,The Godfrey Morgan,,158 Chepstow Road,Newport,Newport,NP19 8EG,Wales,Newport,-2.97842693328857,51.5897827148438,01633 221928,False,False
c5d7b0c8-c243-42b9-8de8-c1f3524a1200,191,The John Wallace Linton,,"Units 10–12, The Cambrian Centre",Newport,Newport,NP20 4AD,Wales,Newport,-2.99805593490601,51.5889587402344,01633 251752,False,False
0cb4a8c7-99c6-4733-a73d-829a2254754a,5195,The John Fielding,,1 Caradoc Road,Cwmbran,Torfaen,NP44 1PP,Wales,Torfaen,-3.02056789398193,51.655403137207,01633 833760,False,False
211b8ebf-40a4-46f3-a503-645318845969,6372,The Malcolm Uphill,,87–91 Cardiff Road,Caerphilly,Caerphilly,CF83 1FQ,Wales,Caerphilly,-3.21979403495789,51.572208404541,029 2076 0720,False,False
11f54815-2619-47ed-85d2-1479a0c659a1,1381,The Sirhowy,,61–63 High Street,Blackwood,Caerphilly,NP12 1BA,Wales,Caerphilly,-3.19552707672119,51.6693229675293,01495 226374,False,False
fd0a67de-3334-4917-96ee-87f332a94721,1762,The Olympia,,Morgan Street,Tredegar,Blaenau Gwent,NP22 3ND,Wales,Blaenau Gwent,-3.24515104293823,51.7711639404297,01495 712910,False,False
010e0adf-d0e3-4690-a605-f3e24d9a5275,680,The Picture House,,Market Street,Ebbw Vale,Blaenau Gwent,NP23 6HP,Wales,Blaenau Gwent,-3.20761799812317,51.7796516418457,01495 352382,False,False
bae210a4-b80f-44dc-9544-59f6137be761,5468,The Pontlottyn,,Somerset Street,Abertillery,Blaenau Gwent,NP13 1DJ,Wales,Blaenau Gwent,-3.13453698158264,51.7298393249512,01495 322930,False,False
991d4c6e-4296-40cf-acb4-1bfe83f42ab4,1013,The Palladium,,7 Gloddaeth Street,Llandudno,Conwy,LL30 2DD,Wales,Conwy,-3.83235907554626,53.3251724243164,01492 863920,False,False
ae375321-05f8-4027-95e5-cc660b5d0b91,807,The Picture House,,24–26 Prince’s Drive,Colwyn Bay,Conwy,LL29 8LA,Wales,Conwy,-3.72780108451843,53.2967109680176,01492 535286,False,False
bc78041f-1ec2-413b-9775-8cedd61cc4c9,6954,The Sawyer’s Arms,,3–6 Commercial Street,Maesteg,Bridgend,CF34 9DF,Wales,Bridgend,-3.65994906425476,51.6084289550781,01656 810115,False,False
bcd87533-20e7-42bc-833a-4c8246cd834a,1087,The Wyndham Arms,,Dunraven Place,Bridgend,Bridgend,CF31 1JE,Wales,Bridgend,-3.57926988601685,51.5066375732422,01656 673571,False,False
b601b2e0-ba8c-40d8-bddb-dd66814bd0b8,2470,The Tumble Inn,,4–9 Broadway/Sardis Road,Pontypridd,Rhondda Cynon Taff,CF37 1BA,Wales,Rhondda Cynon Taff,-3.34081792831421,51.5994834899902,01443 484390,False,False
d48d2a3e-1d46-4ec8-b742-e53b7c133cba,2667,Yr Ieuan Ap Iago,,6 High Street,Aberdare,Rhondda Cynon Taff,CF44 7AA,Wales,Rhondda Cynon Taff,-3.44632196426392,51.7127418518066,01685 880080,False,False
adfe8643-9beb-429a-9a56-87489ada2f5c,5748,The William Owen,,6 Quay Street,Haverfordwest,Pembrokeshire,SA61 1BG,Wales,Pembrokeshire,-4.96822881698608,51.8015556335449,01437 771900,False,False
b84bcafc-8a71-4fbd-8350-7d566a1e8bad,465,The York Palace,,51 Stepney Street,Llanelli,Carmarthenshire,SA15 3YA,Wales,Carmarthenshire,-4.16324377059937,51.680908203125,01554 758609,False,False
0506ba71-eda5-495a-9273-c4a71c64972b,1721,Yr Hen Dderwen,,47–48 King Street,Carmarthen,Carmarthenshire,SA31 1BH,Wales,Carmarthenshire,-4.30499601364136,51.8570518493652,01267 242050,False,False
2e92044e-21f0-4353-8fd9-4a829e9ba40e,1258,Y Dic Penderyn,,102–103 High Street,Merthyr Tydfil,Merthyr Tydfil,CF47 8AP,Wales,Merthyr Tydfil,-3.37813901901245,51.7473793029785,01685 385786,False,False
3f5423ed-cbc2-486f-81b2-8abca4105f9f,1176,Yr Hen Orsaf,,Alexandra Road,Aberystwyth,Ceredigion,SY23 1LN,Wales,Ceredigion,-4.0818247795105,52.4140892028809,01970 636080,False,False
